{
"type": "FeatureCollection",
"name": "buildings_risk",
"crs": { "type": "name", "properties": { "name": "urn:ogc:def:crs:OGC:1.3:CRS84" } },
"features": [
{ "type": "Feature", "properties": { "osm_id": "way/1099761670", "name": null, "source": "OpenStreetMap/Overpass", "building": "house", "feature_type": "building", "nearest_transect_id": "T34", "erosion_rate_m_per_year": 1.065, "distance_to_shoreline_m": 128.2, "years_to_impact": 120.4, "risk_level": "bajo", "risk_explanation": "Impacto estimado después de 30 años", "horizon_years": 30, "exposed_length_m": null, "exposed_area_m2": 0.0 }, "geometry": { "type": "Polygon", "coordinates": [ [ [ -71.6341547, -33.643882499999989 ], [ -71.6341635, -33.6438762 ], [ -71.6341074, -33.643822 ], [ -71.6340227, -33.6438827 ], [ -71.6340642, -33.6439228 ], [ -71.6340846, -33.643923299999983 ], [ -71.6341039, -33.6439126 ], [ -71.6341372, -33.6439369 ], [ -71.6341373, -33.6439465 ], [ -71.6342501, -33.6439455 ], [ -71.6342493, -33.6438816 ], [ -71.6341547, -33.643882499999989 ] ] ] } },
{ "type": "Feature", "properties": { "osm_id": "way/1099761671", "name": null, "source": "OpenStreetMap/Overpass", "building": "house", "feature_type": "building", "nearest_transect_id": "T34", "erosion_rate_m_per_year": 1.065, "distance_to_shoreline_m": 125.7, "years_to_impact": 118.0, "risk_level": "bajo", "risk_explanation": "Impacto estimado después de 30 años", "horizon_years": 30, "exposed_length_m": null, "exposed_area_m2": 0.0 }, "geometry": { "type": "Polygon", "coordinates": [ [ [ -71.6341249, -33.6437524 ], [ -71.634151, -33.6437172 ], [ -71.6341924, -33.6437385 ], [ -71.6341949, -33.6437351 ], [ -71.634227, -33.6437516 ], [ -71.6342661, -33.64369880000001 ], [ -71.6342342, -33.6436824 ], [ -71.6342516, -33.643659 ], [ -71.634237, -33.6436351 ], [ -71.6342229, -33.6436279 ], [ -71.6342338, -33.6436131 ], [ -71.6341582, -33.6435742 ], [ -71.6340534, -33.6437157 ], [ -71.6341249, -33.6437524 ] ] ] } },
{ "type": "Feature", "properties": { "osm_id": "way/1099761695", "name": null, "source": "OpenStreetMap/Overpass", "building": "house", "feature_type": "building", "nearest_transect_id": "T32", "erosion_rate_m_per_year": 1.497, "distance_to_shoreline_m": 133.3, "years_to_impact": 89.0, "risk_level": "bajo", "risk_explanation": "Impacto estimado después de 30 años", "horizon_years": 30, "exposed_length_m": null, "exposed_area_m2": 0.0 }, "geometry": { "type": "Polygon", "coordinates": [ [ [ -71.63414370000001, -33.6432765 ], [ -71.634133700000021, -33.643132200000011 ], [ -71.634075, -33.643135 ], [ -71.6340794, -33.6431985 ], [ -71.6340133, -33.6432017 ], [ -71.6340189, -33.6432825 ], [ -71.63414370000001, -33.6432765 ] ] ] } },
{ "type": "Feature", "properties": { "osm_id": "way/1099761698", "name": null, "source": "OpenStreetMap/Overpass", "building": "house", "feature_type": "building", "nearest_transect_id": "T31", "erosion_rate_m_per_year": 1.714, "distance_to_shoreline_m": 126.0, "years_to_impact": 73.6, "risk_level": "bajo", "risk_explanation": "Impacto estimado después de 30 años", "horizon_years": 30, "exposed_length_m": null, "exposed_area_m2": 0.0 }, "geometry": { "type": "Polygon", "coordinates": [ [ [ -71.634118, -33.6426807 ], [ -71.6341605, -33.6426018 ], [ -71.634138, -33.6425934 ], [ -71.63414250000001, -33.6425851 ], [ -71.6341324, -33.6425814 ], [ -71.6341276, -33.6425902 ], [ -71.6340063, -33.642545 ], [ -71.6339641, -33.6426233 ], [ -71.634118, -33.6426807 ] ] ] } },
{ "type": "Feature", "properties": { "osm_id": "way/1099761699", "name": null, "source": "OpenStreetMap/Overpass", "building": "house", "feature_type": "building", "nearest_transect_id": "T30", "erosion_rate_m_per_year": 1.865, "distance_to_shoreline_m": 126.2, "years_to_impact": 67.7, "risk_level": "bajo", "risk_explanation": "Impacto estimado después de 30 años", "horizon_years": 30, "exposed_length_m": null, "exposed_area_m2": 0.0 }, "geometry": { "type": "Polygon", "coordinates": [ [ [ -71.6340848, -33.6424943 ], [ -71.6340841, -33.642471 ], [ -71.6341372, -33.6424699 ], [ -71.634133700000021, -33.642346 ], [ -71.6339568, -33.6423495 ], [ -71.6339603, -33.6424739 ], [ -71.6340427, -33.6424723 ], [ -71.6340434, -33.642495099999984 ], [ -71.6340848, -33.6424943 ] ] ] } },
{ "type": "Feature", "properties": { "osm_id": "way/1099761700", "name": null, "source": "OpenStreetMap/Overpass", "building": "house", "feature_type": "building", "nearest_transect_id": "T30", "erosion_rate_m_per_year": 1.865, "distance_to_shoreline_m": 127.2, "years_to_impact": 68.2, "risk_level": "bajo", "risk_explanation": "Impacto estimado después de 30 años", "horizon_years": 30, "exposed_length_m": null, "exposed_area_m2": 0.0 }, "geometry": { "type": "Polygon", "coordinates": [ [ [ -71.634115, -33.6422605 ], [ -71.6340809, -33.6422598 ], [ -71.6340828, -33.6421954 ], [ -71.6340749, -33.64219520000001 ], [ -71.634075400000015, -33.6421798 ], [ -71.6340539, -33.6421793 ], [ -71.6340534, -33.6421962 ], [ -71.6339577, -33.6421942 ], [ -71.633955, -33.6422838 ], [ -71.6339988, -33.6422848 ], [ -71.6339983, -33.6423017 ], [ -71.6341137, -33.6423041 ], [ -71.634115, -33.6422605 ] ] ] } },
{ "type": "Feature", "properties": { "osm_id": "way/563349671", "name": null, "source": "OpenStreetMap/Overpass", "building": "yes", "feature_type": "building", "nearest_transect_id": "T24", "erosion_rate_m_per_year": 1.651, "distance_to_shoreline_m": 102.4, "years_to_impact": 62.0, "risk_level": "bajo", "risk_explanation": "Impacto estimado después de 30 años", "horizon_years": 30, "exposed_length_m": null, "exposed_area_m2": 0.0 }, "geometry": { "type": "Polygon", "coordinates": [ [ [ -71.6341365, -33.6398256 ], [ -71.6341389, -33.639899 ], [ -71.6340866, -33.6399002 ], [ -71.6340892, -33.6399797 ], [ -71.63404730000002, -33.6399806 ], [ -71.6340495, -33.640049 ], [ -71.6341095, -33.64004760000001 ], [ -71.634127, -33.6405923 ], [ -71.6340531, -33.640594 ], [ -71.6340558, -33.6406753 ], [ -71.634128, -33.640673699999986 ], [ -71.6341305, -33.6407514 ], [ -71.6343026, -33.640747500000018 ], [ -71.6343002, -33.6406738 ], [ -71.6342424, -33.6406751 ], [ -71.6342398, -33.6405943 ], [ -71.634297, -33.6405931 ], [ -71.6342795, -33.6400481 ], [ -71.6342297, -33.6400492 ], [ -71.6342276, -33.639984 ], [ -71.6342837, -33.6399828 ], [ -71.6342785, -33.6398225 ], [ -71.6341365, -33.6398256 ] ] ] } },
{ "type": "Feature", "properties": { "osm_id": "way/643001279", "name": null, "source": "OpenStreetMap/Overpass", "building": "yes", "feature_type": "building", "nearest_transect_id": "T12", "erosion_rate_m_per_year": -0.611, "distance_to_shoreline_m": 133.4, "years_to_impact": null, "risk_level": "bajo", "risk_explanation": "Sin avance erosivo positivo medido", "horizon_years": 30, "exposed_length_m": null, "exposed_area_m2": 0.0 }, "geometry": { "type": "Polygon", "coordinates": [ [ [ -71.6339577, -33.635819 ], [ -71.633842, -33.635756399999984 ], [ -71.6337326, -33.6358966 ], [ -71.6338482, -33.6359592 ], [ -71.6339577, -33.635819 ] ] ] } },
{ "type": "Feature", "properties": { "osm_id": "way/643001286", "name": null, "source": "OpenStreetMap/Overpass", "building": "house", "feature_type": "building", "nearest_transect_id": "T10", "erosion_rate_m_per_year": -0.827, "distance_to_shoreline_m": 140.7, "years_to_impact": null, "risk_level": "bajo", "risk_explanation": "Sin avance erosivo positivo medido", "horizon_years": 30, "exposed_length_m": null, "exposed_area_m2": 0.0 }, "geometry": { "type": "Polygon", "coordinates": [ [ [ -71.6338953, -33.6350967 ], [ -71.6338388, -33.6350255 ], [ -71.6337978, -33.635048 ], [ -71.6338543, -33.6351192 ], [ -71.6338953, -33.6350967 ] ] ] } },
{ "type": "Feature", "properties": { "osm_id": "way/643001283", "name": null, "source": "OpenStreetMap/Overpass", "building": "house", "feature_type": "building", "nearest_transect_id": "T09", "erosion_rate_m_per_year": -0.935, "distance_to_shoreline_m": 114.5, "years_to_impact": null, "risk_level": "bajo", "risk_explanation": "Sin avance erosivo positivo medido", "horizon_years": 30, "exposed_length_m": null, "exposed_area_m2": 0.0 }, "geometry": { "type": "Polygon", "coordinates": [ [ [ -71.6341889, -33.6348937 ], [ -71.6341409, -33.6347879 ], [ -71.634034, -33.6348216 ], [ -71.634082, -33.6349273 ], [ -71.6341889, -33.6348937 ] ] ] } },
{ "type": "Feature", "properties": { "osm_id": "way/1099761669", "name": null, "source": "OpenStreetMap/Overpass", "building": "house", "feature_type": "building", "nearest_transect_id": "T35", "erosion_rate_m_per_year": 0.849, "distance_to_shoreline_m": 118.8, "years_to_impact": 140.0, "risk_level": "bajo", "risk_explanation": "Impacto estimado después de 30 años", "horizon_years": 30, "exposed_length_m": null, "exposed_area_m2": 0.0 }, "geometry": { "type": "Polygon", "coordinates": [ [ [ -71.634359100000012, -33.6440359 ], [ -71.634304, -33.64403690000001 ], [ -71.6343031, -33.6440018 ], [ -71.6342342, -33.644003 ], [ -71.634237, -33.6441123 ], [ -71.634361, -33.6441101 ], [ -71.634359100000012, -33.6440359 ] ] ] } },
{ "type": "Feature", "properties": { "osm_id": "way/1099761668", "name": null, "source": "OpenStreetMap/Overpass", "building": "house", "feature_type": "building", "nearest_transect_id": "T35", "erosion_rate_m_per_year": 0.849, "distance_to_shoreline_m": 102.0, "years_to_impact": 120.2, "risk_level": "bajo", "risk_explanation": "Impacto estimado después de 30 años", "horizon_years": 30, "exposed_length_m": null, "exposed_area_m2": 0.0 }, "geometry": { "type": "Polygon", "coordinates": [ [ [ -71.6345279, -33.6440793 ], [ -71.6345278, -33.6440725 ], [ -71.6345414, -33.6440724 ], [ -71.6345411, -33.6440391 ], [ -71.6345264, -33.6440392 ], [ -71.6345262, -33.6440154 ], [ -71.6344277, -33.6440161 ], [ -71.6344283, -33.6440799 ], [ -71.6345279, -33.6440793 ] ] ] } },
{ "type": "Feature", "properties": { "osm_id": "way/1099761694", "name": null, "source": "OpenStreetMap/Overpass", "building": "house", "feature_type": "building", "nearest_transect_id": "T32", "erosion_rate_m_per_year": 1.497, "distance_to_shoreline_m": 113.1, "years_to_impact": 75.6, "risk_level": "bajo", "risk_explanation": "Impacto estimado después de 30 años", "horizon_years": 30, "exposed_length_m": null, "exposed_area_m2": 0.0 }, "geometry": { "type": "Polygon", "coordinates": [ [ [ -71.6343551, -33.643255 ], [ -71.6343548, -33.6431672 ], [ -71.6342868, -33.6431673 ], [ -71.6342869, -33.6432039 ], [ -71.6343092, -33.64320390000001 ], [ -71.6343094, -33.643255100000012 ], [ -71.6343551, -33.643255 ] ] ] } },
{ "type": "Feature", "properties": { "osm_id": "way/1099761696", "name": null, "source": "OpenStreetMap/Overpass", "building": "house", "feature_type": "building", "nearest_transect_id": "T32", "erosion_rate_m_per_year": 1.497, "distance_to_shoreline_m": 99.8, "years_to_impact": 66.6, "risk_level": "bajo", "risk_explanation": "Impacto estimado después de 30 años", "horizon_years": 30, "exposed_length_m": null, "exposed_area_m2": 0.0 }, "geometry": { "type": "Polygon", "coordinates": [ [ [ -71.6344647, -33.6430971 ], [ -71.6344803, -33.642972 ], [ -71.6343969, -33.6429648 ], [ -71.6343956, -33.6429753 ], [ -71.6343684, -33.642973 ], [ -71.6343633, -33.6430146 ], [ -71.6343849, -33.6430165 ], [ -71.6343758, -33.6430895 ], [ -71.6344647, -33.6430971 ] ] ] } },
{ "type": "Feature", "properties": { "osm_id": "way/1099761701", "name": null, "source": "OpenStreetMap/Overpass", "building": "house", "feature_type": "building", "nearest_transect_id": "T31", "erosion_rate_m_per_year": 1.714, "distance_to_shoreline_m": 97.0, "years_to_impact": 56.6, "risk_level": "bajo", "risk_explanation": "Impacto estimado después de 30 años", "horizon_years": 30, "exposed_length_m": null, "exposed_area_m2": 0.0 }, "geometry": { "type": "Polygon", "coordinates": [ [ [ -71.6343382, -33.6426206 ], [ -71.6343357, -33.6425895 ], [ -71.6343175, -33.642590500000011 ], [ -71.6343168, -33.642582 ], [ -71.6342596, -33.642585099999977 ], [ -71.6342673, -33.6426805 ], [ -71.6343207, -33.6426775 ], [ -71.6343244, -33.6427226 ], [ -71.634366, -33.6427203 ], [ -71.6343666, -33.6427276 ], [ -71.6344133, -33.642725 ], [ -71.6344118, -33.642707 ], [ -71.6344832, -33.642703 ], [ -71.6344759, -33.6426129 ], [ -71.6343382, -33.6426206 ] ] ] } },
{ "type": "Feature", "properties": { "osm_id": "way/1099761702", "name": null, "source": "OpenStreetMap/Overpass", "building": "house", "feature_type": "building", "nearest_transect_id": "T30", "erosion_rate_m_per_year": 1.865, "distance_to_shoreline_m": 96.1, "years_to_impact": 51.6, "risk_level": "bajo", "risk_explanation": "Impacto estimado después de 30 años", "horizon_years": 30, "exposed_length_m": null, "exposed_area_m2": 0.0 }, "geometry": { "type": "Polygon", "coordinates": [ [ [ -71.6344633, -33.6424985 ], [ -71.634468, -33.6424389 ], [ -71.6344134, -33.642436 ], [ -71.6344154, -33.642409 ], [ -71.6343982, -33.6424081 ], [ -71.6343995, -33.6423911 ], [ -71.6343537, -33.6423887 ], [ -71.63435, -33.6424365 ], [ -71.6342888, -33.6424332 ], [ -71.6342845, -33.642488899999989 ], [ -71.6344633, -33.6424985 ] ] ] } },
{ "type": "Feature", "properties": { "osm_id": "way/563349672", "name": null, "source": "OpenStreetMap/Overpass", "building": "apartments", "feature_type": "building", "nearest_transect_id": "T25", "erosion_rate_m_per_year": 1.841, "distance_to_shoreline_m": 60.9, "years_to_impact": 33.1, "risk_level": "bajo", "risk_explanation": "Impacto estimado después de 30 años", "horizon_years": 30, "exposed_length_m": null, "exposed_area_m2": 0.0 }, "geometry": { "type": "Polygon", "coordinates": [ [ [ -71.6343987, -33.6405716 ], [ -71.6344621, -33.64057 ], [ -71.6344635, -33.6406114 ], [ -71.6346591, -33.6406066 ], [ -71.6346568, -33.6405423 ], [ -71.6347453, -33.6405401 ], [ -71.6347413, -33.640426899999987 ], [ -71.6345404, -33.6404318 ], [ -71.6345413, -33.640457099999985 ], [ -71.6343948, -33.6404607 ], [ -71.6343987, -33.6405716 ] ] ] } },
{ "type": "Feature", "properties": { "osm_id": "way/643001067", "name": null, "source": "OpenStreetMap/Overpass", "building": "yes", "feature_type": "building", "nearest_transect_id": "T18", "erosion_rate_m_per_year": 0.557, "distance_to_shoreline_m": 44.5, "years_to_impact": 79.9, "risk_level": "bajo", "risk_explanation": "Impacto estimado después de 30 años", "horizon_years": 30, "exposed_length_m": null, "exposed_area_m2": 0.0 }, "geometry": { "type": "Polygon", "coordinates": [ [ [ -71.6348715, -33.6378374 ], [ -71.6348391, -33.6378382 ], [ -71.6348418, -33.637911 ], [ -71.6348742, -33.6379101 ], [ -71.6348715, -33.6378374 ] ] ] } },
{ "type": "Feature", "properties": { "osm_id": "way/643001285", "name": null, "source": "OpenStreetMap/Overpass", "building": "house", "feature_type": "building", "nearest_transect_id": "T10", "erosion_rate_m_per_year": -0.827, "distance_to_shoreline_m": 99.6, "years_to_impact": null, "risk_level": "bajo", "risk_explanation": "Sin avance erosivo positivo medido", "horizon_years": 30, "exposed_length_m": null, "exposed_area_m2": 0.0 }, "geometry": { "type": "Polygon", "coordinates": [ [ [ -71.6342394, -33.6350027 ], [ -71.6342473, -33.635021799999983 ], [ -71.6343438, -33.6349943 ], [ -71.6343169, -33.6349289 ], [ -71.6342202, -33.6349564 ], [ -71.6342157, -33.6349455 ], [ -71.6341159, -33.6349739 ], [ -71.6341394, -33.635031099999985 ], [ -71.6342394, -33.6350027 ] ] ] } },
{ "type": "Feature", "properties": { "osm_id": "way/456468913", "name": null, "source": "OpenStreetMap/Overpass", "building": "apartments", "feature_type": "building", "nearest_transect_id": "T01", "erosion_rate_m_per_year": -1.8, "distance_to_shoreline_m": 305.3, "years_to_impact": null, "risk_level": "bajo", "risk_explanation": "Sin avance erosivo positivo medido", "horizon_years": 30, "exposed_length_m": null, "exposed_area_m2": 0.0 }, "geometry": { "type": "Polygon", "coordinates": [ [ [ -71.6353379, -33.6290234 ], [ -71.635221, -33.629054 ], [ -71.6352714, -33.6291877 ], [ -71.6353883, -33.6291572 ], [ -71.6353379, -33.6290234 ] ] ] } },
{ "type": "Feature", "properties": { "osm_id": "way/643001278", "name": null, "source": "OpenStreetMap/Overpass", "building": "yes", "feature_type": "building", "nearest_transect_id": "T14", "erosion_rate_m_per_year": -0.189, "distance_to_shoreline_m": 186.1, "years_to_impact": null, "risk_level": "bajo", "risk_explanation": "Sin avance erosivo positivo medido", "horizon_years": 30, "exposed_length_m": null, "exposed_area_m2": 0.0 }, "geometry": { "type": "Polygon", "coordinates": [ [ [ -71.6333329, -33.6367314 ], [ -71.6332816, -33.6367282 ], [ -71.6332842, -33.6366994 ], [ -71.6333484, -33.6367034 ], [ -71.6333551, -33.6366272 ], [ -71.6332996, -33.6366238 ], [ -71.6333023, -33.6365932 ], [ -71.6333712, -33.6365974 ], [ -71.6333785, -33.636516 ], [ -71.6333099, -33.6365118 ], [ -71.6333131, -33.6364757 ], [ -71.6332355, -33.6364709 ], [ -71.633206, -33.6368029 ], [ -71.6333259, -33.6368103 ], [ -71.6333329, -33.6367314 ] ] ] } },
{ "type": "Feature", "properties": { "osm_id": "way/643001280", "name": null, "source": "OpenStreetMap/Overpass", "building": "yes", "feature_type": "building", "nearest_transect_id": "T13", "erosion_rate_m_per_year": -0.405, "distance_to_shoreline_m": 149.7, "years_to_impact": null, "risk_level": "bajo", "risk_explanation": "Sin avance erosivo positivo medido", "horizon_years": 30, "exposed_length_m": null, "exposed_area_m2": 0.0 }, "geometry": { "type": "Polygon", "coordinates": [ [ [ -71.6336814, -33.6359691 ], [ -71.6334496, -33.6362615 ], [ -71.6334199, -33.6362451 ], [ -71.6333659, -33.6363133 ], [ -71.6334947, -33.6363841 ], [ -71.6337806, -33.6360236 ], [ -71.6336814, -33.6359691 ] ] ] } },
{ "type": "Feature", "properties": { "osm_id": "way/643001293", "name": null, "source": "OpenStreetMap/Overpass", "building": "house", "feature_type": "building", "nearest_transect_id": "T11", "erosion_rate_m_per_year": -0.719, "distance_to_shoreline_m": 215.9, "years_to_impact": null, "risk_level": "bajo", "risk_explanation": "Sin avance erosivo positivo medido", "horizon_years": 30, "exposed_length_m": null, "exposed_area_m2": 0.0 }, "geometry": { "type": "Polygon", "coordinates": [ [ [ -71.633073, -33.6354027 ], [ -71.6328681, -33.6353609 ], [ -71.6328518, -33.6354165 ], [ -71.6328067, -33.6354073 ], [ -71.63279110000002, -33.6354603 ], [ -71.6329711, -33.635497 ], [ -71.6329649, -33.6355181 ], [ -71.6330348, -33.6355323 ], [ -71.633073, -33.6354027 ] ] ] } },
{ "type": "Feature", "properties": { "osm_id": "way/643001288", "name": null, "source": "OpenStreetMap/Overpass", "building": "house", "feature_type": "building", "nearest_transect_id": "T11", "erosion_rate_m_per_year": -0.719, "distance_to_shoreline_m": 214.0, "years_to_impact": null, "risk_level": "bajo", "risk_explanation": "Sin avance erosivo positivo medido", "horizon_years": 30, "exposed_length_m": null, "exposed_area_m2": 0.0 }, "geometry": { "type": "Polygon", "coordinates": [ [ [ -71.633097300000017, -33.6352496 ], [ -71.6329893, -33.6352393 ], [ -71.6329743, -33.6353482 ], [ -71.6330824, -33.6353585 ], [ -71.633097300000017, -33.6352496 ] ] ] } },
{ "type": "Feature", "properties": { "osm_id": "way/643001292", "name": null, "source": "OpenStreetMap/Overpass", "building": "house", "feature_type": "building", "nearest_transect_id": "T10", "erosion_rate_m_per_year": -0.827, "distance_to_shoreline_m": 268.0, "years_to_impact": null, "risk_level": "bajo", "risk_explanation": "Sin avance erosivo positivo medido", "horizon_years": 30, "exposed_length_m": null, "exposed_area_m2": 0.0 }, "geometry": { "type": "Polygon", "coordinates": [ [ [ -71.6324508, -33.6353074 ], [ -71.6324365, -33.6352895 ], [ -71.6325141, -33.6352692 ], [ -71.6324539, -33.6351102 ], [ -71.6323714, -33.6351318 ], [ -71.6324092, -33.6352317 ], [ -71.6323829, -33.6352385 ], [ -71.6324127, -33.6353173 ], [ -71.6324508, -33.6353074 ] ] ] } },
{ "type": "Feature", "properties": { "osm_id": "way/643001291", "name": null, "source": "OpenStreetMap/Overpass", "building": "house", "feature_type": "building", "nearest_transect_id": "T10", "erosion_rate_m_per_year": -0.827, "distance_to_shoreline_m": 290.0, "years_to_impact": null, "risk_level": "bajo", "risk_explanation": "Sin avance erosivo positivo medido", "horizon_years": 30, "exposed_length_m": null, "exposed_area_m2": 0.0 }, "geometry": { "type": "Polygon", "coordinates": [ [ [ -71.6322797, -33.6352048 ], [ -71.6322519, -33.6351123 ], [ -71.6321255, -33.6351386 ], [ -71.6321533, -33.6352311 ], [ -71.6322797, -33.6352048 ] ] ] } },
{ "type": "Feature", "properties": { "osm_id": "way/643001287", "name": null, "source": "OpenStreetMap/Overpass", "building": "house", "feature_type": "building", "nearest_transect_id": "T10", "erosion_rate_m_per_year": -0.827, "distance_to_shoreline_m": 213.6, "years_to_impact": null, "risk_level": "bajo", "risk_explanation": "Sin avance erosivo positivo medido", "horizon_years": 30, "exposed_length_m": null, "exposed_area_m2": 0.0 }, "geometry": { "type": "Polygon", "coordinates": [ [ [ -71.6330975, -33.6350936 ], [ -71.6329643, -33.6350916 ], [ -71.6329596, -33.6351866 ], [ -71.6331046, -33.6351906 ], [ -71.6330975, -33.6350936 ] ] ] } },
{ "type": "Feature", "properties": { "osm_id": "way/643001282", "name": null, "source": "OpenStreetMap/Overpass", "building": "yes", "feature_type": "building", "nearest_transect_id": "T09", "erosion_rate_m_per_year": -0.935, "distance_to_shoreline_m": 162.2, "years_to_impact": null, "risk_level": "bajo", "risk_explanation": "Sin avance erosivo positivo medido", "horizon_years": 30, "exposed_length_m": null, "exposed_area_m2": 0.0 }, "geometry": { "type": "Polygon", "coordinates": [ [ [ -71.6336696, -33.6349839 ], [ -71.6335312, -33.634749 ], [ -71.6334155, -33.6347963 ], [ -71.6335539, -33.635031199999986 ], [ -71.6336696, -33.6349839 ] ] ] } },
{ "type": "Feature", "properties": { "osm_id": "way/643001297", "name": null, "source": "OpenStreetMap/Overpass", "building": "yes", "feature_type": "building", "nearest_transect_id": "T01", "erosion_rate_m_per_year": -1.8, "distance_to_shoreline_m": 533.4, "years_to_impact": null, "risk_level": "bajo", "risk_explanation": "Sin avance erosivo positivo medido", "horizon_years": 30, "exposed_length_m": null, "exposed_area_m2": 0.0 }, "geometry": { "type": "Polygon", "coordinates": [ [ [ -71.631511, -33.628463 ], [ -71.6314349, -33.6283469 ], [ -71.6311752, -33.6284651 ], [ -71.6312513, -33.6285811 ], [ -71.631511, -33.628463 ] ] ] } },
{ "type": "Feature", "properties": { "osm_id": "way/643001284", "name": null, "source": "OpenStreetMap/Overpass", "building": "yes", "feature_type": "building", "nearest_transect_id": "T09", "erosion_rate_m_per_year": -0.935, "distance_to_shoreline_m": 139.3, "years_to_impact": null, "risk_level": "bajo", "risk_explanation": "Sin avance erosivo positivo medido", "horizon_years": 30, "exposed_length_m": null, "exposed_area_m2": 0.0 }, "geometry": { "type": "Polygon", "coordinates": [ [ [ -71.6339274, -33.6347617 ], [ -71.6338073, -33.6345668 ], [ -71.6337434, -33.6345941 ], [ -71.6338635, -33.634789 ], [ -71.6339274, -33.6347617 ] ] ] } },
{ "type": "Feature", "properties": { "osm_id": "way/456468920", "name": null, "source": "OpenStreetMap/Overpass", "building": "apartments", "feature_type": "building", "nearest_transect_id": "T01", "erosion_rate_m_per_year": -1.8, "distance_to_shoreline_m": 415.1, "years_to_impact": null, "risk_level": "bajo", "risk_explanation": "Sin avance erosivo positivo medido", "horizon_years": 30, "exposed_length_m": null, "exposed_area_m2": 0.0 }, "geometry": { "type": "Polygon", "coordinates": [ [ [ -71.6341427, -33.6282096 ], [ -71.6341284, -33.6283109 ], [ -71.6342956, -33.6283273 ], [ -71.6343099, -33.628226 ], [ -71.6341427, -33.6282096 ] ] ] } },
{ "type": "Feature", "properties": { "osm_id": "way/456468917", "name": null, "source": "OpenStreetMap/Overpass", "building": "apartments", "feature_type": "building", "nearest_transect_id": "T01", "erosion_rate_m_per_year": -1.8, "distance_to_shoreline_m": 454.8, "years_to_impact": null, "risk_level": "bajo", "risk_explanation": "Sin avance erosivo positivo medido", "horizon_years": 30, "exposed_length_m": null, "exposed_area_m2": 0.0 }, "geometry": { "type": "Polygon", "coordinates": [ [ [ -71.6339994, -33.6278535 ], [ -71.6339021, -33.6279155 ], [ -71.6340044, -33.6280268 ], [ -71.6341017, -33.6279648 ], [ -71.6339994, -33.6278535 ] ] ] } },
{ "type": "Feature", "properties": { "osm_id": "way/456468921", "name": null, "source": "OpenStreetMap/Overpass", "building": "apartments", "feature_type": "building", "nearest_transect_id": "T01", "erosion_rate_m_per_year": -1.8, "distance_to_shoreline_m": 467.2, "years_to_impact": null, "risk_level": "bajo", "risk_explanation": "Sin avance erosivo positivo medido", "horizon_years": 30, "exposed_length_m": null, "exposed_area_m2": 0.0 }, "geometry": { "type": "Polygon", "coordinates": [ [ [ -71.6336948, -33.6278344 ], [ -71.6336805, -33.6279357 ], [ -71.6338477, -33.6279521 ], [ -71.633862, -33.6278508 ], [ -71.6336948, -33.6278344 ] ] ] } },
{ "type": "Feature", "properties": { "osm_id": "way/456468915", "name": null, "source": "OpenStreetMap/Overpass", "building": "apartments", "feature_type": "building", "nearest_transect_id": "T01", "erosion_rate_m_per_year": -1.8, "distance_to_shoreline_m": 321.0, "years_to_impact": null, "risk_level": "bajo", "risk_explanation": "Sin avance erosivo positivo medido", "horizon_years": 30, "exposed_length_m": null, "exposed_area_m2": 0.0 }, "geometry": { "type": "Polygon", "coordinates": [ [ [ -71.6350659, -33.6288945 ], [ -71.6350395, -33.6289316 ], [ -71.6350033, -33.6289822 ], [ -71.635148, -33.6290538 ], [ -71.6352106, -33.6289662 ], [ -71.6350659, -33.6288945 ] ] ] } },
{ "type": "Feature", "properties": { "osm_id": "way/456468914", "name": null, "source": "OpenStreetMap/Overpass", "building": "apartments", "feature_type": "building", "nearest_transect_id": "T01", "erosion_rate_m_per_year": -1.8, "distance_to_shoreline_m": 356.5, "years_to_impact": null, "risk_level": "bajo", "risk_explanation": "Sin avance erosivo positivo medido", "horizon_years": 30, "exposed_length_m": null, "exposed_area_m2": 0.0 }, "geometry": { "type": "Polygon", "coordinates": [ [ [ -71.6349194, -33.6285815 ], [ -71.6348221, -33.6286435 ], [ -71.6349244, -33.6287548 ], [ -71.6350217, -33.6286928 ], [ -71.6349194, -33.6285815 ] ] ] } },
{ "type": "Feature", "properties": { "osm_id": "way/456468919", "name": null, "source": "OpenStreetMap/Overpass", "building": "apartments", "feature_type": "building", "nearest_transect_id": "T01", "erosion_rate_m_per_year": -1.8, "distance_to_shoreline_m": 368.5, "years_to_impact": null, "risk_level": "bajo", "risk_explanation": "Sin avance erosivo positivo medido", "horizon_years": 30, "exposed_length_m": null, "exposed_area_m2": 0.0 }, "geometry": { "type": "Polygon", "coordinates": [ [ [ -71.6346148, -33.6285491 ], [ -71.6346005, -33.628650399999984 ], [ -71.6347677, -33.628666699999989 ], [ -71.634782, -33.6285654 ], [ -71.6346148, -33.6285491 ] ] ] } },
{ "type": "Feature", "properties": { "osm_id": "way/456468916", "name": null, "source": "OpenStreetMap/Overpass", "building": "apartments", "feature_type": "building", "nearest_transect_id": "T01", "erosion_rate_m_per_year": -1.8, "distance_to_shoreline_m": 403.0, "years_to_impact": null, "risk_level": "bajo", "risk_explanation": "Sin avance erosivo positivo medido", "horizon_years": 30, "exposed_length_m": null, "exposed_area_m2": 0.0 }, "geometry": { "type": "Polygon", "coordinates": [ [ [ -71.6344473, -33.6282331 ], [ -71.63435, -33.6282951 ], [ -71.6344524, -33.6284064 ], [ -71.6345496, -33.628344399999989 ], [ -71.6344473, -33.6282331 ] ] ] } },
{ "type": "Feature", "properties": { "osm_id": "way/456468918", "name": null, "source": "OpenStreetMap/Overpass", "building": "apartments", "feature_type": "building", "nearest_transect_id": "T01", "erosion_rate_m_per_year": -1.8, "distance_to_shoreline_m": 509.5, "years_to_impact": null, "risk_level": "bajo", "risk_explanation": "Sin avance erosivo positivo medido", "horizon_years": 30, "exposed_length_m": null, "exposed_area_m2": 0.0 }, "geometry": { "type": "Polygon", "coordinates": [ [ [ -71.6334863, -33.6275135 ], [ -71.6335887, -33.6276248 ], [ -71.633686, -33.627562799999986 ], [ -71.633597247124314, -33.62746633325132 ], [ -71.63355904297525, -33.62746714784722 ], [ -71.6334863, -33.6275135 ] ] ] } },
{ "type": "Feature", "properties": { "osm_id": "way/456468922", "name": null, "source": "OpenStreetMap/Overpass", "building": "apartments", "feature_type": "building", "nearest_transect_id": "T01", "erosion_rate_m_per_year": -1.8, "distance_to_shoreline_m": 523.0, "years_to_impact": null, "risk_level": "bajo", "risk_explanation": "Sin avance erosivo positivo medido", "horizon_years": 30, "exposed_length_m": null, "exposed_area_m2": 0.0 }, "geometry": { "type": "Polygon", "coordinates": [ [ [ -71.633254, -33.6275314 ], [ -71.6334212, -33.6275478 ], [ -71.633432203469923, -33.627469852342465 ], [ -71.633262176595053, -33.627473477686763 ], [ -71.633254, -33.6275314 ] ] ] } }
]
}
