{
  "type": "FeatureCollection",
  "name": "shorelines_2016_2026_fes2014",
  "features": [
    {
      "type": "Feature",
      "properties": {
        "year": 2016,
        "scene_count": 1,
        "processing_level": "L2A_FES2014"
      },
      "geometry": {
        "type": "LineString",
        "coordinates": [
          [
            -71.66378696644361,
            -33.358747931197925
          ],
          [
            -71.66397272371378,
            -33.358845479786005
          ],
          [
            -71.66417573628225,
            -33.358984848161505
          ],
          [
            -71.6643691654165,
            -33.359131923497145
          ],
          [
            -71.66456259519866,
            -33.359278998495505
          ],
          [
            -71.6647551770372,
            -33.359426590812205
          ],
          [
            -71.66493650364612,
            -33.35957147679422
          ],
          [
            -71.66500275105521,
            -33.35977434130653
          ],
          [
            -71.66511918609936,
            -33.35997640676514
          ],
          [
            -71.66530919156465,
            -33.36013254918175
          ],
          [
            -71.66551376075999,
            -33.36027033916996
          ],
          [
            -71.66572793718761,
            -33.360396418755755
          ],
          [
            -71.6659504780436,
            -33.360510937074736
          ],
          [
            -71.66617289402066,
            -33.36062538872393
          ],
          [
            -71.66642046308625,
            -33.36068458303872
          ],
          [
            -71.66667499895314,
            -33.36072259430711
          ],
          [
            -71.66693410081292,
            -33.36074569571919
          ],
          [
            -71.66719381962827,
            -33.36075662241184
          ],
          [
            -71.66745169821704,
            -33.36075118597887
          ],
          [
            -71.66770588181629,
            -33.36073531045195
          ],
          [
            -71.66795887597202,
            -33.36069223302982
          ],
          [
            -71.66818272400343,
            -33.36061053392068
          ],
          [
            -71.66844516838997,
            -33.36052403870125
          ],
          [
            -71.66869173356086,
            -33.36049446637215
          ],
          [
            -71.66889753202852,
            -33.360400383918126
          ],
          [
            -71.6690987405396,
            -33.36026715186153
          ],
          [
            -71.66932896921496,
            -33.360130151177486
          ],
          [
            -71.6696190134175,
            -33.360098421058986
          ],
          [
            -71.66984997638154,
            -33.36004796827589
          ],
          [
            -71.67007924597775,
            -33.359982319133934
          ],
          [
            -71.67031843735903,
            -33.35988977306698
          ],
          [
            -71.67057681949822,
            -33.35981717320504
          ],
          [
            -71.67088015166959,
            -33.35979451380996
          ],
          [
            -71.67116264235156,
            -33.359833166055395
          ],
          [
            -71.67142225864852,
            -33.35994001693082
          ],
          [
            -71.67165032448649,
            -33.36004713530639
          ],
          [
            -71.67188473937406,
            -33.36015784829912
          ],
          [
            -71.67213461006314,
            -33.36034073682105
          ],
          [
            -71.67224546891397,
            -33.36058432482405
          ],
          [
            -71.67226392542392,
            -33.360837188264746
          ],
          [
            -71.6722186097892,
            -33.36105948337414
          ],
          [
            -71.67218861598383,
            -33.36127709477381
          ],
          [
            -71.67219555193392,
            -33.3614595541367
          ],
          [
            -71.67222606646357,
            -33.36167560518966
          ],
          [
            -71.6722594353309,
            -33.36189289811439
          ],
          [
            -71.6722899431884,
            -33.36210430746235
          ],
          [
            -71.67234233663888,
            -33.36226781940902
          ],
          [
            -71.67244826332639,
            -33.36245723098186
          ],
          [
            -71.67257412625267,
            -33.36263822495653
          ],
          [
            -71.67271362826433,
            -33.36280144586313
          ],
          [
            -71.6728676583737,
            -33.362978347850714
          ],
          [
            -71.67300569735356,
            -33.363111214762824
          ],
          [
            -71.67318200393615,
            -33.36328181804041
          ],
          [
            -71.67334629314533,
            -33.36338534129612
          ],
          [
            -71.67356129938288,
            -33.3635095502709
          ],
          [
            -71.67377630621846,
            -33.3636337588401
          ],
          [
            -71.67394125075758,
            -33.363707024495234
          ],
          [
            -71.67419054385579,
            -33.36377197681981
          ],
          [
            -71.6744670768215,
            -33.363880906643836
          ],
          [
            -71.67468304274321,
            -33.36397552081603
          ],
          [
            -71.674921178178,
            -33.36406523400993
          ],
          [
            -71.67515892236676,
            -33.36415571801987
          ],
          [
            -71.67539656909582,
            -33.36424639437301
          ],
          [
            -71.67562225167497,
            -33.36432772835006
          ],
          [
            -71.67586748759274,
            -33.36440284132172
          ],
          [
            -71.6761127239028,
            -33.364477953786384
          ],
          [
            -71.6763222926895,
            -33.364500036659756
          ],
          [
            -71.67658240957084,
            -33.3645186653032
          ],
          [
            -71.67683968783837,
            -33.36453398862367
          ],
          [
            -71.6770651195782,
            -33.364508585358934
          ],
          [
            -71.67737179937605,
            -33.364518576902306
          ],
          [
            -71.67765175937568,
            -33.36462709152618
          ],
          [
            -71.67784441540759,
            -33.36466418379194
          ],
          [
            -71.67808287618568,
            -33.364668807739996
          ],
          [
            -71.67830267246251,
            -33.36463902752832
          ],
          [
            -71.67854925403046,
            -33.364562407334304
          ],
          [
            -71.67882215462258,
            -33.364511495923736
          ],
          [
            -71.67910205510813,
            -33.36447419936137
          ],
          [
            -71.67937633997246,
            -33.364583885872705
          ],
          [
            -71.67958361556359,
            -33.3647205794861
          ],
          [
            -71.67979134912743,
            -33.364848080718694
          ],
          [
            -71.68000583218804,
            -33.364973213467806
          ],
          [
            -71.68022031585006,
            -33.36509834581282
          ],
          [
            -71.68043349070409,
            -33.36522283184598
          ],
          [
            -71.68067392189297,
            -33.36527973188729
          ],
          [
            -71.68093390894975,
            -33.365266744123886
          ],
          [
            -71.68072148896196,
            -33.36535647345955
          ]
        ]
      }
    },
    {
      "type": "Feature",
      "properties": {
        "year": 2017,
        "scene_count": 1,
        "processing_level": "L2A_FES2014"
      },
      "geometry": {
        "type": "LineString",
        "coordinates": [
          [
            -71.66378902980026,
            -33.35874280807825
          ],
          [
            -71.66397689634812,
            -33.3588419265719
          ],
          [
            -71.66417946899669,
            -33.35898152136495
          ],
          [
            -71.66437255567838,
            -33.35912890190612
          ],
          [
            -71.66456564300832,
            -33.35927628211105
          ],
          [
            -71.66475789637411,
            -33.35942419073453
          ],
          [
            -71.66493947320312,
            -33.35957000809659
          ],
          [
            -71.66500559040955,
            -33.35977367777844
          ],
          [
            -71.66512127594603,
            -33.359975337214976
          ],
          [
            -71.66531049853565,
            -33.360131393857756
          ],
          [
            -71.66551455358346,
            -33.360269502448574
          ],
          [
            -71.66572828983342,
            -33.36039596112678
          ],
          [
            -71.66595049160688,
            -33.360510919473604
          ],
          [
            -71.66617258104743,
            -33.36062581777572
          ],
          [
            -71.66642015191196,
            -33.360685576354214
          ],
          [
            -71.66667475970017,
            -33.360724132334695
          ],
          [
            -71.66693382963166,
            -33.360747758291836
          ],
          [
            -71.66719360024798,
            -33.36075921498381
          ],
          [
            -71.66745177108852,
            -33.36075430849158
          ],
          [
            -71.66770655787992,
            -33.36073891318056
          ],
          [
            -71.66795993677192,
            -33.360696308070146
          ],
          [
            -71.66818547168609,
            -33.36061462391086
          ],
          [
            -71.66844587442604,
            -33.36052922412034
          ],
          [
            -71.66869349218807,
            -33.360500016697166
          ],
          [
            -71.66890181275441,
            -33.36040551944933
          ],
          [
            -71.66910376730151,
            -33.36027247414642
          ],
          [
            -71.6693324446414,
            -33.36013685987233
          ],
          [
            -71.6696190343845,
            -33.360106260249566
          ],
          [
            -71.66985230113991,
            -33.36005610078359
          ],
          [
            -71.67008345199982,
            -33.35999047544148
          ],
          [
            -71.67032267538923,
            -33.35989848648096
          ],
          [
            -71.67058014270008,
            -33.35982670905115
          ],
          [
            -71.67087885268162,
            -33.35980491611225
          ],
          [
            -71.67115863860313,
            -33.35984362282526
          ],
          [
            -71.6714152995877,
            -33.35994993230506
          ],
          [
            -71.67164302089365,
            -33.36005748850986
          ],
          [
            -71.67187644349441,
            -33.36016829685512
          ],
          [
            -71.67212088535625,
            -33.3603469354633
          ],
          [
            -71.6722294689459,
            -33.36058651144341
          ],
          [
            -71.67224715776672,
            -33.36083592345541
          ],
          [
            -71.67220131860086,
            -33.361057452336574
          ],
          [
            -71.672170706325,
            -33.36127499109328
          ],
          [
            -71.67217691906535,
            -33.361460966763154
          ],
          [
            -71.67220682873025,
            -33.36167721597974
          ],
          [
            -71.67223945190057,
            -33.361894571345914
          ],
          [
            -71.67226929683693,
            -33.362106636470514
          ],
          [
            -71.67232250958679,
            -33.362274971670665
          ],
          [
            -71.67242823965674,
            -33.36246552613132
          ],
          [
            -71.67255397311605,
            -33.36264766474001
          ],
          [
            -71.67269399162437,
            -33.362812774318016
          ],
          [
            -71.67284740421228,
            -33.36299003257218
          ],
          [
            -71.67298813250507,
            -33.36312652760786
          ],
          [
            -71.67316363773246,
            -33.36329675668778
          ],
          [
            -71.67333246983715,
            -33.363402900107765
          ],
          [
            -71.67354775146596,
            -33.36352675932747
          ],
          [
            -71.67376303369171,
            -33.36365061814071
          ],
          [
            -71.67393469072132,
            -33.36372602998181
          ],
          [
            -71.67418412285362,
            -33.36379057965811
          ],
          [
            -71.67445663798021,
            -33.363897708604604
          ],
          [
            -71.67467438587828,
            -33.36399256649554
          ],
          [
            -71.67491271720888,
            -33.3640818940548
          ],
          [
            -71.6751506964625,
            -33.364171915299494
          ],
          [
            -71.67538858804693,
            -33.36426210960414
          ],
          [
            -71.67561593069063,
            -33.36434341456819
          ],
          [
            -71.67586136667877,
            -33.36441803115062
          ],
          [
            -71.67610680305664,
            -33.36449264722539
          ],
          [
            -71.67632119998567,
            -33.364514995243525
          ],
          [
            -71.67658135511662,
            -33.364533100859624
          ],
          [
            -71.67683897519815,
            -33.36454791442703
          ],
          [
            -71.67706747126597,
            -33.36452181166562
          ],
          [
            -71.67736934591544,
            -33.36453104719588
          ],
          [
            -71.67764489375762,
            -33.36463751029994
          ],
          [
            -71.67784334194934,
            -33.36467531928318
          ],
          [
            -71.67808396235992,
            -33.364679206122574
          ],
          [
            -71.67830705908254,
            -33.36464800701289
          ],
          [
            -71.67855314140434,
            -33.364570764303465
          ],
          [
            -71.67882394696348,
            -33.364519594872746
          ],
          [
            -71.67910143744312,
            -33.36448168523828
          ],
          [
            -71.6793719132548,
            -33.3645893950184
          ],
          [
            -71.6795796480267,
            -33.36472520767372
          ],
          [
            -71.67978831552956,
            -33.36485210051761
          ],
          [
            -71.68000339996928,
            -33.3649764363942
          ],
          [
            -71.68021848500788,
            -33.36510077186477
          ],
          [
            -71.68043239217693,
            -33.36522452561231
          ],
          [
            -71.6806739368543,
            -33.36528071694175
          ],
          [
            -71.68093388648761,
            -33.36526678156831
          ],
          [
            -71.68072187006574,
            -33.365357316113595
          ]
        ]
      }
    },
    {
      "type": "Feature",
      "properties": {
        "year": 2018,
        "scene_count": 1,
        "processing_level": "L2A_FES2014"
      },
      "geometry": {
        "type": "LineString",
        "coordinates": [
          [
            -71.66379109315669,
            -33.358737684958555
          ],
          [
            -71.66398106898214,
            -33.358838373357685
          ],
          [
            -71.66418320171086,
            -33.3589781945683
          ],
          [
            -71.66437594594002,
            -33.359125880314984
          ],
          [
            -71.66456869081777,
            -33.359273565726504
          ],
          [
            -71.66476061571088,
            -33.359421790656825
          ],
          [
            -71.66494244276001,
            -33.35956853939888
          ],
          [
            -71.66500842976384,
            -33.35977301425028
          ],
          [
            -71.66512336579264,
            -33.35997426766479
          ],
          [
            -71.66531180550663,
            -33.360130238533735
          ],
          [
            -71.66551534640692,
            -33.36026866572718
          ],
          [
            -71.66572864247925,
            -33.36039550349778
          ],
          [
            -71.66595050517014,
            -33.360510901872466
          ],
          [
            -71.66617226807418,
            -33.3606262468275
          ],
          [
            -71.66641984073769,
            -33.360686569669696
          ],
          [
            -71.66667452044717,
            -33.36072567036228
          ],
          [
            -71.6669335584504,
            -33.36074982086449
          ],
          [
            -71.66719338086769,
            -33.360761807555804
          ],
          [
            -71.66745184396,
            -33.360757431004274
          ],
          [
            -71.66770723394363,
            -33.36074251590916
          ],
          [
            -71.66796099757191,
            -33.36070038311045
          ],
          [
            -71.668188219369,
            -33.360618713900934
          ],
          [
            -71.66844658046222,
            -33.360534409539426
          ],
          [
            -71.66869525081552,
            -33.36050556702216
          ],
          [
            -71.6689060934808,
            -33.36041065498035
          ],
          [
            -71.66910879406406,
            -33.360277796431085
          ],
          [
            -71.66933592006838,
            -33.36014356856703
          ],
          [
            -71.66961905535155,
            -33.360114099440125
          ],
          [
            -71.66985462589876,
            -33.36006423329121
          ],
          [
            -71.67008765802271,
            -33.35999863174883
          ],
          [
            -71.67032691342031,
            -33.359907199894735
          ],
          [
            -71.67058346590272,
            -33.35983624489713
          ],
          [
            -71.67087755369346,
            -33.35981531841455
          ],
          [
            -71.67115463485383,
            -33.35985407959503
          ],
          [
            -71.67140834052533,
            -33.35995984767896
          ],
          [
            -71.67163571729914,
            -33.36006784171297
          ],
          [
            -71.67186814761283,
            -33.36017874541068
          ],
          [
            -71.67210716064733,
            -33.36035313410412
          ],
          [
            -71.67221346897686,
            -33.360588698060724
          ],
          [
            -71.67223039010985,
            -33.36083465864378
          ],
          [
            -71.67218402741315,
            -33.36105542129657
          ],
          [
            -71.67215279666684,
            -33.36127288741014
          ],
          [
            -71.672158286196,
            -33.36146237938682
          ],
          [
            -71.67218759099602,
            -33.361678826766855
          ],
          [
            -71.67221946846925,
            -33.36189624457424
          ],
          [
            -71.67224865048412,
            -33.36210896547531
          ],
          [
            -71.67230268253128,
            -33.3622821239293
          ],
          [
            -71.67240821598313,
            -33.362473821277725
          ],
          [
            -71.6725338199749,
            -33.36265710452042
          ],
          [
            -71.67267435497916,
            -33.36282410277005
          ],
          [
            -71.67282715004531,
            -33.36300171729058
          ],
          [
            -71.67297056765042,
            -33.36314184045071
          ],
          [
            -71.67314527152247,
            -33.363311695332705
          ],
          [
            -71.67331864652355,
            -33.3634204589181
          ],
          [
            -71.67353420354385,
            -33.36354396838279
          ],
          [
            -71.67374976115998,
            -33.3636674774401
          ],
          [
            -71.67392813068248,
            -33.363745035468135
          ],
          [
            -71.67417770184896,
            -33.36380918249617
          ],
          [
            -71.67444619913509,
            -33.36391451056467
          ],
          [
            -71.67466572901016,
            -33.364009612174556
          ],
          [
            -71.67490425623674,
            -33.36409855409919
          ],
          [
            -71.67514247055537,
            -33.3641881125787
          ],
          [
            -71.67538060699532,
            -33.364277824834865
          ],
          [
            -71.67560960970418,
            -33.364359100786054
          ],
          [
            -71.67585524576282,
            -33.36443322097927
          ],
          [
            -71.67610088220864,
            -33.36450734066419
          ],
          [
            -71.67632010728165,
            -33.364529953827265
          ],
          [
            -71.67658030066222,
            -33.364547536416005
          ],
          [
            -71.67683826255785,
            -33.36456184023038
          ],
          [
            -71.67706982295458,
            -33.36453503797223
          ],
          [
            -71.67736689245424,
            -33.36454351748942
          ],
          [
            -71.67763802813795,
            -33.364647929073385
          ],
          [
            -71.67784226849089,
            -33.364686454774414
          ],
          [
            -71.6780850485345,
            -33.364689604505095
          ],
          [
            -71.67831144570353,
            -33.36465698649723
          ],
          [
            -71.67855702877904,
            -33.364579121272456
          ],
          [
            -71.67882573930474,
            -33.36452769382173
          ],
          [
            -71.67910081977807,
            -33.364489171115174
          ],
          [
            -71.67936748653658,
            -33.364594904163965
          ],
          [
            -71.6795756804894,
            -33.364729835861205
          ],
          [
            -71.67978528193143,
            -33.36485612031645
          ],
          [
            -71.68000096775036,
            -33.36497965932057
          ],
          [
            -71.68021665416562,
            -33.36510319791671
          ],
          [
            -71.68043129364972,
            -33.36522621937864
          ],
          [
            -71.68067395181563,
            -33.36528170199621
          ],
          [
            -71.68093386402548,
            -33.36526681901272
          ],
          [
            -71.68072225116951,
            -33.36535815876764
          ]
        ]
      }
    },
    {
      "type": "Feature",
      "properties": {
        "year": 2019,
        "scene_count": 1,
        "processing_level": "L2A_FES2014"
      },
      "geometry": {
        "type": "LineString",
        "coordinates": [
          [
            -71.66379315651288,
            -33.35873256183883
          ],
          [
            -71.6639852416158,
            -33.358834820143336
          ],
          [
            -71.66418693442473,
            -33.35897486777155
          ],
          [
            -71.66437933620143,
            -33.3591228587238
          ],
          [
            -71.66457173862705,
            -33.3592708493419
          ],
          [
            -71.66476333504748,
            -33.359419390579035
          ],
          [
            -71.66494541231681,
            -33.35956707070112
          ],
          [
            -71.66501126911808,
            -33.35977235072206
          ],
          [
            -71.6651254556392,
            -33.359973198114545
          ],
          [
            -71.66531311247759,
            -33.36012908320972
          ],
          [
            -71.66551613923035,
            -33.36026782900579
          ],
          [
            -71.66572899512505,
            -33.360395045868806
          ],
          [
            -71.66595051873341,
            -33.36051088427133
          ],
          [
            -71.66617195510094,
            -33.36062667587929
          ],
          [
            -71.6664195295634,
            -33.36068756298518
          ],
          [
            -71.66667428119419,
            -33.36072720838987
          ],
          [
            -71.66693328726913,
            -33.36075188343714
          ],
          [
            -71.66719316148739,
            -33.360764400127806
          ],
          [
            -71.66745191683151,
            -33.36076055351698
          ],
          [
            -71.66770791000738,
            -33.36074611863774
          ],
          [
            -71.66796205837203,
            -33.36070445815074
          ],
          [
            -71.6681909670522,
            -33.36062280389096
          ],
          [
            -71.6684472864985,
            -33.36053959495852
          ],
          [
            -71.66869700944322,
            -33.36051111734711
          ],
          [
            -71.6689103742077,
            -33.3604157905112
          ],
          [
            -71.66911382082722,
            -33.36028311871549
          ],
          [
            -71.66933939549594,
            -33.360150277261624
          ],
          [
            -71.66961907631864,
            -33.36012193863068
          ],
          [
            -71.6698569506581,
            -33.36007236579877
          ],
          [
            -71.67009186404646,
            -33.36000678805598
          ],
          [
            -71.6703311514523,
            -33.35991591330831
          ],
          [
            -71.67058678910615,
            -33.359845780742965
          ],
          [
            -71.67087625470505,
            -33.35982572071682
          ],
          [
            -71.67115063110364,
            -33.3598645363647
          ],
          [
            -71.67140138146146,
            -33.359969763052526
          ],
          [
            -71.67162841370296,
            -33.36007819491572
          ],
          [
            -71.6718598517293,
            -33.360189193965745
          ],
          [
            -71.67209343593639,
            -33.36035933274351
          ],
          [
            -71.6721974690069,
            -33.36059088467601
          ],
          [
            -71.6722136224533,
            -33.36083339382984
          ],
          [
            -71.67216673622609,
            -33.36105339025409
          ],
          [
            -71.67213488700938,
            -33.36127078372435
          ],
          [
            -71.67213965332583,
            -33.36146379200773
          ],
          [
            -71.67216835326087,
            -33.36168043755102
          ],
          [
            -71.67219948503693,
            -33.361897917799375
          ],
          [
            -71.67222800412996,
            -33.362111294476684
          ],
          [
            -71.67228285547235,
            -33.36228927618492
          ],
          [
            -71.67238819230552,
            -33.36248211642108
          ],
          [
            -71.67251366682925,
            -33.36266654429775
          ],
          [
            -71.67265471832877,
            -33.36283543121919
          ],
          [
            -71.67280689587277,
            -33.363013402005905
          ],
          [
            -71.67295300278964,
            -33.36315715329133
          ],
          [
            -71.67312690530618,
            -33.36332663397519
          ],
          [
            -71.67330482320453,
            -33.36343801772711
          ],
          [
            -71.67352065561651,
            -33.363561177436836
          ],
          [
            -71.67373648862326,
            -33.36368433673828
          ],
          [
            -71.67392157064104,
            -33.363764040954216
          ],
          [
            -71.67417128084183,
            -33.36382778533397
          ],
          [
            -71.67443576028612,
            -33.36393131252402
          ],
          [
            -71.67465707213884,
            -33.36402665785312
          ],
          [
            -71.67489579526153,
            -33.36411521414315
          ],
          [
            -71.67513424464536,
            -33.36420430985747
          ],
          [
            -71.67537262594101,
            -33.36429354006517
          ],
          [
            -71.67560328871564,
            -33.36437478700368
          ],
          [
            -71.67584912484493,
            -33.364448410807725
          ],
          [
            -71.6760949613588,
            -33.36452203410276
          ],
          [
            -71.67631901457744,
            -33.36454491241101
          ],
          [
            -71.67657924620764,
            -33.36456197197238
          ],
          [
            -71.6768375499175,
            -33.3645757660337
          ],
          [
            -71.67707217464404,
            -33.36454826427871
          ],
          [
            -71.67736443899247,
            -33.36455598778293
          ],
          [
            -71.67763116251672,
            -33.364658347846515
          ],
          [
            -71.67784119503229,
            -33.36469759026563
          ],
          [
            -71.67808613470942,
            -33.36470000288757
          ],
          [
            -71.67831583232547,
            -33.36466596598138
          ],
          [
            -71.67856091615452,
            -33.36458747824128
          ],
          [
            -71.67882753164639,
            -33.36453579277066
          ],
          [
            -71.67910020211295,
            -33.36449665699206
          ],
          [
            -71.67936305981782,
            -33.36460041330938
          ],
          [
            -71.67957171295168,
            -33.364734464048595
          ],
          [
            -71.67978224833301,
            -33.36486014011524
          ],
          [
            -71.67999853553124,
            -33.364982882246885
          ],
          [
            -71.68021482332325,
            -33.36510562396862
          ],
          [
            -71.68043019512248,
            -33.365227913144956
          ],
          [
            -71.68067396677696,
            -33.36528268705065
          ],
          [
            -71.68093384156333,
            -33.36526685645714
          ],
          [
            -71.68072263227329,
            -33.365359001421695
          ]
        ]
      }
    },
    {
      "type": "Feature",
      "properties": {
        "year": 2020,
        "scene_count": 1,
        "processing_level": "L2A_FES2014"
      },
      "geometry": {
        "type": "LineString",
        "coordinates": [
          [
            -71.66379521986886,
            -33.358727438719065
          ],
          [
            -71.66398941424913,
            -33.35883126692886
          ],
          [
            -71.66419066713833,
            -33.35897154097468
          ],
          [
            -71.6643827264626,
            -33.35911983713252
          ],
          [
            -71.66457478643613,
            -33.35926813295723
          ],
          [
            -71.66476605438395,
            -33.3594169905012
          ],
          [
            -71.6649483818735,
            -33.359565602003265
          ],
          [
            -71.66501410847228,
            -33.35977168719378
          ],
          [
            -71.6651275454857,
            -33.35997212856428
          ],
          [
            -71.6653144194485,
            -33.36012792788567
          ],
          [
            -71.66551693205378,
            -33.3602669922844
          ],
          [
            -71.66572934777086,
            -33.360394588239814
          ],
          [
            -71.66595053229668,
            -33.360510866670175
          ],
          [
            -71.6661716421277,
            -33.36062710493107
          ],
          [
            -71.6664192183891,
            -33.36068855630067
          ],
          [
            -71.66667404194118,
            -33.360728746417436
          ],
          [
            -71.66693301608785,
            -33.36075394600977
          ],
          [
            -71.66719294210708,
            -33.36076699269977
          ],
          [
            -71.66745198970303,
            -33.36076367602967
          ],
          [
            -71.66770858607121,
            -33.36074972136632
          ],
          [
            -71.66796311917224,
            -33.360708533191
          ],
          [
            -71.66819371473565,
            -33.3606268938809
          ],
          [
            -71.66844799253488,
            -33.360544780377566
          ],
          [
            -71.66869876807117,
            -33.360516667671995
          ],
          [
            -71.66891465493512,
            -33.36042092604187
          ],
          [
            -71.66911884759101,
            -33.36028844099966
          ],
          [
            -71.66934287092405,
            -33.360156985956074
          ],
          [
            -71.6696190972858,
            -33.36012977782122
          ],
          [
            -71.66985927541792,
            -33.36008049830623
          ],
          [
            -71.67009607007103,
            -33.360014944362966
          ],
          [
            -71.6703353894852,
            -33.359924626721686
          ],
          [
            -71.67059011231039,
            -33.35985531658865
          ],
          [
            -71.67087495571641,
            -33.35983612301908
          ],
          [
            -71.67114662735257,
            -33.35987499313428
          ],
          [
            -71.67139442239606,
            -33.35997967842578
          ],
          [
            -71.6716211101051,
            -33.36008854811809
          ],
          [
            -71.67185155584383,
            -33.36019964252035
          ],
          [
            -71.67207971122342,
            -33.36036553138147
          ],
          [
            -71.67218146903599,
            -33.360593071289266
          ],
          [
            -71.67219685479708,
            -33.36083212901362
          ],
          [
            -71.67214944503966,
            -33.36105135920916
          ],
          [
            -71.6721169773526,
            -33.36126868003592
          ],
          [
            -71.67212102045487,
            -33.36146520462585
          ],
          [
            -71.67214911552482,
            -33.36168204833225
          ],
          [
            -71.67217950160361,
            -33.36189959102135
          ],
          [
            -71.67220735777448,
            -33.3621136234747
          ],
          [
            -71.67226302840996,
            -33.36229642843752
          ],
          [
            -71.67236816862393,
            -33.36249041156137
          ],
          [
            -71.67249351367907,
            -33.36267598407202
          ],
          [
            -71.67263508167318,
            -33.36284675966546
          ],
          [
            -71.67278664169471,
            -33.3630250867182
          ],
          [
            -71.6729354379227,
            -33.36317246612974
          ],
          [
            -71.6731085390836,
            -33.36334157261525
          ],
          [
            -71.67329099988008,
            -33.36345557653483
          ],
          [
            -71.67350710768397,
            -33.363578386489635
          ],
          [
            -71.67372321608156,
            -33.36370119603525
          ],
          [
            -71.67391501059701,
            -33.36378304644003
          ],
          [
            -71.67416485983222,
            -33.363846388171545
          ],
          [
            -71.67442532143328,
            -33.363948114482625
          ],
          [
            -71.67464841526436,
            -33.364043703531195
          ],
          [
            -71.6748873342833,
            -33.36413187418664
          ],
          [
            -71.67512601873248,
            -33.36422050713582
          ],
          [
            -71.675364644884,
            -33.36430925529508
          ],
          [
            -71.675596967725,
            -33.364390473221064
          ],
          [
            -71.67584300392507,
            -33.36446360063592
          ],
          [
            -71.67608904050714,
            -33.36453672754113
          ],
          [
            -71.67631792187304,
            -33.364559870994704
          ],
          [
            -71.67657819175287,
            -33.36457640752872
          ],
          [
            -71.67683683727705,
            -33.36458969183698
          ],
          [
            -71.67707452633435,
            -33.364561490585096
          ],
          [
            -71.67736198553011,
            -33.3645684580764
          ],
          [
            -71.67762429689391,
            -33.36466876661934
          ],
          [
            -71.6778401215735,
            -33.36470872575682
          ],
          [
            -71.67808722088468,
            -33.36471040127003
          ],
          [
            -71.67832021894837,
            -33.3646749454653
          ],
          [
            -71.67856480353079,
            -33.364595835209954
          ],
          [
            -71.67882932398844,
            -33.36454389171953
          ],
          [
            -71.67909958444777,
            -33.36450414286894
          ],
          [
            -71.6793586330985,
            -33.36460592245468
          ],
          [
            -71.67956774541358,
            -33.36473909223589
          ],
          [
            -71.67977921473432,
            -33.36486415991396
          ],
          [
            -71.67999610331195,
            -33.36498610517318
          ],
          [
            -71.68021299248079,
            -33.36510805002052
          ],
          [
            -71.68042909659519,
            -33.36522960691128
          ],
          [
            -71.6806739817383,
            -33.36528367210511
          ],
          [
            -71.68093381910118,
            -33.365266893901556
          ],
          [
            -71.68072301337709,
            -33.36535984407575
          ]
        ]
      }
    },
    {
      "type": "Feature",
      "properties": {
        "year": 2021,
        "scene_count": 1,
        "processing_level": "L2A_FES2014"
      },
      "geometry": {
        "type": "LineString",
        "coordinates": [
          [
            -71.6637972832246,
            -33.358722315599294
          ],
          [
            -71.66399358688211,
            -33.35882771371427
          ],
          [
            -71.66419439985164,
            -33.358968214177736
          ],
          [
            -71.66438611672355,
            -33.35911681554114
          ],
          [
            -71.66457783424502,
            -33.35926541657249
          ],
          [
            -71.66476877372025,
            -33.35941459042331
          ],
          [
            -71.66495135143008,
            -33.35956413330538
          ],
          [
            -71.66501694782643,
            -33.35977102366544
          ],
          [
            -71.66512963533215,
            -33.35997105901398
          ],
          [
            -71.66531572641938,
            -33.36012677256162
          ],
          [
            -71.66551772487718,
            -33.360266155563004
          ],
          [
            -71.66572970041666,
            -33.360394130610835
          ],
          [
            -71.66595054585994,
            -33.360510849069065
          ],
          [
            -71.66617132915442,
            -33.36062753398285
          ],
          [
            -71.66641890721479,
            -33.36068954961617
          ],
          [
            -71.66667380268817,
            -33.36073028444501
          ],
          [
            -71.66693274490655,
            -33.360756008582435
          ],
          [
            -71.66719272272677,
            -33.36076958527176
          ],
          [
            -71.66745206257455,
            -33.360766798542365
          ],
          [
            -71.6677092621351,
            -33.360753324094894
          ],
          [
            -71.66796417997257,
            -33.360712608231275
          ],
          [
            -71.66819646241937,
            -33.36063098387076
          ],
          [
            -71.66844869857137,
            -33.36054996579663
          ],
          [
            -71.66870052669935,
            -33.360522217996866
          ],
          [
            -71.66891893566306,
            -33.360426061572376
          ],
          [
            -71.66912387435542,
            -33.3602937632836
          ],
          [
            -71.66934634635274,
            -33.360163694650396
          ],
          [
            -71.66961911825301,
            -33.36013761701176
          ],
          [
            -71.66986160017824,
            -33.36008863081364
          ],
          [
            -71.67010027609642,
            -33.36002310066975
          ],
          [
            -71.67033962751898,
            -33.35993334013487
          ],
          [
            -71.67059343551543,
            -33.35986485243421
          ],
          [
            -71.67087365672757,
            -33.35984652532132
          ],
          [
            -71.67114262360063,
            -33.35988544990376
          ],
          [
            -71.67138746332911,
            -33.359989593798694
          ],
          [
            -71.67161380650555,
            -33.36009890132013
          ],
          [
            -71.67184325995643,
            -33.36021009107448
          ],
          [
            -71.67206598650843,
            -33.360371730018
          ],
          [
            -71.67216546906413,
            -33.360595257900506
          ],
          [
            -71.67218008714119,
            -33.3608308641951
          ],
          [
            -71.67213215385388,
            -33.36104932816179
          ],
          [
            -71.67209906769651,
            -33.36126657634489
          ],
          [
            -71.67210238758312,
            -33.36146661724121
          ],
          [
            -71.67212987778781,
            -33.361683659110525
          ],
          [
            -71.67215951816932,
            -33.36190126424011
          ],
          [
            -71.67218671141764,
            -33.362115952469324
          ],
          [
            -71.67224320134414,
            -33.362303580687104
          ],
          [
            -71.67234814493838,
            -33.3624987066986
          ],
          [
            -71.67247336052439,
            -33.36268542384321
          ],
          [
            -71.67261544501235,
            -33.36285808810885
          ],
          [
            -71.6727663875111,
            -33.36303677142742
          ],
          [
            -71.67291787304963,
            -33.36318777896594
          ],
          [
            -71.67309017285471,
            -33.36335651125286
          ],
          [
            -71.67327717655023,
            -33.36347313534123
          ],
          [
            -71.67349355974623,
            -33.36359559554117
          ],
          [
            -71.67370994353483,
            -33.363718055331034
          ],
          [
            -71.6739084505504,
            -33.363802051925575
          ],
          [
            -71.67415843882013,
            -33.36386499100886
          ],
          [
            -71.67441488257658,
            -33.36396491644052
          ],
          [
            -71.67463975838668,
            -33.36406074920879
          ],
          [
            -71.67487887330202,
            -33.36414853422967
          ],
          [
            -71.67511779281672,
            -33.36423670441373
          ],
          [
            -71.67535666382426,
            -33.364324970524564
          ],
          [
            -71.67559064673229,
            -33.364406159438204
          ],
          [
            -71.67583688300323,
            -33.3644787904639
          ],
          [
            -71.67608311965363,
            -33.36455142097929
          ],
          [
            -71.67631682916844,
            -33.364574829578395
          ],
          [
            -71.67657713729791,
            -33.36459084308505
          ],
          [
            -71.67683612463654,
            -33.36460361764028
          ],
          [
            -71.67707687802552,
            -33.36457471689136
          ],
          [
            -71.67735953206719,
            -33.36458092836984
          ],
          [
            -71.67761743126952,
            -33.364679185391836
          ],
          [
            -71.67783904811454,
            -33.36471986124801
          ],
          [
            -71.67808830706028,
            -33.36472079965244
          ],
          [
            -71.67832460557224,
            -33.36468392494902
          ],
          [
            -71.67856869090787,
            -33.36460419217843
          ],
          [
            -71.67883111633087,
            -33.36455199066835
          ],
          [
            -71.67909896678252,
            -33.364511628745824
          ],
          [
            -71.67935420637866,
            -33.36461143159984
          ],
          [
            -71.67956377787503,
            -33.36474372042305
          ],
          [
            -71.67977618113537,
            -33.364868179712616
          ],
          [
            -71.67999367109249,
            -33.364989328099426
          ],
          [
            -71.68021116163823,
            -33.36511047607238
          ],
          [
            -71.68042799806786,
            -33.36523130067758
          ],
          [
            -71.68067399669962,
            -33.36528465715957
          ],
          [
            -71.68093379663904,
            -33.365266931345985
          ],
          [
            -71.68072339448089,
            -33.36536068672979
          ]
        ]
      }
    },
    {
      "type": "Feature",
      "properties": {
        "year": 2022,
        "scene_count": 1,
        "processing_level": "L2A_FES2014"
      },
      "geometry": {
        "type": "LineString",
        "coordinates": [
          [
            -71.66379934658012,
            -33.358717192479475
          ],
          [
            -71.66399775951477,
            -33.358824160499545
          ],
          [
            -71.66419813256468,
            -33.35896488738069
          ],
          [
            -71.66438950698425,
            -33.35911379394971
          ],
          [
            -71.66458088205373,
            -33.3592627001877
          ],
          [
            -71.66477149305642,
            -33.359412190345374
          ],
          [
            -71.66495432098655,
            -33.3595626646074
          ],
          [
            -71.66501978718054,
            -33.35977036013702
          ],
          [
            -71.66513172517855,
            -33.35996998946365
          ],
          [
            -71.66531703339022,
            -33.36012561723756
          ],
          [
            -71.66551851770058,
            -33.360265318841606
          ],
          [
            -71.66573005306246,
            -33.360393672981836
          ],
          [
            -71.66595055942322,
            -33.36051083146791
          ],
          [
            -71.66617101618118,
            -33.36062796303464
          ],
          [
            -71.66641859604049,
            -33.36069054293166
          ],
          [
            -71.66667356343515,
            -33.360731822472594
          ],
          [
            -71.66693247372525,
            -33.36075807115509
          ],
          [
            -71.66719250334644,
            -33.360772177843735
          ],
          [
            -71.66745213544611,
            -33.360769921055066
          ],
          [
            -71.66770993819907,
            -33.36075692682346
          ],
          [
            -71.66796524077301,
            -33.3607166832715
          ],
          [
            -71.66819921010335,
            -33.36063507386056
          ],
          [
            -71.66844940460797,
            -33.360555151215664
          ],
          [
            -71.6687022853278,
            -33.360527768321695
          ],
          [
            -71.6689232163915,
            -33.36043119710267
          ],
          [
            -71.66912890112044,
            -33.36029908556731
          ],
          [
            -71.66934982178198,
            -33.360170403344576
          ],
          [
            -71.66961913922029,
            -33.36014545620229
          ],
          [
            -71.66986392493901,
            -33.36009676332097
          ],
          [
            -71.67010448212264,
            -33.360031256976335
          ],
          [
            -71.67034386555368,
            -33.359942053547854
          ],
          [
            -71.67059675872125,
            -33.35987438827963
          ],
          [
            -71.6708723577385,
            -33.35985692762357
          ],
          [
            -71.6711386198478,
            -33.359895906673145
          ],
          [
            -71.67138050426065,
            -33.35999950917129
          ],
          [
            -71.67160650290434,
            -33.36010925452181
          ],
          [
            -71.67183496406709,
            -33.36022053962814
          ],
          [
            -71.6720522617914,
            -33.36037792865311
          ],
          [
            -71.67214946909132,
            -33.36059744450972
          ],
          [
            -71.67216331948562,
            -33.3608295993743
          ],
          [
            -71.67211486266872,
            -33.36104729711195
          ],
          [
            -71.6720811580411,
            -33.36126447265121
          ],
          [
            -71.67208375471056,
            -33.36146802985381
          ],
          [
            -71.67211064004992,
            -33.36168526988584
          ],
          [
            -71.67213953473403,
            -33.36190293745571
          ],
          [
            -71.67216606505947,
            -33.362118281460575
          ],
          [
            -71.6722233742749,
            -33.36231073293368
          ],
          [
            -71.67232812124882,
            -33.36250700183279
          ],
          [
            -71.67245320736518,
            -33.362694863611324
          ],
          [
            -71.67259580834632,
            -33.36286941654938
          ],
          [
            -71.67274613332195,
            -33.36304845613357
          ],
          [
            -71.6729003081704,
            -33.36320309179991
          ],
          [
            -71.67307180661953,
            -33.363371449888014
          ],
          [
            -71.67326335321495,
            -33.36349069414634
          ],
          [
            -71.67348001180328,
            -33.36361280459146
          ],
          [
            -71.67369667098312,
            -33.363734914625596
          ],
          [
            -71.6739018905012,
            -33.36382105741087
          ],
          [
            -71.67415201780555,
            -33.36388359384592
          ],
          [
            -71.67440444371604,
            -33.3639817183977
          ],
          [
            -71.6746311015058,
            -33.36407779488591
          ],
          [
            -71.67487041231769,
            -33.364165194272246
          ],
          [
            -71.67510956689807,
            -33.36425290169121
          ],
          [
            -71.67534868276182,
            -33.36434068575367
          ],
          [
            -71.67558432573746,
            -33.3644218456551
          ],
          [
            -71.67583076207944,
            -33.364493980291634
          ],
          [
            -71.67607719879827,
            -33.36456611441721
          ],
          [
            -71.67631573646365,
            -33.36458978816206
          ],
          [
            -71.6765760828428,
            -33.36460527864135
          ],
          [
            -71.67683541199597,
            -33.36461754344355
          ],
          [
            -71.67707922971753,
            -33.36458794319754
          ],
          [
            -71.67735707860368,
            -33.36459339866324
          ],
          [
            -71.67761056564356,
            -33.36468960416401
          ],
          [
            -71.6778379746554,
            -33.364730996739176
          ],
          [
            -71.67808939323625,
            -33.364731198034825
          ],
          [
            -71.67832899219705,
            -33.364692904432516
          ],
          [
            -71.67857257828572,
            -33.36461254914676
          ],
          [
            -71.67883290867367,
            -33.36456008961711
          ],
          [
            -71.67909834911723,
            -33.364519114622695
          ],
          [
            -71.67934977965827,
            -33.36461694074485
          ],
          [
            -71.67955981033609,
            -33.364748348610114
          ],
          [
            -71.67977314753614,
            -33.36487219951121
          ],
          [
            -71.67999123887284,
            -33.36499255102562
          ],
          [
            -71.68020933079555,
            -33.36511290212423
          ],
          [
            -71.68042689954048,
            -33.365232994443865
          ],
          [
            -71.68067401166095,
            -33.36528564221402
          ],
          [
            -71.6809337741769,
            -33.3652669687904
          ],
          [
            -71.6807237755847,
            -33.36536152938384
          ]
        ]
      }
    },
    {
      "type": "Feature",
      "properties": {
        "year": 2023,
        "scene_count": 1,
        "processing_level": "L2A_FES2014"
      },
      "geometry": {
        "type": "LineString",
        "coordinates": [
          [
            -71.66380140993543,
            -33.35871206935965
          ],
          [
            -71.66400193214707,
            -33.3588206072847
          ],
          [
            -71.6642018652774,
            -33.35896156058353
          ],
          [
            -71.66439289724472,
            -33.35911077235817
          ],
          [
            -71.66458392986225,
            -33.35925998380283
          ],
          [
            -71.66477421239243,
            -33.359409790267364
          ],
          [
            -71.66495729054293,
            -33.35956119590938
          ],
          [
            -71.66502262653458,
            -33.359769696608545
          ],
          [
            -71.66513381502492,
            -33.359968919913285
          ],
          [
            -71.66531834036105,
            -33.360124461913486
          ],
          [
            -71.66551931052395,
            -33.360264482120186
          ],
          [
            -71.66573040570826,
            -33.36039321535285
          ],
          [
            -71.66595057298649,
            -33.36051081386678
          ],
          [
            -71.66617070320792,
            -33.36062839208642
          ],
          [
            -71.66641828486617,
            -33.36069153624713
          ],
          [
            -71.66667332418214,
            -33.36073336050018
          ],
          [
            -71.66693220254393,
            -33.36076013372772
          ],
          [
            -71.6671922839661,
            -33.36077477041573
          ],
          [
            -71.66745220831767,
            -33.36077304356776
          ],
          [
            -71.66771061426309,
            -33.360760529552
          ],
          [
            -71.66796630157357,
            -33.36072075831173
          ],
          [
            -71.66820195778762,
            -33.360639163850266
          ],
          [
            -71.66845011064467,
            -33.360560336634684
          ],
          [
            -71.66870404395648,
            -33.36053331864647
          ],
          [
            -71.66892749712046,
            -33.36043633263283
          ],
          [
            -71.6691339278861,
            -33.36030440785077
          ],
          [
            -71.66935329721179,
            -33.36017711203864
          ],
          [
            -71.6696191601876,
            -33.360153295392806
          ],
          [
            -71.66986624970028,
            -33.36010489582822
          ],
          [
            -71.67010868814968,
            -33.36003941328273
          ],
          [
            -71.67034810358925,
            -33.35995076696064
          ],
          [
            -71.67060008192784,
            -33.359883924124915
          ],
          [
            -71.67087105874921,
            -33.35986732992579
          ],
          [
            -71.6711346160941,
            -33.35990636344242
          ],
          [
            -71.67137354519065,
            -33.36000942454355
          ],
          [
            -71.67159919930145,
            -33.36011960772312
          ],
          [
            -71.67182666817581,
            -33.360230988181314
          ],
          [
            -71.67203853707237,
            -33.360384127286785
          ],
          [
            -71.67213346911758,
            -33.36059963111691
          ],
          [
            -71.67214655183038,
            -33.3608283345512
          ],
          [
            -71.6720975714842,
            -33.36104526605968
          ],
          [
            -71.67206324838635,
            -33.361262368954904
          ],
          [
            -71.67206512183719,
            -33.36146944246362
          ],
          [
            -71.6720914023111,
            -33.361686880658226
          ],
          [
            -71.67211955129774,
            -33.36190461066812
          ],
          [
            -71.67214541869997,
            -33.362120610448436
          ],
          [
            -71.67220354720223,
            -33.36231788517721
          ],
          [
            -71.67230809755532,
            -33.36251529696393
          ],
          [
            -71.67243305420145,
            -33.36270430337637
          ],
          [
            -71.67257617167508,
            -33.362880744987024
          ],
          [
            -71.67272587912724,
            -33.36306014083669
          ],
          [
            -71.67288274328503,
            -33.363218404631674
          ],
          [
            -71.67305344037806,
            -33.363386388520745
          ],
          [
            -71.67324952987424,
            -33.36350825295012
          ],
          [
            -71.67346646385514,
            -33.36363001364048
          ],
          [
            -71.67368339842639,
            -33.363751773918956
          ],
          [
            -71.67389533044941,
            -33.3638400628959
          ],
          [
            -71.67414559678852,
            -33.36390219668274
          ],
          [
            -71.67439400485166,
            -33.36399852035416
          ],
          [
            -71.67462244462175,
            -33.36409484056256
          ],
          [
            -71.6748619513303,
            -33.364181854314374
          ],
          [
            -71.67510134097657,
            -33.36426909896825
          ],
          [
            -71.67534070169665,
            -33.36435640098235
          ],
          [
            -71.67557800474054,
            -33.36443753187175
          ],
          [
            -71.67582464115368,
            -33.36450917011916
          ],
          [
            -71.67607127794109,
            -33.36458080785495
          ],
          [
            -71.67631464375867,
            -33.36460474674569
          ],
          [
            -71.67657502838748,
            -33.36461971419763
          ],
          [
            -71.67683469935533,
            -33.364631469246795
          ],
          [
            -71.6770815814104,
            -33.3646011695036
          ],
          [
            -71.6773546251396,
            -33.36460586895661
          ],
          [
            -71.67760370001601,
            -33.36470002293589
          ],
          [
            -71.67783690119609,
            -33.36474213223035
          ],
          [
            -71.67809047941255,
            -33.36474159641717
          ],
          [
            -71.67833337882283,
            -33.364701883915814
          ],
          [
            -71.67857646566439,
            -33.364620906114915
          ],
          [
            -71.67883470101687,
            -33.36456818856583
          ],
          [
            -71.67909773145186,
            -33.36452660049955
          ],
          [
            -71.6793453529373,
            -33.364622449889744
          ],
          [
            -71.67955584279673,
            -33.36475297679707
          ],
          [
            -71.67977011393663,
            -33.364876219309735
          ],
          [
            -71.67998880665304,
            -33.36499577395179
          ],
          [
            -71.6802074999528,
            -33.36511532817605
          ],
          [
            -71.68042580101307,
            -33.36523468821016
          ],
          [
            -71.68067402662228,
            -33.36528662726847
          ],
          [
            -71.68093375171476,
            -33.36526700623481
          ],
          [
            -71.68072415668851,
            -33.365362372037886
          ]
        ]
      }
    },
    {
      "type": "Feature",
      "properties": {
        "year": 2024,
        "scene_count": 1,
        "processing_level": "L2A_FES2014"
      },
      "geometry": {
        "type": "LineString",
        "coordinates": [
          [
            -71.66380347329051,
            -33.3587069462398
          ],
          [
            -71.66400610477905,
            -33.358817054069725
          ],
          [
            -71.66420559798988,
            -33.358958233786275
          ],
          [
            -71.66439628750497,
            -33.35910775076656
          ],
          [
            -71.66458697767058,
            -33.359257267417895
          ],
          [
            -71.6647769317283,
            -33.35940739018933
          ],
          [
            -71.6649602600992,
            -33.35955972721128
          ],
          [
            -71.66502546588859,
            -33.35976903308002
          ],
          [
            -71.66513590487119,
            -33.35996785036288
          ],
          [
            -71.66531964733181,
            -33.36012330658941
          ],
          [
            -71.6655201033473,
            -33.360263645398774
          ],
          [
            -71.66573075835404,
            -33.360392757723865
          ],
          [
            -71.66595058654977,
            -33.36051079626564
          ],
          [
            -71.66617039023465,
            -33.36062882113819
          ],
          [
            -71.66641797369184,
            -33.360692529562634
          ],
          [
            -71.66667308492912,
            -33.36073489852775
          ],
          [
            -71.66693193136261,
            -33.360762196300364
          ],
          [
            -71.66719206458576,
            -33.36077736298771
          ],
          [
            -71.66745228118924,
            -33.360776166080456
          ],
          [
            -71.66771129032716,
            -33.360764132280565
          ],
          [
            -71.66796736237424,
            -33.36072483335193
          ],
          [
            -71.66820470547212,
            -33.36064325383989
          ],
          [
            -71.66845081668149,
            -33.36056552205371
          ],
          [
            -71.66870580258542,
            -33.36053886897121
          ],
          [
            -71.66893177784995,
            -33.36044146816279
          ],
          [
            -71.66913895465238,
            -33.360309730133984
          ],
          [
            -71.66935677264216,
            -33.36018382073258
          ],
          [
            -71.66961918115497,
            -33.36016113458332
          ],
          [
            -71.66986857446203,
            -33.3601130283354
          ],
          [
            -71.67011289417758,
            -33.36004756958894
          ],
          [
            -71.67035234162573,
            -33.35995948037323
          ],
          [
            -71.67060340513525,
            -33.35989345997007
          ],
          [
            -71.6708697597597,
            -33.359877732227986
          ],
          [
            -71.67113061233951,
            -33.35991682021161
          ],
          [
            -71.67136658611913,
            -33.3600193399155
          ],
          [
            -71.67159189569688,
            -33.36012996092407
          ],
          [
            -71.6718183722826,
            -33.360241436734036
          ],
          [
            -71.6720248123513,
            -33.36039032591903
          ],
          [
            -71.67211746914289,
            -33.36060181772207
          ],
          [
            -71.67212978417547,
            -33.36082706972581
          ],
          [
            -71.67208028030034,
            -33.36104323500495
          ],
          [
            -71.67204533873232,
            -33.361260265255964
          ],
          [
            -71.67204648896303,
            -33.36147085507068
          ],
          [
            -71.67207216457136,
            -33.36168849142764
          ],
          [
            -71.67209956786047,
            -33.36190628387734
          ],
          [
            -71.6721247723391,
            -33.3621229394329
          ],
          [
            -71.67218372012613,
            -33.36232503741774
          ],
          [
            -71.67228807385781,
            -33.362523592091996
          ],
          [
            -71.6724129010332,
            -33.36271374313835
          ],
          [
            -71.6725565349986,
            -33.3628920734218
          ],
          [
            -71.67270562492699,
            -33.36307182553673
          ],
          [
            -71.6728651783935,
            -33.363233717461206
          ],
          [
            -71.67303507413028,
            -33.363401327151024
          ],
          [
            -71.67323570652812,
            -33.363525811752595
          ],
          [
            -71.67345291590176,
            -33.36364722268825
          ],
          [
            -71.67367012586467,
            -33.363768633211116
          ],
          [
            -71.67388877039504,
            -33.3638590683807
          ],
          [
            -71.67413917576897,
            -33.36392079951931
          ],
          [
            -71.67438356598342,
            -33.36401532230989
          ],
          [
            -71.6746137877345,
            -33.36411188623871
          ],
          [
            -71.67485349033988,
            -33.36419851435604
          ],
          [
            -71.67509311505216,
            -33.364285296244866
          ],
          [
            -71.6753327206288,
            -33.36437211621063
          ],
          [
            -71.67557168374152,
            -33.36445321808816
          ],
          [
            -71.67581852022596,
            -33.364524359946444
          ],
          [
            -71.67606535708205,
            -33.36459550129244
          ],
          [
            -71.67631355105348,
            -33.3646197053293
          ],
          [
            -71.676573973932,
            -33.36463414975389
          ],
          [
            -71.6768339867146,
            -33.36464539505001
          ],
          [
            -71.67708393310413,
            -33.36461439580957
          ],
          [
            -71.67735217167494,
            -33.364618339249944
          ],
          [
            -71.6775968343869,
            -33.364710441707466
          ],
          [
            -71.6778358277366,
            -33.36475326772149
          ],
          [
            -71.6780915655892,
            -33.36475199479946
          ],
          [
            -71.67833776544957,
            -33.36471086339888
          ],
          [
            -71.67858035304383,
            -33.36462926308291
          ],
          [
            -71.67883649336044,
            -33.364576287514495
          ],
          [
            -71.67909711378644,
            -33.3645340863764
          ],
          [
            -71.67934092621583,
            -33.3646279590345
          ],
          [
            -71.67955187525696,
            -33.364757604983915
          ],
          [
            -71.67976708033686,
            -33.36488023910821
          ],
          [
            -71.67998637443306,
            -33.364998996877915
          ],
          [
            -71.68020566910994,
            -33.36511775422785
          ],
          [
            -71.68042470248562,
            -33.36523638197643
          ],
          [
            -71.68067404158363,
            -33.365287612322916
          ],
          [
            -71.68093372925262,
            -33.36526704367923
          ],
          [
            -71.68072453779234,
            -33.365363214691925
          ]
        ]
      }
    },
    {
      "type": "Feature",
      "properties": {
        "year": 2025,
        "scene_count": 1,
        "processing_level": "L2A_FES2014"
      },
      "geometry": {
        "type": "LineString",
        "coordinates": [
          [
            -71.66380553664537,
            -33.358701823119915
          ],
          [
            -71.66401027741068,
            -33.35881350085463
          ],
          [
            -71.66420933070206,
            -33.35895490698891
          ],
          [
            -71.66439967776496,
            -33.35910472917487
          ],
          [
            -71.66459002547872,
            -33.35925455103289
          ],
          [
            -71.66477965106402,
            -33.35940499011123
          ],
          [
            -71.66496322965537,
            -33.35955825851311
          ],
          [
            -71.66502830524256,
            -33.35976836955142
          ],
          [
            -71.66513799471744,
            -33.35996678081245
          ],
          [
            -71.66532095430256,
            -33.360122151265315
          ],
          [
            -71.66552089617066,
            -33.36026280867736
          ],
          [
            -71.66573111099984,
            -33.360392300094865
          ],
          [
            -71.66595060011304,
            -33.36051077866451
          ],
          [
            -71.66617007726138,
            -33.36062925018998
          ],
          [
            -71.66641766251752,
            -33.360693522878115
          ],
          [
            -71.66667284567609,
            -33.36073643655534
          ],
          [
            -71.66693166018128,
            -33.36076425887301
          ],
          [
            -71.66719184520544,
            -33.36077995555969
          ],
          [
            -71.6674523540608,
            -33.360779288593136
          ],
          [
            -71.66771196639132,
            -33.36076773500909
          ],
          [
            -71.66796842317503,
            -33.36072890839212
          ],
          [
            -71.66820745315691,
            -33.36064734382945
          ],
          [
            -71.66845152271839,
            -33.360570707472704
          ],
          [
            -71.66870756121459,
            -33.360544419295906
          ],
          [
            -71.66893605857994,
            -33.36044660369258
          ],
          [
            -71.66914398141927,
            -33.36031505241698
          ],
          [
            -71.6693602480731,
            -33.360190529426376
          ],
          [
            -71.66961920212239,
            -33.36016897377382
          ],
          [
            -71.66987089922426,
            -33.3601211608425
          ],
          [
            -71.67011710020628,
            -33.36005572589495
          ],
          [
            -71.67035657966312,
            -33.35996819378562
          ],
          [
            -71.67060672834344,
            -33.35990299581506
          ],
          [
            -71.67086846076995,
            -33.35988813453018
          ],
          [
            -71.67112660858405,
            -33.3599272769807
          ],
          [
            -71.67135962704607,
            -33.36002925528712
          ],
          [
            -71.67158459209064,
            -33.36014031412467
          ],
          [
            -71.67181007638744,
            -33.360251885286274
          ],
          [
            -71.67201108762819,
            -33.36039652454985
          ],
          [
            -71.67210146916726,
            -33.360604004325204
          ],
          [
            -71.67211301652088,
            -33.36082580489813
          ],
          [
            -71.6720629891171,
            -33.361041203947764
          ],
          [
            -71.67202742907895,
            -33.361258161554396
          ],
          [
            -71.67202785608808,
            -33.36147226767495
          ],
          [
            -71.67205292683069,
            -33.36169010219411
          ],
          [
            -71.67207958442219,
            -33.361907957083375
          ],
          [
            -71.67210412597692,
            -33.36212526841399
          ],
          [
            -71.67216389304659,
            -33.36233218965526
          ],
          [
            -71.67226805015635,
            -33.36253188721702
          ],
          [
            -71.67239274786043,
            -33.36272318289724
          ],
          [
            -71.67253689831695,
            -33.3629034018537
          ],
          [
            -71.6726853707212,
            -33.363083510233714
          ],
          [
            -71.6728476134958,
            -33.36324903028854
          ],
          [
            -71.67301670787622,
            -33.36341626577888
          ],
          [
            -71.67322188317657,
            -33.363543370553764
          ],
          [
            -71.6734393679432,
            -33.36366443173477
          ],
          [
            -71.67365685329797,
            -33.36378549250206
          ],
          [
            -71.67388221033808,
            -33.36387807386522
          ],
          [
            -71.67413275474698,
            -33.363939402355655
          ],
          [
            -71.67437312711132,
            -33.364032124264924
          ],
          [
            -71.67460513084406,
            -33.3641289319144
          ],
          [
            -71.67484502934641,
            -33.36421517439725
          ],
          [
            -71.67508488912489,
            -33.36430149352105
          ],
          [
            -71.67532473955822,
            -33.36438783143851
          ],
          [
            -71.67556536274041,
            -33.36446890430432
          ],
          [
            -71.67581239929628,
            -33.36453954977351
          ],
          [
            -71.67605943622118,
            -33.36461019472975
          ],
          [
            -71.67631245834811,
            -33.364634663912895
          ],
          [
            -71.67657291947633,
            -33.364648585310135
          ],
          [
            -71.67683327407381,
            -33.36465932085321
          ],
          [
            -71.67708628479869,
            -33.36462762211542
          ],
          [
            -71.67734971820968,
            -33.36463080954322
          ],
          [
            -71.6775899687562,
            -33.3647208604787
          ],
          [
            -71.67783475427696,
            -33.364764403212625
          ],
          [
            -71.67809265176619,
            -33.364762393181714
          ],
          [
            -71.67834215207725,
            -33.36471984288176
          ],
          [
            -71.67858424042406,
            -33.364637620050715
          ],
          [
            -71.6788382857044,
            -33.3645843864631
          ],
          [
            -71.67909649612095,
            -33.364541572253266
          ],
          [
            -71.67933649949379,
            -33.36463346817911
          ],
          [
            -71.67954790771678,
            -33.36476223317065
          ],
          [
            -71.6797640467368,
            -33.36488425890662
          ],
          [
            -71.67998394221289,
            -33.365002219804
          ],
          [
            -71.68020383826698,
            -33.365120180279625
          ],
          [
            -71.68042360395812,
            -33.3652380757427
          ],
          [
            -71.68067405654496,
            -33.365288597377386
          ],
          [
            -71.68093370679047,
            -33.365267081123655
          ],
          [
            -71.68072491889616,
            -33.365364057345964
          ]
        ]
      }
    },
    {
      "type": "Feature",
      "properties": {
        "year": 2026,
        "scene_count": 1,
        "processing_level": "L2A_FES2014"
      },
      "geometry": {
        "type": "LineString",
        "coordinates": [
          [
            -71.6638076,
            -33.358696699999996
          ],
          [
            -71.66401445004196,
            -33.35880994763941
          ],
          [
            -71.66421306341395,
            -33.35895158019147
          ],
          [
            -71.66440306802474,
            -33.3591017075831
          ],
          [
            -71.66459307328667,
            -33.359251834647836
          ],
          [
            -71.66478237039958,
            -33.35940259003308
          ],
          [
            -71.66496619921145,
            -33.35955678981487
          ],
          [
            -71.66503114459647,
            -33.359767706022744
          ],
          [
            -71.66514008456363,
            -33.35996571126198
          ],
          [
            -71.66532226127327,
            -33.360120995941195
          ],
          [
            -71.66552168899399,
            -33.36026197195593
          ],
          [
            -71.66573146364563,
            -33.36039184246588
          ],
          [
            -71.66595061367629,
            -33.36051076106336
          ],
          [
            -71.66616976428813,
            -33.36062967924176
          ],
          [
            -71.66641735134318,
            -33.360694516193604
          ],
          [
            -71.66667260642305,
            -33.360737974582904
          ],
          [
            -71.66693138899994,
            -33.36076632144566
          ],
          [
            -71.66719162582507,
            -33.36078254813168
          ],
          [
            -71.66745242693241,
            -33.36078241110583
          ],
          [
            -71.66771264245554,
            -33.36077133773764
          ],
          [
            -71.66796948397591,
            -33.3607329834323
          ],
          [
            -71.66821020084197,
            -33.36065143381894
          ],
          [
            -71.66845222875541,
            -33.360575892891696
          ],
          [
            -71.66870931984403,
            -33.360549969620564
          ],
          [
            -71.66894033931044,
            -33.360451739222185
          ],
          [
            -71.66914900818678,
            -33.360320374699725
          ],
          [
            -71.66936372350462,
            -33.360197238120044
          ],
          [
            -71.66961922308987,
            -33.3601768129643
          ],
          [
            -71.669873223987,
            -33.36012929334952
          ],
          [
            -71.67012130623583,
            -33.36006388220077
          ],
          [
            -71.67036081770138,
            -33.35997690719781
          ],
          [
            -71.67061005155244,
            -33.35991253165992
          ],
          [
            -71.67086716177998,
            -33.359898536832354
          ],
          [
            -71.6711226048277,
            -33.35993773374969
          ],
          [
            -71.67135266797149,
            -33.3600391706584
          ],
          [
            -71.67157728848274,
            -33.36015066732491
          ],
          [
            -71.67180178049037,
            -33.360262333838044
          ],
          [
            -71.67199736290308,
            -33.36040272317925
          ],
          [
            -71.67208546919069,
            -33.36060619092631
          ],
          [
            -71.67209624886662,
            -33.360824540068144
          ],
          [
            -71.6720456979345,
            -33.36103917288813
          ],
          [
            -71.67200951942627,
            -33.3612560578502
          ],
          [
            -71.67200922321231,
            -33.36147368027646
          ],
          [
            -71.6720336890891,
            -33.361691712957644
          ],
          [
            -71.67205960098293,
            -33.361909630286256
          ],
          [
            -71.67208347961338,
            -33.36212759739169
          ],
          [
            -71.67214406596361,
            -33.362339341889765
          ],
          [
            -71.6722480264509,
            -33.36254018233899
          ],
          [
            -71.67237259468314,
            -33.362732622653084
          ],
          [
            -71.67251726163006,
            -33.36291473028272
          ],
          [
            -71.67266511650985,
            -33.36309519492764
          ],
          [
            -71.67283004859198,
            -33.363264343113656
          ],
          [
            -71.67299834161584,
            -33.363431204404286
          ],
          [
            -71.67320805981961,
            -33.363560929353625
          ],
          [
            -71.67342581997943,
            -33.363681640780015
          ],
          [
            -71.67364358072626,
            -33.363802351791804
          ],
          [
            -71.67387565027852,
            -33.363897079349506
          ],
          [
            -71.67412633372248,
            -33.36395800519173
          ],
          [
            -71.67436268823538,
            -33.364048926219226
          ],
          [
            -71.67459647395043,
            -33.3641459775896
          ],
          [
            -71.67483656834989,
            -33.364231834438
          ],
          [
            -71.67507666319473,
            -33.36431769079681
          ],
          [
            -71.67531675848495,
            -33.36440354666598
          ],
          [
            -71.67555904173722,
            -33.36448459052023
          ],
          [
            -71.67580627836462,
            -33.364554739600344
          ],
          [
            -71.67605351535848,
            -33.36462488816683
          ],
          [
            -71.67631136564255,
            -33.364649622496465
          ],
          [
            -71.67657186502048,
            -33.364663020866345
          ],
          [
            -71.67683256143296,
            -33.364673246656395
          ],
          [
            -71.67708863649412,
            -33.36464084842119
          ],
          [
            -71.67734726474387,
            -33.3646432798365
          ],
          [
            -71.67758310312392,
            -33.36473127924963
          ],
          [
            -71.67783368081712,
            -33.364775538703746
          ],
          [
            -71.67809373794353,
            -33.36477279156395
          ],
          [
            -71.6783465387059,
            -33.364728822364405
          ],
          [
            -71.6785881278051,
            -33.364645977018355
          ],
          [
            -71.67884007804874,
            -33.36459248541167
          ],
          [
            -71.67909587845541,
            -33.3645490581301
          ],
          [
            -71.67933207277122,
            -33.364638977323594
          ],
          [
            -71.67954394017619,
            -33.36476686135728
          ],
          [
            -71.6797610131365,
            -33.36488827870496
          ],
          [
            -71.67998150999254,
            -33.36500544273004
          ],
          [
            -71.68020200742392,
            -33.365122606331376
          ],
          [
            -71.68042250543058,
            -33.36523976950897
          ],
          [
            -71.6806740715063,
            -33.36528958243183
          ],
          [
            -71.68093368432832,
            -33.36526711856808
          ],
          [
            -71.6807253,
            -33.3653649
          ]
        ]
      }
    }
  ]
}