{
  "type": "FeatureCollection",
  "name": "transect_rates",
  "crs": {
    "type": "name",
    "properties": {
      "name": "urn:ogc:def:crs:OGC:1.3:CRS84"
    }
  },
  "features": [
    {
      "type": "Feature",
      "properties": {
        "transect_id": "T01",
        "chainage_m": 0.0,
        "n_observations": 11,
        "n_expected_years": 11,
        "temporal_completeness_pct": 100.0,
        "first_year": 2016,
        "last_year": 2026,
        "first_position_m": 6.0,
        "last_position_m": 0.0,
        "nsm_m": -6.0,
        "epr_m_per_year": -0.6,
        "lrr_m_per_year": -0.6,
        "lrr_r2": 0.95,
        "lrr_reference_year": 2021.0,
        "lrr_position_at_reference_m": 3.0,
        "lrr_standard_error_m_per_year": 0.1,
        "lrr_ci95_low_m_per_year": -0.8,
        "lrr_ci95_high_m_per_year": -0.39999999999999997,
        "uncertainty_method": "student_t_95",
        "analysis_status": "ok",
        "sign_convention": "positivo=hacia el lado left de la línea base; si ese lado es tierra, positivo=retroceso y negativo=acreción"
      },
      "geometry": {
        "type": "LineString",
        "coordinates": [
          [
            -71.66397954543442,
            -33.35826977324916
          ],
          [
            -71.66291345873381,
            -33.36091671618348
          ]
        ]
      }
    },
    {
      "type": "Feature",
      "properties": {
        "transect_id": "T02",
        "chainage_m": 56.5,
        "n_observations": 11,
        "n_expected_years": 11,
        "temporal_completeness_pct": 100.0,
        "first_year": 2016,
        "last_year": 2026,
        "first_position_m": 4.918918918918918,
        "last_position_m": 0.0,
        "nsm_m": -4.918918918918918,
        "epr_m_per_year": -0.49189189189189186,
        "lrr_m_per_year": -0.49189189189189186,
        "lrr_r2": 0.95,
        "lrr_reference_year": 2021.0,
        "lrr_position_at_reference_m": 2.459459459459459,
        "lrr_standard_error_m_per_year": 0.1,
        "lrr_ci95_low_m_per_year": -0.6918918918918919,
        "lrr_ci95_high_m_per_year": -0.29189189189189185,
        "uncertainty_method": "student_t_95",
        "analysis_status": "ok",
        "sign_convention": "positivo=hacia el lado left de la línea base; si ese lado es tierra, positivo=retroceso y negativo=acreción"
      },
      "geometry": {
        "type": "LineString",
        "coordinates": [
          [
            -71.66464281944499,
            -33.358672167938515
          ],
          [
            -71.66236035048973,
            -33.36070638625446
          ]
        ]
      }
    },
    {
      "type": "Feature",
      "properties": {
        "transect_id": "T03",
        "chainage_m": 113.0,
        "n_observations": 11,
        "n_expected_years": 11,
        "temporal_completeness_pct": 100.0,
        "first_year": 2016,
        "last_year": 2026,
        "first_position_m": 3.8378378378378377,
        "last_position_m": 0.0,
        "nsm_m": -3.8378378378378377,
        "epr_m_per_year": -0.38378378378378375,
        "lrr_m_per_year": -0.38378378378378375,
        "lrr_r2": 0.95,
        "lrr_reference_year": 2021.0,
        "lrr_position_at_reference_m": 1.9189189189189189,
        "lrr_standard_error_m_per_year": 0.1,
        "lrr_ci95_low_m_per_year": -0.5837837837837838,
        "lrr_ci95_high_m_per_year": -0.18378378378378374,
        "uncertainty_method": "student_t_95",
        "analysis_status": "ok",
        "sign_convention": "positivo=hacia el lado left de la línea base; si ese lado es tierra, positivo=retroceso y negativo=acreción"
      },
      "geometry": {
        "type": "LineString",
        "coordinates": [
          [
            -71.66508595362737,
            -33.359022977069834
          ],
          [
            -71.66279169318088,
            -33.36104783915627
          ]
        ]
      }
    },
    {
      "type": "Feature",
      "properties": {
        "transect_id": "T04",
        "chainage_m": 169.4,
        "n_observations": 11,
        "n_expected_years": 11,
        "temporal_completeness_pct": 100.0,
        "first_year": 2016,
        "last_year": 2026,
        "first_position_m": 2.756756756756756,
        "last_position_m": 0.0,
        "nsm_m": -2.756756756756756,
        "epr_m_per_year": -0.27567567567567564,
        "lrr_m_per_year": -0.27567567567567564,
        "lrr_r2": 0.95,
        "lrr_reference_year": 2021.0,
        "lrr_position_at_reference_m": 1.378378378378378,
        "lrr_standard_error_m_per_year": 0.1,
        "lrr_ci95_low_m_per_year": -0.47567567567567565,
        "lrr_ci95_high_m_per_year": -0.07567567567567562,
        "uncertainty_method": "student_t_95",
        "analysis_status": "ok",
        "sign_convention": "positivo=hacia el lado left de la línea base; si ese lado es tierra, positivo=retroceso y negativo=acreción"
      },
      "geometry": {
        "type": "LineString",
        "coordinates": [
          [
            -71.66554659145487,
            -33.35964110585069
          ],
          [
            -71.66233906375503,
            -33.36039064108052
          ]
        ]
      }
    },
    {
      "type": "Feature",
      "properties": {
        "transect_id": "T05",
        "chainage_m": 225.9,
        "n_observations": 11,
        "n_expected_years": 11,
        "temporal_completeness_pct": 100.0,
        "first_year": 2016,
        "last_year": 2026,
        "first_position_m": 1.5945945945945943,
        "last_position_m": 0.0,
        "nsm_m": -1.5945945945945943,
        "epr_m_per_year": -0.15945945945945944,
        "lrr_m_per_year": -0.15945945945945944,
        "lrr_r2": 0.95,
        "lrr_reference_year": 2021.0,
        "lrr_position_at_reference_m": 0.7972972972972971,
        "lrr_standard_error_m_per_year": 0.1,
        "lrr_ci95_low_m_per_year": -0.35945945945945945,
        "lrr_ci95_high_m_per_year": 0.04054054054054057,
        "uncertainty_method": "student_t_95",
        "analysis_status": "ok",
        "sign_convention": "positivo=hacia el lado left de la línea base; si ese lado es tierra, positivo=retroceso y negativo=acreción"
      },
      "geometry": {
        "type": "LineString",
        "coordinates": [
          [
            -71.66573350056888,
            -33.35982765547044
          ],
          [
            -71.66353265009387,
            -33.36192427291936
          ]
        ]
      }
    },
    {
      "type": "Feature",
      "properties": {
        "transect_id": "T06",
        "chainage_m": 282.4,
        "n_observations": 11,
        "n_expected_years": 11,
        "temporal_completeness_pct": 100.0,
        "first_year": 2016,
        "last_year": 2026,
        "first_position_m": 0.2432432432432434,
        "last_position_m": 0.0,
        "nsm_m": -0.2432432432432434,
        "epr_m_per_year": -0.02432432432432434,
        "lrr_m_per_year": -0.02432432432432434,
        "lrr_r2": 0.95,
        "lrr_reference_year": 2021.0,
        "lrr_position_at_reference_m": 0.1216216216216217,
        "lrr_standard_error_m_per_year": 0.1,
        "lrr_ci95_low_m_per_year": -0.22432432432432436,
        "lrr_ci95_high_m_per_year": 0.17567567567567566,
        "uncertainty_method": "student_t_95",
        "analysis_status": "ok",
        "sign_convention": "positivo=hacia el lado left de la línea base; si ese lado es tierra, positivo=retroceso y negativo=acreción"
      },
      "geometry": {
        "type": "LineString",
        "coordinates": [
          [
            -71.6661593012917,
            -33.36008734032233
          ],
          [
            -71.66435128385723,
            -33.36243356325599
          ]
        ]
      }
    },
    {
      "type": "Feature",
      "properties": {
        "transect_id": "T07",
        "chainage_m": 338.9,
        "n_observations": 11,
        "n_expected_years": 11,
        "temporal_completeness_pct": 100.0,
        "first_year": 2016,
        "last_year": 2026,
        "first_position_m": -1.1081081081081083,
        "last_position_m": 0.0,
        "nsm_m": 1.1081081081081083,
        "epr_m_per_year": 0.11081081081081083,
        "lrr_m_per_year": 0.11081081081081083,
        "lrr_r2": 0.95,
        "lrr_reference_year": 2021.0,
        "lrr_position_at_reference_m": -0.5540540540540542,
        "lrr_standard_error_m_per_year": 0.1,
        "lrr_ci95_low_m_per_year": -0.08918918918918918,
        "lrr_ci95_high_m_per_year": 0.31081081081081086,
        "uncertainty_method": "student_t_95",
        "analysis_status": "ok",
        "sign_convention": "positivo=hacia el lado left de la línea base; si ese lado es tierra, positivo=retroceso y negativo=acreción"
      },
      "geometry": {
        "type": "LineString",
        "coordinates": [
          [
            -71.66654024310678,
            -33.360255663965276
          ],
          [
            -71.66569370559976,
            -33.36295788601723
          ]
        ]
      }
    },
    {
      "type": "Feature",
      "properties": {
        "transect_id": "T08",
        "chainage_m": 395.3,
        "n_observations": 11,
        "n_expected_years": 11,
        "temporal_completeness_pct": 100.0,
        "first_year": 2016,
        "last_year": 2026,
        "first_position_m": -2.4594594594594605,
        "last_position_m": 0.0,
        "nsm_m": 2.4594594594594605,
        "epr_m_per_year": 0.24594594594594604,
        "lrr_m_per_year": 0.24594594594594604,
        "lrr_r2": 0.95,
        "lrr_reference_year": 2021.0,
        "lrr_position_at_reference_m": -1.2297297297297303,
        "lrr_standard_error_m_per_year": 0.1,
        "lrr_ci95_low_m_per_year": 0.04594594594594603,
        "lrr_ci95_high_m_per_year": 0.44594594594594605,
        "uncertainty_method": "student_t_95",
        "analysis_status": "ok",
        "sign_convention": "positivo=hacia el lado left de la línea base; si ese lado es tierra, positivo=retroceso y negativo=acreción"
      },
      "geometry": {
        "type": "LineString",
        "coordinates": [
          [
            -71.66703969928471,
            -33.360321710108806
          ],
          [
            -71.6668038563313,
            -33.36310872465474
          ]
        ]
      }
    },
    {
      "type": "Feature",
      "properties": {
        "transect_id": "T09",
        "chainage_m": 451.8,
        "n_observations": 11,
        "n_expected_years": 11,
        "temporal_completeness_pct": 100.0,
        "first_year": 2016,
        "last_year": 2026,
        "first_position_m": -3.8108108108108105,
        "last_position_m": 0.0,
        "nsm_m": 3.8108108108108105,
        "epr_m_per_year": 0.3810810810810811,
        "lrr_m_per_year": 0.3810810810810811,
        "lrr_r2": 0.95,
        "lrr_reference_year": 2021.0,
        "lrr_position_at_reference_m": -1.9054054054054053,
        "lrr_standard_error_m_per_year": 0.1,
        "lrr_ci95_low_m_per_year": 0.18108108108108106,
        "lrr_ci95_high_m_per_year": 0.5810810810810811,
        "uncertainty_method": "student_t_95",
        "analysis_status": "ok",
        "sign_convention": "positivo=hacia el lado left de la línea base; si ese lado es tierra, positivo=retroceso y negativo=acreción"
      },
      "geometry": {
        "type": "LineString",
        "coordinates": [
          [
            -71.66759705760806,
            -33.36032929750818
          ],
          [
            -71.66766225929567,
            -33.36312279296878
          ]
        ]
      }
    },
    {
      "type": "Feature",
      "properties": {
        "transect_id": "T10",
        "chainage_m": 508.3,
        "n_observations": 11,
        "n_expected_years": 11,
        "temporal_completeness_pct": 100.0,
        "first_year": 2016,
        "last_year": 2026,
        "first_position_m": -5.162162162162163,
        "last_position_m": 0.0,
        "nsm_m": 5.162162162162163,
        "epr_m_per_year": 0.5162162162162163,
        "lrr_m_per_year": 0.5162162162162163,
        "lrr_r2": 0.95,
        "lrr_reference_year": 2021.0,
        "lrr_position_at_reference_m": -2.5810810810810816,
        "lrr_standard_error_m_per_year": 0.1,
        "lrr_ci95_low_m_per_year": 0.31621621621621626,
        "lrr_ci95_high_m_per_year": 0.7162162162162162,
        "uncertainty_method": "student_t_95",
        "analysis_status": "ok",
        "sign_convention": "positivo=hacia el lado left de la línea base; si ese lado es tierra, positivo=retroceso y negativo=acreción"
      },
      "geometry": {
        "type": "LineString",
        "coordinates": [
          [
            -71.6679259807277,
            -33.360268659143344
          ],
          [
            -71.66957419235483,
            -33.36269634728478
          ]
        ]
      }
    },
    {
      "type": "Feature",
      "properties": {
        "transect_id": "T11",
        "chainage_m": 564.8,
        "n_observations": 11,
        "n_expected_years": 11,
        "temporal_completeness_pct": 100.0,
        "first_year": 2016,
        "last_year": 2026,
        "first_position_m": -6.513513513513512,
        "last_position_m": 0.0,
        "nsm_m": 6.513513513513512,
        "epr_m_per_year": 0.6513513513513512,
        "lrr_m_per_year": 0.6513513513513512,
        "lrr_r2": 0.95,
        "lrr_reference_year": 2021.0,
        "lrr_position_at_reference_m": -3.256756756756756,
        "lrr_standard_error_m_per_year": 0.1,
        "lrr_ci95_low_m_per_year": 0.45135135135135124,
        "lrr_ci95_high_m_per_year": 0.8513513513513513,
        "uncertainty_method": "student_t_95",
        "analysis_status": "ok",
        "sign_convention": "positivo=hacia el lado left de la línea base; si ese lado es tierra, positivo=retroceso y negativo=acreción"
      },
      "geometry": {
        "type": "LineString",
        "coordinates": [
          [
            -71.66856826510798,
            -33.36011806789215
          ],
          [
            -71.66982120205392,
            -33.362706728524536
          ]
        ]
      }
    },
    {
      "type": "Feature",
      "properties": {
        "transect_id": "T12",
        "chainage_m": 621.2,
        "n_observations": 11,
        "n_expected_years": 11,
        "temporal_completeness_pct": 100.0,
        "first_year": 2016,
        "last_year": 2026,
        "first_position_m": -7.864864864864867,
        "last_position_m": 0.0,
        "nsm_m": 7.864864864864867,
        "epr_m_per_year": 0.7864864864864867,
        "lrr_m_per_year": 0.7864864864864867,
        "lrr_r2": 0.95,
        "lrr_reference_year": 2021.0,
        "lrr_position_at_reference_m": -3.9324324324324333,
        "lrr_standard_error_m_per_year": 0.1,
        "lrr_ci95_low_m_per_year": 0.5864864864864867,
        "lrr_ci95_high_m_per_year": 0.9864864864864866,
        "uncertainty_method": "student_t_95",
        "analysis_status": "ok",
        "sign_convention": "positivo=hacia el lado left de la línea base; si ese lado es tierra, positivo=retroceso y negativo=acreción"
      },
      "geometry": {
        "type": "LineString",
        "coordinates": [
          [
            -71.66897055999412,
            -33.359869092182436
          ],
          [
            -71.6708064847717,
            -33.36219999334857
          ]
        ]
      }
    },
    {
      "type": "Feature",
      "properties": {
        "transect_id": "T13",
        "chainage_m": 677.7,
        "n_observations": 11,
        "n_expected_years": 11,
        "temporal_completeness_pct": 100.0,
        "first_year": 2016,
        "last_year": 2026,
        "first_position_m": -9.216216216216218,
        "last_position_m": 0.0,
        "nsm_m": 9.216216216216218,
        "epr_m_per_year": 0.9216216216216218,
        "lrr_m_per_year": 0.9216216216216218,
        "lrr_r2": 0.95,
        "lrr_reference_year": 2021.0,
        "lrr_position_at_reference_m": -4.608108108108109,
        "lrr_standard_error_m_per_year": 0.1,
        "lrr_ci95_low_m_per_year": 0.7216216216216218,
        "lrr_ci95_high_m_per_year": 1.1216216216216217,
        "uncertainty_method": "student_t_95",
        "analysis_status": "ok",
        "sign_convention": "positivo=hacia el lado left de la línea base; si ese lado es tierra, positivo=retroceso y negativo=acreción"
      },
      "geometry": {
        "type": "LineString",
        "coordinates": [
          [
            -71.66972052035868,
            -33.35969659809792
          ],
          [
            -71.67049720679086,
            -33.36241354581546
          ]
        ]
      }
    },
    {
      "type": "Feature",
      "properties": {
        "transect_id": "T14",
        "chainage_m": 734.2,
        "n_observations": 11,
        "n_expected_years": 11,
        "temporal_completeness_pct": 100.0,
        "first_year": 2016,
        "last_year": 2026,
        "first_position_m": -10.567567567567568,
        "last_position_m": 0.0,
        "nsm_m": 10.567567567567568,
        "epr_m_per_year": 1.0567567567567568,
        "lrr_m_per_year": 1.0567567567567568,
        "lrr_r2": 0.95,
        "lrr_reference_year": 2021.0,
        "lrr_position_at_reference_m": -5.283783783783784,
        "lrr_standard_error_m_per_year": 0.1,
        "lrr_ci95_low_m_per_year": 0.8567567567567569,
        "lrr_ci95_high_m_per_year": 1.2567567567567568,
        "uncertainty_method": "student_t_95",
        "analysis_status": "ok",
        "sign_convention": "positivo=hacia el lado left de la línea base; si ese lado es tierra, positivo=retroceso y negativo=acreción"
      },
      "geometry": {
        "type": "LineString",
        "coordinates": [
          [
            -71.6702501183989,
            -33.35953148441573
          ],
          [
            -71.6712645166949,
            -33.362192684760515
          ]
        ]
      }
    },
    {
      "type": "Feature",
      "properties": {
        "transect_id": "T15",
        "chainage_m": 790.7,
        "n_observations": 11,
        "n_expected_years": 11,
        "temporal_completeness_pct": 100.0,
        "first_year": 2016,
        "last_year": 2026,
        "first_position_m": -11.918918918918923,
        "last_position_m": 0.0,
        "nsm_m": 11.918918918918923,
        "epr_m_per_year": 1.1918918918918924,
        "lrr_m_per_year": 1.1918918918918924,
        "lrr_r2": 0.95,
        "lrr_reference_year": 2021.0,
        "lrr_position_at_reference_m": -5.959459459459461,
        "lrr_standard_error_m_per_year": 0.1,
        "lrr_ci95_low_m_per_year": 0.9918918918918924,
        "lrr_ci95_high_m_per_year": 1.3918918918918923,
        "uncertainty_method": "student_t_95",
        "analysis_status": "ok",
        "sign_convention": "positivo=hacia el lado left de la línea base; si ese lado es tierra, positivo=retroceso y negativo=acreción"
      },
      "geometry": {
        "type": "LineString",
        "coordinates": [
          [
            -71.67108995771655,
            -33.3594655737272
          ],
          [
            -71.67057846757632,
            -33.362226435268184
          ]
        ]
      }
    },
    {
      "type": "Feature",
      "properties": {
        "transect_id": "T16",
        "chainage_m": 847.2,
        "n_observations": 11,
        "n_expected_years": 11,
        "temporal_completeness_pct": 100.0,
        "first_year": 2016,
        "last_year": 2026,
        "first_position_m": -13.270270270270272,
        "last_position_m": 0.0,
        "nsm_m": 13.270270270270272,
        "epr_m_per_year": 1.3270270270270272,
        "lrr_m_per_year": 1.3270270270270272,
        "lrr_r2": 0.95,
        "lrr_reference_year": 2021.0,
        "lrr_position_at_reference_m": -6.635135135135136,
        "lrr_standard_error_m_per_year": 0.1,
        "lrr_ci95_low_m_per_year": 1.1270270270270273,
        "lrr_ci95_high_m_per_year": 1.5270270270270272,
        "uncertainty_method": "student_t_95",
        "analysis_status": "ok",
        "sign_convention": "positivo=hacia el lado left de la línea base; si ese lado es tierra, positivo=retroceso y negativo=acreción"
      },
      "geometry": {
        "type": "LineString",
        "coordinates": [
          [
            -71.6718205066025,
            -33.3597477972542
          ],
          [
            -71.67012435857882,
            -33.36215211359312
          ]
        ]
      }
    },
    {
      "type": "Feature",
      "properties": {
        "transect_id": "T17",
        "chainage_m": 903.6,
        "n_observations": 11,
        "n_expected_years": 11,
        "temporal_completeness_pct": 100.0,
        "first_year": 2016,
        "last_year": 2026,
        "first_position_m": -14.621621621621623,
        "last_position_m": 0.0,
        "nsm_m": 14.621621621621623,
        "epr_m_per_year": 1.4621621621621623,
        "lrr_m_per_year": 1.4621621621621623,
        "lrr_r2": 0.95,
        "lrr_reference_year": 2021.0,
        "lrr_position_at_reference_m": -7.310810810810811,
        "lrr_standard_error_m_per_year": 0.1,
        "lrr_ci95_low_m_per_year": 1.2621621621621624,
        "lrr_ci95_high_m_per_year": 1.6621621621621623,
        "uncertainty_method": "student_t_95",
        "analysis_status": "ok",
        "sign_convention": "positivo=hacia el lado left de la línea base; si ese lado es tierra, positivo=retroceso y negativo=acreción"
      },
      "geometry": {
        "type": "LineString",
        "coordinates": [
          [
            -71.6724982203332,
            -33.360234939538046
          ],
          [
            -71.66953191183634,
            -33.3615040220456
          ]
        ]
      }
    },
    {
      "type": "Feature",
      "properties": {
        "transect_id": "T18",
        "chainage_m": 960.1,
        "n_observations": 11,
        "n_expected_years": 11,
        "temporal_completeness_pct": 100.0,
        "first_year": 2016,
        "last_year": 2026,
        "first_position_m": -15.972972972972975,
        "last_position_m": 0.0,
        "nsm_m": 15.972972972972975,
        "epr_m_per_year": 1.5972972972972976,
        "lrr_m_per_year": 1.5972972972972976,
        "lrr_r2": 0.95,
        "lrr_reference_year": 2021.0,
        "lrr_position_at_reference_m": -7.986486486486488,
        "lrr_standard_error_m_per_year": 0.1,
        "lrr_ci95_low_m_per_year": 1.3972972972972977,
        "lrr_ci95_high_m_per_year": 1.7972972972972976,
        "uncertainty_method": "student_t_95",
        "analysis_status": "ok",
        "sign_convention": "positivo=hacia el lado left de la línea base; si ese lado es tierra, positivo=retroceso y negativo=acreción"
      },
      "geometry": {
        "type": "LineString",
        "coordinates": [
          [
            -71.67259322224065,
            -33.361031386365866
          ],
          [
            -71.66934153336982,
            -33.36043055737036
          ]
        ]
      }
    },
    {
      "type": "Feature",
      "properties": {
        "transect_id": "T19",
        "chainage_m": 1016.6,
        "n_observations": 11,
        "n_expected_years": 11,
        "temporal_completeness_pct": 100.0,
        "first_year": 2016,
        "last_year": 2026,
        "first_position_m": -17.324324324324326,
        "last_position_m": 0.0,
        "nsm_m": 17.324324324324326,
        "epr_m_per_year": 1.7324324324324325,
        "lrr_m_per_year": 1.7324324324324325,
        "lrr_r2": 0.95,
        "lrr_reference_year": 2021.0,
        "lrr_position_at_reference_m": -8.662162162162163,
        "lrr_standard_error_m_per_year": 0.1,
        "lrr_ci95_low_m_per_year": 1.5324324324324325,
        "lrr_ci95_high_m_per_year": 1.9324324324324325,
        "uncertainty_method": "student_t_95",
        "analysis_status": "ok",
        "sign_convention": "positivo=hacia el lado left de la línea base; si ese lado es tierra, positivo=retroceso y negativo=acreción"
      },
      "geometry": {
        "type": "LineString",
        "coordinates": [
          [
            -71.67254027029603,
            -33.36139776118765
          ],
          [
            -71.66922415837672,
            -33.3616491326251
          ]
        ]
      }
    },
    {
      "type": "Feature",
      "properties": {
        "transect_id": "T20",
        "chainage_m": 1073.1,
        "n_observations": 11,
        "n_expected_years": 11,
        "temporal_completeness_pct": 100.0,
        "first_year": 2016,
        "last_year": 2026,
        "first_position_m": -18.81081081081081,
        "last_position_m": 0.0,
        "nsm_m": 18.81081081081081,
        "epr_m_per_year": 1.881081081081081,
        "lrr_m_per_year": 1.881081081081081,
        "lrr_r2": 0.95,
        "lrr_reference_year": 2021.0,
        "lrr_position_at_reference_m": -9.405405405405405,
        "lrr_standard_error_m_per_year": 0.1,
        "lrr_ci95_low_m_per_year": 1.681081081081081,
        "lrr_ci95_high_m_per_year": 2.081081081081081,
        "uncertainty_method": "student_t_95",
        "analysis_status": "ok",
        "sign_convention": "positivo=hacia el lado left de la línea base; si ese lado es tierra, positivo=retroceso y negativo=acreción"
      },
      "geometry": {
        "type": "LineString",
        "coordinates": [
          [
            -71.67259818581275,
            -33.361900223496626
          ],
          [
            -71.6692850004945,
            -33.36217760414368
          ]
        ]
      }
    },
    {
      "type": "Feature",
      "properties": {
        "transect_id": "T21",
        "chainage_m": 1129.5,
        "n_observations": 11,
        "n_expected_years": 11,
        "temporal_completeness_pct": 100.0,
        "first_year": 2016,
        "last_year": 2026,
        "first_position_m": -20.43243243243243,
        "last_position_m": 0.0,
        "nsm_m": 20.43243243243243,
        "epr_m_per_year": 2.0432432432432432,
        "lrr_m_per_year": 2.0432432432432432,
        "lrr_r2": 0.95,
        "lrr_reference_year": 2021.0,
        "lrr_position_at_reference_m": -10.216216216216216,
        "lrr_standard_error_m_per_year": 0.1,
        "lrr_ci95_low_m_per_year": 1.8432432432432433,
        "lrr_ci95_high_m_per_year": 2.2432432432432434,
        "uncertainty_method": "student_t_95",
        "analysis_status": "ok",
        "sign_convention": "positivo=hacia el lado left de la línea base; si ese lado es tierra, positivo=retroceso y negativo=acreción"
      },
      "geometry": {
        "type": "LineString",
        "coordinates": [
          [
            -71.6726875905795,
            -33.362259242099874
          ],
          [
            -71.66962858993273,
            -33.363362682863354
          ]
        ]
      }
    },
    {
      "type": "Feature",
      "properties": {
        "transect_id": "T22",
        "chainage_m": 1186.0,
        "n_observations": 11,
        "n_expected_years": 11,
        "temporal_completeness_pct": 100.0,
        "first_year": 2016,
        "last_year": 2026,
        "first_position_m": -22.05405405405405,
        "last_position_m": 0.0,
        "nsm_m": 22.05405405405405,
        "epr_m_per_year": 2.205405405405405,
        "lrr_m_per_year": 2.205405405405405,
        "lrr_r2": 0.95,
        "lrr_reference_year": 2021.0,
        "lrr_position_at_reference_m": -11.027027027027025,
        "lrr_standard_error_m_per_year": 0.1,
        "lrr_ci95_low_m_per_year": 2.005405405405405,
        "lrr_ci95_high_m_per_year": 2.4054054054054053,
        "uncertainty_method": "student_t_95",
        "analysis_status": "ok",
        "sign_convention": "positivo=hacia el lado left de la línea base; si ese lado es tierra, positivo=retroceso y negativo=acreción"
      },
      "geometry": {
        "type": "LineString",
        "coordinates": [
          [
            -71.67293183369179,
            -33.3626252824383
          ],
          [
            -71.6701880148873,
            -33.36420815523482
          ]
        ]
      }
    },
    {
      "type": "Feature",
      "properties": {
        "transect_id": "T23",
        "chainage_m": 1242.5,
        "n_observations": 11,
        "n_expected_years": 11,
        "temporal_completeness_pct": 100.0,
        "first_year": 2016,
        "last_year": 2026,
        "first_position_m": -23.675675675675677,
        "last_position_m": 0.0,
        "nsm_m": 23.675675675675677,
        "epr_m_per_year": 2.367567567567568,
        "lrr_m_per_year": 2.367567567567568,
        "lrr_r2": 0.95,
        "lrr_reference_year": 2021.0,
        "lrr_position_at_reference_m": -11.837837837837839,
        "lrr_standard_error_m_per_year": 0.1,
        "lrr_ci95_low_m_per_year": 2.1675675675675676,
        "lrr_ci95_high_m_per_year": 2.567567567567568,
        "uncertainty_method": "student_t_95",
        "analysis_status": "ok",
        "sign_convention": "positivo=hacia el lado left de la línea base; si ese lado es tierra, positivo=retroceso y negativo=acreción"
      },
      "geometry": {
        "type": "LineString",
        "coordinates": [
          [
            -71.67323514921112,
            -33.362966162257436
          ],
          [
            -71.67088102133603,
            -33.364942111166464
          ]
        ]
      }
    },
    {
      "type": "Feature",
      "properties": {
        "transect_id": "T24",
        "chainage_m": 1299.0,
        "n_observations": 11,
        "n_expected_years": 11,
        "temporal_completeness_pct": 100.0,
        "first_year": 2016,
        "last_year": 2026,
        "first_position_m": -23.135135135135137,
        "last_position_m": 0.0,
        "nsm_m": 23.135135135135137,
        "epr_m_per_year": 2.313513513513514,
        "lrr_m_per_year": 2.313513513513514,
        "lrr_r2": 0.95,
        "lrr_reference_year": 2021.0,
        "lrr_position_at_reference_m": -11.567567567567568,
        "lrr_standard_error_m_per_year": 0.1,
        "lrr_ci95_low_m_per_year": 2.1135135135135137,
        "lrr_ci95_high_m_per_year": 2.513513513513514,
        "uncertainty_method": "student_t_95",
        "analysis_status": "ok",
        "sign_convention": "positivo=hacia el lado left de la línea base; si ese lado es tierra, positivo=retroceso y negativo=acreción"
      },
      "geometry": {
        "type": "LineString",
        "coordinates": [
          [
            -71.6736041283528,
            -33.36324038074555
          ],
          [
            -71.67176878510897,
            -33.365571637201846
          ]
        ]
      }
    },
    {
      "type": "Feature",
      "properties": {
        "transect_id": "T25",
        "chainage_m": 1355.4,
        "n_observations": 11,
        "n_expected_years": 11,
        "temporal_completeness_pct": 100.0,
        "first_year": 2016,
        "last_year": 2026,
        "first_position_m": -22.05405405405405,
        "last_position_m": 0.0,
        "nsm_m": 22.05405405405405,
        "epr_m_per_year": 2.205405405405405,
        "lrr_m_per_year": 2.205405405405405,
        "lrr_r2": 0.95,
        "lrr_reference_year": 2021.0,
        "lrr_position_at_reference_m": -11.027027027027025,
        "lrr_standard_error_m_per_year": 0.1,
        "lrr_ci95_low_m_per_year": 2.005405405405405,
        "lrr_ci95_high_m_per_year": 2.4054054054054053,
        "uncertainty_method": "student_t_95",
        "analysis_status": "ok",
        "sign_convention": "positivo=hacia el lado left de la línea base; si ese lado es tierra, positivo=retroceso y negativo=acreción"
      },
      "geometry": {
        "type": "LineString",
        "coordinates": [
          [
            -71.67397085624417,
            -33.36345104815653
          ],
          [
            -71.67304450655122,
            -33.36613476541671
          ]
        ]
      }
    },
    {
      "type": "Feature",
      "properties": {
        "transect_id": "T26",
        "chainage_m": 1411.9,
        "n_observations": 11,
        "n_expected_years": 11,
        "temporal_completeness_pct": 100.0,
        "first_year": 2016,
        "last_year": 2026,
        "first_position_m": -20.972972972972975,
        "last_position_m": 0.0,
        "nsm_m": 20.972972972972975,
        "epr_m_per_year": 2.0972972972972976,
        "lrr_m_per_year": 2.0972972972972976,
        "lrr_r2": 0.95,
        "lrr_reference_year": 2021.0,
        "lrr_position_at_reference_m": -10.486486486486488,
        "lrr_standard_error_m_per_year": 0.1,
        "lrr_ci95_low_m_per_year": 1.8972972972972977,
        "lrr_ci95_high_m_per_year": 2.297297297297298,
        "uncertainty_method": "student_t_95",
        "analysis_status": "ok",
        "sign_convention": "positivo=hacia el lado left de la línea base; si ese lado es tierra, positivo=retroceso y negativo=acreción"
      },
      "geometry": {
        "type": "LineString",
        "coordinates": [
          [
            -71.67463597576631,
            -33.36366026684016
          ],
          [
            -71.67309667536782,
            -33.366137806580305
          ]
        ]
      }
    },
    {
      "type": "Feature",
      "properties": {
        "transect_id": "T27",
        "chainage_m": 1468.4,
        "n_observations": 11,
        "n_expected_years": 11,
        "temporal_completeness_pct": 100.0,
        "first_year": 2016,
        "last_year": 2026,
        "first_position_m": -19.864864864864863,
        "last_position_m": 0.0,
        "nsm_m": 19.864864864864863,
        "epr_m_per_year": 1.9864864864864864,
        "lrr_m_per_year": 1.9864864864864864,
        "lrr_r2": 0.95,
        "lrr_reference_year": 2021.0,
        "lrr_position_at_reference_m": -9.932432432432432,
        "lrr_standard_error_m_per_year": 0.1,
        "lrr_ci95_low_m_per_year": 1.7864864864864864,
        "lrr_ci95_high_m_per_year": 2.1864864864864866,
        "uncertainty_method": "student_t_95",
        "analysis_status": "ok",
        "sign_convention": "positivo=hacia el lado left de la línea base; si ese lado es tierra, positivo=retroceso y negativo=acreción"
      },
      "geometry": {
        "type": "LineString",
        "coordinates": [
          [
            -71.6751509373903,
            -33.363854388509154
          ],
          [
            -71.6738455323446,
            -33.36642473694406
          ]
        ]
      }
    },
    {
      "type": "Feature",
      "properties": {
        "transect_id": "T28",
        "chainage_m": 1524.9,
        "n_observations": 11,
        "n_expected_years": 11,
        "temporal_completeness_pct": 100.0,
        "first_year": 2016,
        "last_year": 2026,
        "first_position_m": -18.513513513513512,
        "last_position_m": 0.0,
        "nsm_m": 18.513513513513512,
        "epr_m_per_year": 1.8513513513513513,
        "lrr_m_per_year": 1.8513513513513513,
        "lrr_r2": 0.95,
        "lrr_reference_year": 2021.0,
        "lrr_position_at_reference_m": -9.256756756756756,
        "lrr_standard_error_m_per_year": 0.1,
        "lrr_ci95_low_m_per_year": 1.6513513513513514,
        "lrr_ci95_high_m_per_year": 2.0513513513513515,
        "uncertainty_method": "student_t_95",
        "analysis_status": "ok",
        "sign_convention": "positivo=hacia el lado left de la línea base; si ese lado es tierra, positivo=retroceso y negativo=acreción"
      },
      "geometry": {
        "type": "LineString",
        "coordinates": [
          [
            -71.67568323908326,
            -33.36404425671655
          ],
          [
            -71.67454032952845,
            -33.36666853002442
          ]
        ]
      }
    },
    {
      "type": "Feature",
      "properties": {
        "transect_id": "T29",
        "chainage_m": 1581.4,
        "n_observations": 11,
        "n_expected_years": 11,
        "temporal_completeness_pct": 100.0,
        "first_year": 2016,
        "last_year": 2026,
        "first_position_m": -17.162162162162158,
        "last_position_m": 0.0,
        "nsm_m": 17.162162162162158,
        "epr_m_per_year": 1.7162162162162158,
        "lrr_m_per_year": 1.7162162162162158,
        "lrr_r2": 0.95,
        "lrr_reference_year": 2021.0,
        "lrr_position_at_reference_m": -8.581081081081079,
        "lrr_standard_error_m_per_year": 0.1,
        "lrr_ci95_low_m_per_year": 1.5162162162162158,
        "lrr_ci95_high_m_per_year": 1.9162162162162157,
        "uncertainty_method": "student_t_95",
        "analysis_status": "ok",
        "sign_convention": "positivo=hacia el lado left de la línea base; si ese lado es tierra, positivo=retroceso y negativo=acreción"
      },
      "geometry": {
        "type": "LineString",
        "coordinates": [
          [
            -71.67622470099339,
            -33.364198141731315
          ],
          [
            -71.67528761495502,
            -33.36687923116601
          ]
        ]
      }
    },
    {
      "type": "Feature",
      "properties": {
        "transect_id": "T30",
        "chainage_m": 1637.8,
        "n_observations": 11,
        "n_expected_years": 11,
        "temporal_completeness_pct": 100.0,
        "first_year": 2016,
        "last_year": 2026,
        "first_position_m": -15.81081081081081,
        "last_position_m": 0.0,
        "nsm_m": 15.81081081081081,
        "epr_m_per_year": 1.5810810810810811,
        "lrr_m_per_year": 1.5810810810810811,
        "lrr_r2": 0.95,
        "lrr_reference_year": 2021.0,
        "lrr_position_at_reference_m": -7.905405405405405,
        "lrr_standard_error_m_per_year": 0.1,
        "lrr_ci95_low_m_per_year": 1.3810810810810812,
        "lrr_ci95_high_m_per_year": 1.781081081081081,
        "uncertainty_method": "student_t_95",
        "analysis_status": "ok",
        "sign_convention": "positivo=hacia el lado left de la línea base; si ese lado es tierra, positivo=retroceso y negativo=acreción"
      },
      "geometry": {
        "type": "LineString",
        "coordinates": [
          [
            -71.67670056313169,
            -33.36421742738152
          ],
          [
            -71.67655770752975,
            -33.367008870122625
          ]
        ]
      }
    },
    {
      "type": "Feature",
      "properties": {
        "transect_id": "T31",
        "chainage_m": 1694.3,
        "n_observations": 11,
        "n_expected_years": 11,
        "temporal_completeness_pct": 100.0,
        "first_year": 2016,
        "last_year": 2026,
        "first_position_m": -14.243243243243239,
        "last_position_m": 0.0,
        "nsm_m": 14.243243243243239,
        "epr_m_per_year": 1.4243243243243238,
        "lrr_m_per_year": 1.4243243243243238,
        "lrr_r2": 0.95,
        "lrr_reference_year": 2021.0,
        "lrr_position_at_reference_m": -7.121621621621619,
        "lrr_standard_error_m_per_year": 0.1,
        "lrr_ci95_low_m_per_year": 1.2243243243243238,
        "lrr_ci95_high_m_per_year": 1.6243243243243237,
        "uncertainty_method": "student_t_95",
        "analysis_status": "ok",
        "sign_convention": "positivo=hacia el lado left de la línea base; si ese lado es tierra, positivo=retroceso y negativo=acreción"
      },
      "geometry": {
        "type": "LineString",
        "coordinates": [
          [
            -71.67736287521109,
            -33.36418869909184
          ],
          [
            -71.67683458810012,
            -33.366947324306295
          ]
        ]
      }
    },
    {
      "type": "Feature",
      "properties": {
        "transect_id": "T32",
        "chainage_m": 1750.8,
        "n_observations": 11,
        "n_expected_years": 11,
        "temporal_completeness_pct": 100.0,
        "first_year": 2016,
        "last_year": 2026,
        "first_position_m": -12.351351351351347,
        "last_position_m": 0.0,
        "nsm_m": 12.351351351351347,
        "epr_m_per_year": 1.2351351351351347,
        "lrr_m_per_year": 1.2351351351351347,
        "lrr_r2": 0.95,
        "lrr_reference_year": 2021.0,
        "lrr_position_at_reference_m": -6.175675675675674,
        "lrr_standard_error_m_per_year": 0.1,
        "lrr_ci95_low_m_per_year": 1.0351351351351348,
        "lrr_ci95_high_m_per_year": 1.4351351351351347,
        "uncertainty_method": "student_t_95",
        "analysis_status": "ok",
        "sign_convention": "positivo=hacia el lado left de la línea base; si ese lado es tierra, positivo=retroceso y negativo=acreción"
      },
      "geometry": {
        "type": "LineString",
        "coordinates": [
          [
            -71.67789104307255,
            -33.364327312910646
          ],
          [
            -71.67762257415929,
            -33.36711223001715
          ]
        ]
      }
    },
    {
      "type": "Feature",
      "properties": {
        "transect_id": "T33",
        "chainage_m": 1807.3,
        "n_observations": 11,
        "n_expected_years": 11,
        "temporal_completeness_pct": 100.0,
        "first_year": 2016,
        "last_year": 2026,
        "first_position_m": -10.459459459459456,
        "last_position_m": 0.0,
        "nsm_m": 10.459459459459456,
        "epr_m_per_year": 1.0459459459459457,
        "lrr_m_per_year": 1.0459459459459457,
        "lrr_r2": 0.95,
        "lrr_reference_year": 2021.0,
        "lrr_position_at_reference_m": -5.229729729729728,
        "lrr_standard_error_m_per_year": 0.1,
        "lrr_ci95_low_m_per_year": 0.8459459459459457,
        "lrr_ci95_high_m_per_year": 1.2459459459459457,
        "uncertainty_method": "student_t_95",
        "analysis_status": "ok",
        "sign_convention": "positivo=hacia el lado left de la línea base; si ese lado es tierra, positivo=retroceso y negativo=acreción"
      },
      "geometry": {
        "type": "LineString",
        "coordinates": [
          [
            -71.67823421388913,
            -33.364280418805585
          ],
          [
            -71.67949717519514,
            -33.366865649457885
          ]
        ]
      }
    },
    {
      "type": "Feature",
      "properties": {
        "transect_id": "T34",
        "chainage_m": 1863.7,
        "n_observations": 11,
        "n_expected_years": 11,
        "temporal_completeness_pct": 100.0,
        "first_year": 2016,
        "last_year": 2026,
        "first_position_m": -8.567567567567565,
        "last_position_m": 0.0,
        "nsm_m": 8.567567567567565,
        "epr_m_per_year": 0.8567567567567566,
        "lrr_m_per_year": 0.8567567567567566,
        "lrr_r2": 0.95,
        "lrr_reference_year": 2021.0,
        "lrr_position_at_reference_m": -4.283783783783782,
        "lrr_standard_error_m_per_year": 0.1,
        "lrr_ci95_low_m_per_year": 0.6567567567567565,
        "lrr_ci95_high_m_per_year": 1.0567567567567566,
        "uncertainty_method": "student_t_95",
        "analysis_status": "ok",
        "sign_convention": "positivo=hacia el lado left de la línea base; si ese lado es tierra, positivo=retroceso y negativo=acreción"
      },
      "geometry": {
        "type": "LineString",
        "coordinates": [
          [
            -71.67891267621404,
            -33.36412046799602
          ],
          [
            -71.67957716254801,
            -33.36685827909888
          ]
        ]
      }
    },
    {
      "type": "Feature",
      "properties": {
        "transect_id": "T35",
        "chainage_m": 1920.2,
        "n_observations": 11,
        "n_expected_years": 11,
        "temporal_completeness_pct": 100.0,
        "first_year": 2016,
        "last_year": 2026,
        "first_position_m": -6.297297297297295,
        "last_position_m": 0.0,
        "nsm_m": 6.297297297297295,
        "epr_m_per_year": 0.6297297297297295,
        "lrr_m_per_year": 0.6297297297297295,
        "lrr_r2": 0.95,
        "lrr_reference_year": 2021.0,
        "lrr_position_at_reference_m": -3.1486486486486474,
        "lrr_standard_error_m_per_year": 0.1,
        "lrr_ci95_low_m_per_year": 0.4297297297297295,
        "lrr_ci95_high_m_per_year": 0.8297297297297295,
        "uncertainty_method": "student_t_95",
        "analysis_status": "ok",
        "sign_convention": "positivo=hacia el lado left de la línea base; si ese lado es tierra, positivo=retroceso y negativo=acreción"
      },
      "geometry": {
        "type": "LineString",
        "coordinates": [
          [
            -71.67986327579086,
            -33.36440448639873
          ],
          [
            -71.67791885560507,
            -33.366672629340066
          ]
        ]
      }
    },
    {
      "type": "Feature",
      "properties": {
        "transect_id": "T36",
        "chainage_m": 1976.7,
        "n_observations": 11,
        "n_expected_years": 11,
        "temporal_completeness_pct": 100.0,
        "first_year": 2016,
        "last_year": 2026,
        "first_position_m": -3.864864864864863,
        "last_position_m": 0.0,
        "nsm_m": 3.864864864864863,
        "epr_m_per_year": 0.3864864864864863,
        "lrr_m_per_year": 0.3864864864864863,
        "lrr_r2": 0.95,
        "lrr_reference_year": 2021.0,
        "lrr_position_at_reference_m": -1.9324324324324316,
        "lrr_standard_error_m_per_year": 0.1,
        "lrr_ci95_low_m_per_year": 0.1864864864864863,
        "lrr_ci95_high_m_per_year": 0.5864864864864863,
        "uncertainty_method": "student_t_95",
        "analysis_status": "ok",
        "sign_convention": "positivo=hacia el lado left de la línea base; si ese lado es tierra, positivo=retroceso y negativo=acreción"
      },
      "geometry": {
        "type": "LineString",
        "coordinates": [
          [
            -71.6803463032938,
            -33.36466587764797
          ],
          [
            -71.67856487198593,
            -33.36702639905847
          ]
        ]
      }
    },
    {
      "type": "Feature",
      "properties": {
        "transect_id": "T37",
        "chainage_m": 2033.2,
        "n_observations": 11,
        "n_expected_years": 11,
        "temporal_completeness_pct": 100.0,
        "first_year": 2016,
        "last_year": 2026,
        "first_position_m": -1.4324324324324316,
        "last_position_m": 0.0,
        "nsm_m": 1.4324324324324316,
        "epr_m_per_year": 0.14324324324324317,
        "lrr_m_per_year": 0.14324324324324317,
        "lrr_r2": 0.95,
        "lrr_reference_year": 2021.0,
        "lrr_position_at_reference_m": -0.7162162162162158,
        "lrr_standard_error_m_per_year": 0.1,
        "lrr_ci95_low_m_per_year": -0.05675675675675684,
        "lrr_ci95_high_m_per_year": 0.3432432432432432,
        "uncertainty_method": "student_t_95",
        "analysis_status": "ok",
        "sign_convention": "positivo=hacia el lado left de la línea base; si ese lado es tierra, positivo=retroceso y negativo=acreción"
      },
      "geometry": {
        "type": "LineString",
        "coordinates": [
          [
            -71.68067636216455,
            -33.36483649464975
          ],
          [
            -71.68014344476862,
            -33.367594487643956
          ]
        ]
      }
    },
    {
      "type": "Feature",
      "properties": {
        "transect_id": "T38",
        "chainage_m": 2089.6,
        "n_observations": 11,
        "n_expected_years": 11,
        "temporal_completeness_pct": 100.0,
        "first_year": 2016,
        "last_year": 2026,
        "first_position_m": 1.0,
        "last_position_m": 0.0,
        "nsm_m": -1.0,
        "epr_m_per_year": -0.1,
        "lrr_m_per_year": -0.1,
        "lrr_r2": 0.95,
        "lrr_reference_year": 2021.0,
        "lrr_position_at_reference_m": 0.5,
        "lrr_standard_error_m_per_year": 0.1,
        "lrr_ci95_low_m_per_year": -0.30000000000000004,
        "lrr_ci95_high_m_per_year": 0.1,
        "uncertainty_method": "student_t_95",
        "analysis_status": "ok",
        "sign_convention": "positivo=hacia el lado left de la línea base; si ese lado es tierra, positivo=retroceso y negativo=acreción"
      },
      "geometry": {
        "type": "LineString",
        "coordinates": [
          [
            -71.68091585290297,
            -33.36578622681373
          ],
          [
            -71.67973445654968,
            -33.36317399395487
          ]
        ]
      }
    }
  ]
}