{
  "type": "FeatureCollection",
  "name": "shorelines_2016_2026_fes2014",
  "features": [
    {
      "type": "Feature",
      "properties": {
        "year": 2016,
        "scene_count": 1,
        "processing_level": "L2A_FES2014"
      },
      "geometry": {
        "type": "LineString",
        "coordinates": [
          [
            -71.58884120231828,
            -33.030260638643114
          ],
          [
            -71.58885755300825,
            -33.03029161875348
          ],
          [
            -71.58892930641314,
            -33.030381387249875
          ],
          [
            -71.58902747293872,
            -33.03046237757239
          ],
          [
            -71.58913240612826,
            -33.03054566046751
          ],
          [
            -71.58923733485932,
            -33.03062894052985
          ],
          [
            -71.58934226378734,
            -33.03071222049309
          ],
          [
            -71.58937406071323,
            -33.030688666862574
          ],
          [
            -71.58959037297089,
            -33.03068278049648
          ],
          [
            -71.58971746339888,
            -33.030740113757034
          ],
          [
            -71.58984455412218,
            -33.030797447178664
          ],
          [
            -71.58997237832551,
            -33.03085515771151
          ],
          [
            -71.5900956223218,
            -33.030911764347195
          ],
          [
            -71.59022319034392,
            -33.030968179945205
          ],
          [
            -71.59035075852228,
            -33.031024595404126
          ],
          [
            -71.5904203583476,
            -33.03106490402599
          ],
          [
            -71.59060617885868,
            -33.031080047995616
          ],
          [
            -71.59073211641031,
            -33.03113900590346
          ],
          [
            -71.59085800605912,
            -33.03119793057933
          ],
          [
            -71.59104271744005,
            -33.031322580686975
          ],
          [
            -71.5910529797495,
            -33.03137083175231
          ],
          [
            -71.59116224213318,
            -33.031418650586055
          ],
          [
            -71.59137237644524,
            -33.03155960740458
          ],
          [
            -71.59135674880147,
            -33.03176566381956
          ],
          [
            -71.59132220547635,
            -33.031757380591046
          ],
          [
            -71.59137317769766,
            -33.03175713919118
          ],
          [
            -71.59155475799884,
            -33.03184159181107
          ],
          [
            -71.5916339091053,
            -33.03190944005646
          ],
          [
            -71.59174579674158,
            -33.031967201817906
          ],
          [
            -71.59167169258363,
            -33.03201729792361
          ],
          [
            -71.59202235414406,
            -33.03209300145353
          ],
          [
            -71.5920031624669,
            -33.03236039942344
          ],
          [
            -71.59196635236174,
            -33.03220168695199
          ],
          [
            -71.59210001337674,
            -33.03224700460672
          ],
          [
            -71.59224178352066,
            -33.032298141306235
          ],
          [
            -71.59241492752118,
            -33.032382872893166
          ],
          [
            -71.59249269715635,
            -33.03257362895312
          ],
          [
            -71.59255334529229,
            -33.032559396475826
          ],
          [
            -71.59255879208266,
            -33.032635839254475
          ],
          [
            -71.59269173131054,
            -33.03268308108326
          ],
          [
            -71.59282467067237,
            -33.03273032276289
          ],
          [
            -71.59295761016823,
            -33.032777564293355
          ],
          [
            -71.59297158885367,
            -33.032810831458605
          ],
          [
            -71.59317817046963,
            -33.03277860833786
          ],
          [
            -71.59331334035699,
            -33.03282662710866
          ],
          [
            -71.59332674837266,
            -33.03294898285468
          ],
          [
            -71.59343235240361,
            -33.03298352754014
          ],
          [
            -71.59356362278302,
            -33.0330315713133
          ],
          [
            -71.59369701651785,
            -33.033077698711416
          ],
          [
            -71.59383049514122,
            -33.0331238499414
          ],
          [
            -71.593963984056,
            -33.03317015830272
          ],
          [
            -71.59409232737721,
            -33.033215922383036
          ],
          [
            -71.59415723080423,
            -33.033159883063696
          ],
          [
            -71.5941646946805,
            -33.03323373564774
          ],
          [
            -71.59426202815261,
            -33.03329097922244
          ],
          [
            -71.59439666612025,
            -33.03333608555646
          ],
          [
            -71.59453145780019,
            -33.03337944532902
          ]
        ]
      }
    },
    {
      "type": "Feature",
      "properties": {
        "year": 2017,
        "scene_count": 1,
        "processing_level": "L2A_FES2014"
      },
      "geometry": {
        "type": "LineString",
        "coordinates": [
          [
            -71.58884107208635,
            -33.03025703477881
          ],
          [
            -71.58885287163248,
            -33.03029320210723
          ],
          [
            -71.58892468541377,
            -33.030384352377176
          ],
          [
            -71.58902271822099,
            -33.03046620091152
          ],
          [
            -71.58912709810829,
            -33.03054992800707
          ],
          [
            -71.58923147392129,
            -33.03063365260964
          ],
          [
            -71.5893358499314,
            -33.03071737711403
          ],
          [
            -71.58937699592127,
            -33.030696393354916
          ],
          [
            -71.58958498641715,
            -33.0306902694861
          ],
          [
            -71.58971168078355,
            -33.03074815341309
          ],
          [
            -71.58983837542067,
            -33.03080603748877
          ],
          [
            -71.5899657302001,
            -33.03086426096091
          ],
          [
            -71.59008897651243,
            -33.0309214682846
          ],
          [
            -71.59021625808835,
            -33.03097830216228
          ],
          [
            -71.5903435398214,
            -33.031035135901405
          ],
          [
            -71.59041865004683,
            -33.03107747347221
          ],
          [
            -71.59059806785783,
            -33.03109126553959
          ],
          [
            -71.59072370722293,
            -33.03115063586497
          ],
          [
            -71.5908493039375,
            -33.03120997565207
          ],
          [
            -71.59102713663898,
            -33.031328938072946
          ],
          [
            -71.5910423897566,
            -33.031382972977845
          ],
          [
            -71.59115311522444,
            -33.031432165810344
          ],
          [
            -71.59135450370697,
            -33.03156511780236
          ],
          [
            -71.59133763186608,
            -33.031762462808025
          ],
          [
            -71.59130573456679,
            -33.0317667472988
          ],
          [
            -71.59136401129975,
            -33.03177235399377
          ],
          [
            -71.59154010579735,
            -33.03185383388184
          ],
          [
            -71.59162130739927,
            -33.03192361101932
          ],
          [
            -71.59173403334961,
            -33.03198226210624
          ],
          [
            -71.59167926732238,
            -33.03203364135429
          ],
          [
            -71.59200481200419,
            -33.0321015317325
          ],
          [
            -71.59198523294808,
            -33.03235356036189
          ],
          [
            -71.59195992808361,
            -33.03221684614705
          ],
          [
            -71.59209378184701,
            -33.03226170903158
          ],
          [
            -71.59223486240292,
            -33.03231196372179
          ],
          [
            -71.59240360197067,
            -33.032393386613
          ],
          [
            -71.59247694567027,
            -33.0325754469262
          ],
          [
            -71.59254317107258,
            -33.03256861548298
          ],
          [
            -71.59255422030131,
            -33.032646974499805
          ],
          [
            -71.5926874718234,
            -33.03269345572822
          ],
          [
            -71.59282072347737,
            -33.032739936806905
          ],
          [
            -71.5929539752633,
            -33.032786417735885
          ],
          [
            -71.59297882755408,
            -33.03281684386798
          ],
          [
            -71.59317515370283,
            -33.0327859386981
          ],
          [
            -71.59331040937641,
            -33.03283312757493
          ],
          [
            -71.59332161360355,
            -33.032953353157495
          ],
          [
            -71.59343020145126,
            -33.03298855492731
          ],
          [
            -71.59356190261451,
            -33.03303587293451
          ],
          [
            -71.59369560832155,
            -33.03308123960809
          ],
          [
            -71.59382939043931,
            -33.03312662771477
          ],
          [
            -71.59396317628942,
            -33.033172171093646
          ],
          [
            -71.59409232406334,
            -33.03321724225849
          ],
          [
            -71.59415709641021,
            -33.03316038554421
          ],
          [
            -71.594164900558,
            -33.03323396774696
          ],
          [
            -71.59426245803316,
            -33.033289946320174
          ],
          [
            -71.59439732932509,
            -33.03333427023039
          ],
          [
            -71.5945324020204,
            -33.033376860796146
          ]
        ]
      }
    },
    {
      "type": "Feature",
      "properties": {
        "year": 2018,
        "scene_count": 1,
        "processing_level": "L2A_FES2014"
      },
      "geometry": {
        "type": "LineString",
        "coordinates": [
          [
            -71.58884094185444,
            -33.03025343091451
          ],
          [
            -71.58884819025651,
            -33.0302947854608
          ],
          [
            -71.5889200644141,
            -33.03038731750432
          ],
          [
            -71.58901796350283,
            -33.030470024250505
          ],
          [
            -71.5891217900878,
            -33.03055419554641
          ],
          [
            -71.58922561298264,
            -33.030638364689175
          ],
          [
            -71.5893294360747,
            -33.03072253373467
          ],
          [
            -71.58937993112987,
            -33.03070411984715
          ],
          [
            -71.58957959986252,
            -33.030697758475526
          ],
          [
            -71.58970589816718,
            -33.030756193068946
          ],
          [
            -71.58983219671799,
            -33.03081462779862
          ],
          [
            -71.58995908207338,
            -33.03087336421001
          ],
          [
            -71.59008233070166,
            -33.0309311722217
          ],
          [
            -71.59020932583125,
            -33.03098842437901
          ],
          [
            -71.59033632111888,
            -33.031045676398335
          ],
          [
            -71.59041694174569,
            -33.0310900429184
          ],
          [
            -71.59058995685497,
            -33.03110248308311
          ],
          [
            -71.59071529803342,
            -33.03116226582602
          ],
          [
            -71.59084060181361,
            -33.03122202072428
          ],
          [
            -71.59101155583556,
            -33.031335295457055
          ],
          [
            -71.59103179976083,
            -33.03139511420262
          ],
          [
            -71.591143988313,
            -33.03144568103407
          ],
          [
            -71.5913366309663,
            -33.031570628197684
          ],
          [
            -71.5913185149319,
            -33.03175926179347
          ],
          [
            -71.59128926365364,
            -33.03177611400453
          ],
          [
            -71.5913548448988,
            -33.03178756879583
          ],
          [
            -71.5915254535918,
            -33.03186607595105
          ],
          [
            -71.59160870568924,
            -33.03193778198109
          ],
          [
            -71.59172226995372,
            -33.03199732239362
          ],
          [
            -71.59168684206409,
            -33.032049984784315
          ],
          [
            -71.59198726986084,
            -33.03211006200914
          ],
          [
            -71.59196730343189,
            -33.0323467212976
          ],
          [
            -71.59195350380344,
            -33.03223200534187
          ],
          [
            -71.59208755031536,
            -33.0322764134562
          ],
          [
            -71.59222794128313,
            -33.032325786137044
          ],
          [
            -71.59239227641748,
            -33.0324039003319
          ],
          [
            -71.59246119418341,
            -33.03257726489733
          ],
          [
            -71.59253299685075,
            -33.03257783448937
          ],
          [
            -71.5925496485189,
            -33.03265810974499
          ],
          [
            -71.59268321233532,
            -33.03270383037305
          ],
          [
            -71.59281677628157,
            -33.032749550850845
          ],
          [
            -71.5929503403577,
            -33.03279527117833
          ],
          [
            -71.59298606625546,
            -33.032822856276866
          ],
          [
            -71.59317213693558,
            -33.03279326905828
          ],
          [
            -71.59330747839546,
            -33.03283962804114
          ],
          [
            -71.59331647883393,
            -33.032957723460136
          ],
          [
            -71.59342805049866,
            -33.03299358231443
          ],
          [
            -71.59356018244583,
            -33.03304017455571
          ],
          [
            -71.59369420012516,
            -33.03308478050473
          ],
          [
            -71.59382828573735,
            -33.03312940548813
          ],
          [
            -71.59396236852281,
            -33.03317418388458
          ],
          [
            -71.59409232074948,
            -33.03321856213392
          ],
          [
            -71.59415696201619,
            -33.03316088802471
          ],
          [
            -71.59416510643551,
            -33.033234199846184
          ],
          [
            -71.59426288791371,
            -33.033288913417906
          ],
          [
            -71.59439799252993,
            -33.03333245490431
          ],
          [
            -71.59453334624057,
            -33.03337427626327
          ]
        ]
      }
    },
    {
      "type": "Feature",
      "properties": {
        "year": 2019,
        "scene_count": 1,
        "processing_level": "L2A_FES2014"
      },
      "geometry": {
        "type": "LineString",
        "coordinates": [
          [
            -71.58884081162257,
            -33.0302498270502
          ],
          [
            -71.58884350888039,
            -33.03029636881422
          ],
          [
            -71.58891544341411,
            -33.0303902826313
          ],
          [
            -71.58901320878425,
            -33.03047384758932
          ],
          [
            -71.58911648206681,
            -33.03055846308556
          ],
          [
            -71.58921975204336,
            -33.03064307676848
          ],
          [
            -71.58932302221724,
            -33.030727690355015
          ],
          [
            -71.58938286633901,
            -33.03071184633929
          ],
          [
            -71.589574213307,
            -33.030705247464766
          ],
          [
            -71.58970011554982,
            -33.03076423272456
          ],
          [
            -71.58982601801415,
            -33.03082321810822
          ],
          [
            -71.58995243394531,
            -33.0308824674588
          ],
          [
            -71.59007568488948,
            -33.030940876158496
          ],
          [
            -71.59020239357261,
            -33.03099854659544
          ],
          [
            -71.59032910241469,
            -33.03105621689491
          ],
          [
            -71.5904152334442,
            -33.031102612364585
          ],
          [
            -71.59058184585011,
            -33.03111370062619
          ],
          [
            -71.59070688884177,
            -33.03117389578658
          ],
          [
            -71.5908318996874,
            -33.03123406579599
          ],
          [
            -71.59099597502983,
            -33.03134165283933
          ],
          [
            -71.5910212097622,
            -33.03140725542662
          ],
          [
            -71.59113486139887,
            -33.03145919625724
          ],
          [
            -71.59131875822327,
            -33.03157613859056
          ],
          [
            -71.5912993979989,
            -33.03175606077591
          ],
          [
            -71.59127279273692,
            -33.03178548070825
          ],
          [
            -71.59134567849485,
            -33.031802783597314
          ],
          [
            -71.59151080138219,
            -33.03187831801873
          ],
          [
            -71.59159610397526,
            -33.03195195294177
          ],
          [
            -71.59171050655394,
            -33.03201238268007
          ],
          [
            -71.59169441680878,
            -33.03206632821372
          ],
          [
            -71.59196972771397,
            -33.03211859228346
          ],
          [
            -71.59194937391831,
            -33.03233988223059
          ],
          [
            -71.59194707952123,
            -33.032247164536415
          ],
          [
            -71.5920813187818,
            -33.03229111788059
          ],
          [
            -71.59222102016129,
            -33.032339608551986
          ],
          [
            -71.59238095086161,
            -33.03241441404991
          ],
          [
            -71.59244544269578,
            -33.0325790828665
          ],
          [
            -71.59252282262682,
            -33.03258705349506
          ],
          [
            -71.5925450767354,
            -33.032669244990046
          ],
          [
            -71.59267895284633,
            -33.032714205017776
          ],
          [
            -71.59281282908498,
            -33.03275916489466
          ],
          [
            -71.59294670545144,
            -33.03280412462071
          ],
          [
            -71.59299330495783,
            -33.032828868685286
          ],
          [
            -71.59316912016786,
            -33.03280059941841
          ],
          [
            -71.59330454741408,
            -33.03284612850729
          ],
          [
            -71.59331134406379,
            -33.03296209376258
          ],
          [
            -71.59342589954585,
            -33.03299860970153
          ],
          [
            -71.593558462277,
            -33.03304447617688
          ],
          [
            -71.59369279192866,
            -33.033088321401365
          ],
          [
            -71.59382718103531,
            -33.033132183261486
          ],
          [
            -71.59396156075617,
            -33.03317619667552
          ],
          [
            -71.59409231743561,
            -33.03321988200937
          ],
          [
            -71.59415682762217,
            -33.03316139050523
          ],
          [
            -71.59416531231301,
            -33.033234431945395
          ],
          [
            -71.59426331779426,
            -33.03328788051564
          ],
          [
            -71.59439865573472,
            -33.03333063957824
          ],
          [
            -71.59453429046067,
            -33.03337169173038
          ]
        ]
      }
    },
    {
      "type": "Feature",
      "properties": {
        "year": 2020,
        "scene_count": 1,
        "processing_level": "L2A_FES2014"
      },
      "geometry": {
        "type": "LineString",
        "coordinates": [
          [
            -71.58884068139072,
            -33.030246223185884
          ],
          [
            -71.58883882750406,
            -33.03029795216746
          ],
          [
            -71.58891082241381,
            -33.03039324775814
          ],
          [
            -71.58900845406528,
            -33.03047767092797
          ],
          [
            -71.5891111740453,
            -33.0305627306245
          ],
          [
            -71.58921389110347,
            -33.03064778884751
          ],
          [
            -71.58931660835906,
            -33.03073284697505
          ],
          [
            -71.58938580154872,
            -33.03071957283132
          ],
          [
            -71.5895688267506,
            -33.03071273645379
          ],
          [
            -71.58969433293142,
            -33.030772272379956
          ],
          [
            -71.58981983930916,
            -33.03083180841754
          ],
          [
            -71.58994578581591,
            -33.030891570707304
          ],
          [
            -71.5900690390759,
            -33.030950580095
          ],
          [
            -71.59019546131243,
            -33.031008668811545
          ],
          [
            -71.59032188370884,
            -33.03106675739114
          ],
          [
            -71.59041352514234,
            -33.03111518181075
          ],
          [
            -71.59057373484326,
            -33.03112491816881
          ],
          [
            -71.59069847964795,
            -33.03118552574668
          ],
          [
            -71.59082319755889,
            -33.03124611086718
          ],
          [
            -71.59098039422172,
            -33.03134801021978
          ],
          [
            -71.59101061976072,
            -33.03141939664983
          ],
          [
            -71.59112573448205,
            -33.03147271147985
          ],
          [
            -71.59130088547785,
            -33.03158164898097
          ],
          [
            -71.59128028106707,
            -33.031752859755365
          ],
          [
            -71.59125632181664,
            -33.03179484740995
          ],
          [
            -71.59133651208786,
            -33.03181799839825
          ],
          [
            -71.59149614916852,
            -33.03189056008486
          ],
          [
            -71.59158350225731,
            -33.03196612390132
          ],
          [
            -71.59169874315025,
            -33.03202744296558
          ],
          [
            -71.59170199155645,
            -33.032082671642485
          ],
          [
            -71.5919521855636,
            -33.032127122555494
          ],
          [
            -71.59193144440738,
            -33.03233304316085
          ],
          [
            -71.59194065523697,
            -33.032262323730706
          ],
          [
            -71.59207508724629,
            -33.03230582230472
          ],
          [
            -71.5922140990374,
            -33.03235343096662
          ],
          [
            -71.59236962530306,
            -33.03242492776698
          ],
          [
            -71.59242969120737,
            -33.0325809008337
          ],
          [
            -71.59251264840077,
            -33.03259627249998
          ],
          [
            -71.59254050495086,
            -33.03268038023498
          ],
          [
            -71.5926746933564,
            -33.032724579662386
          ],
          [
            -71.59280888188759,
            -33.03276877893838
          ],
          [
            -71.59294307054451,
            -33.03281297806299
          ],
          [
            -71.59300054366119,
            -33.03283488109324
          ],
          [
            -71.59316610339968,
            -33.032807929778485
          ],
          [
            -71.59330161643231,
            -33.0328526289734
          ],
          [
            -71.59330620929316,
            -33.03296646406485
          ],
          [
            -71.59342374859281,
            -33.033003637088605
          ],
          [
            -71.59355674210802,
            -33.03304877779804
          ],
          [
            -71.59369138373204,
            -33.033091862297994
          ],
          [
            -71.5938260763332,
            -33.03313496103484
          ],
          [
            -71.59396075298949,
            -33.03317820946645
          ],
          [
            -71.59409231412175,
            -33.03322120188482
          ],
          [
            -71.59415669322813,
            -33.03316189298574
          ],
          [
            -71.59416551819052,
            -33.03323466404462
          ],
          [
            -71.59426374767479,
            -33.03328684761337
          ],
          [
            -71.5943993189395,
            -33.03332882425215
          ],
          [
            -71.59453523468072,
            -33.03336910719748
          ]
        ]
      }
    },
    {
      "type": "Feature",
      "properties": {
        "year": 2021,
        "scene_count": 1,
        "processing_level": "L2A_FES2014"
      },
      "geometry": {
        "type": "LineString",
        "coordinates": [
          [
            -71.58884055115887,
            -33.03024261932159
          ],
          [
            -71.58883414612758,
            -33.03029953552055
          ],
          [
            -71.58890620141321,
            -33.03039621288482
          ],
          [
            -71.58900369934588,
            -33.03048149426647
          ],
          [
            -71.58910586602329,
            -33.03056699816324
          ],
          [
            -71.58920803016292,
            -33.030652500926294
          ],
          [
            -71.58931019450011,
            -33.0307380035948
          ],
          [
            -71.58938873675898,
            -33.03072729932327
          ],
          [
            -71.5895634401933,
            -33.030720225442636
          ],
          [
            -71.58968855031202,
            -33.03078031203512
          ],
          [
            -71.58981366060299,
            -33.03084039872661
          ],
          [
            -71.58993913768519,
            -33.03090067395551
          ],
          [
            -71.5900623932609,
            -33.03096028403123
          ],
          [
            -71.59018852905072,
            -33.03101879102733
          ],
          [
            -71.59031466500132,
            -33.03107729788702
          ],
          [
            -71.59041181684013,
            -33.03112775125688
          ],
          [
            -71.59056562383442,
            -33.031136135711
          ],
          [
            -71.59069007045198,
            -33.03119715570629
          ],
          [
            -71.59081449542808,
            -33.03125815593788
          ],
          [
            -71.59096481341128,
            -33.03135436759835
          ],
          [
            -71.59100002975639,
            -33.03143153787227
          ],
          [
            -71.59111660756253,
            -33.03148622670189
          ],
          [
            -71.59128301273005,
            -33.03158715936892
          ],
          [
            -71.59126116413645,
            -33.03174965873182
          ],
          [
            -71.59123985089278,
            -33.03180421410963
          ],
          [
            -71.59132734567787,
            -33.031833213198645
          ],
          [
            -71.59148149695079,
            -33.03190280214944
          ],
          [
            -71.59157090053539,
            -33.03198029485977
          ],
          [
            -71.59168697974265,
            -33.032042503250125
          ],
          [
            -71.5917095663071,
            -33.03209901507061
          ],
          [
            -71.59193464340974,
            -33.03213565282519
          ],
          [
            -71.59191351489908,
            -33.032326204088406
          ],
          [
            -71.59193423095066,
            -33.03227748292475
          ],
          [
            -71.59206885570886,
            -33.032320526728626
          ],
          [
            -71.5922071779115,
            -33.03236725338096
          ],
          [
            -71.59235829974185,
            -33.03243544148316
          ],
          [
            -71.59241393971816,
            -33.03258271879894
          ],
          [
            -71.5925024741726,
            -33.03260549150417
          ],
          [
            -71.59253593316524,
            -33.03269151547977
          ],
          [
            -71.59267043386555,
            -33.03273495430689
          ],
          [
            -71.59280493468943,
            -33.03277839298203
          ],
          [
            -71.5929394356369,
            -33.032821831505196
          ],
          [
            -71.59300778236552,
            -33.0328408935007
          ],
          [
            -71.59316308663104,
            -33.03281526013849
          ],
          [
            -71.59329868545014,
            -33.03285912943946
          ],
          [
            -71.59330107452202,
            -33.03297083436691
          ],
          [
            -71.59342159763955,
            -33.03300866447566
          ],
          [
            -71.59355502193888,
            -33.033053079419176
          ],
          [
            -71.59368997553533,
            -33.03309540319462
          ],
          [
            -71.59382497163104,
            -33.03313773880817
          ],
          [
            -71.59395994522276,
            -33.03318022225738
          ],
          [
            -71.59409231080788,
            -33.03322252176026
          ],
          [
            -71.59415655883411,
            -33.03316239546623
          ],
          [
            -71.59416572406802,
            -33.033234896143846
          ],
          [
            -71.59426417755529,
            -33.0332858147111
          ],
          [
            -71.59439998214424,
            -33.03332700892605
          ],
          [
            -71.59453617890073,
            -33.03336652266458
          ]
        ]
      }
    },
    {
      "type": "Feature",
      "properties": {
        "year": 2022,
        "scene_count": 1,
        "processing_level": "L2A_FES2014"
      },
      "geometry": {
        "type": "LineString",
        "coordinates": [
          [
            -71.58884042092706,
            -33.03023901545726
          ],
          [
            -71.5888294647509,
            -33.03030111887347
          ],
          [
            -71.58890158041227,
            -33.03039917801133
          ],
          [
            -71.58899894462608,
            -33.0304853176048
          ],
          [
            -71.58910055800074,
            -33.03057126570177
          ],
          [
            -71.58920216922178,
            -33.030657213004844
          ],
          [
            -71.58930378064042,
            -33.030743160214264
          ],
          [
            -71.58939167196979,
            -33.03073502581508
          ],
          [
            -71.58955805363513,
            -33.030727714431286
          ],
          [
            -71.58968276769158,
            -33.03078835169005
          ],
          [
            -71.58980748189565,
            -33.03084898903543
          ],
          [
            -71.58993248955315,
            -33.0309097772034
          ],
          [
            -71.59005574744448,
            -33.03096998796713
          ],
          [
            -71.59018159678749,
            -33.031028913242764
          ],
          [
            -71.59030744629214,
            -33.031087838382554
          ],
          [
            -71.59041010853754,
            -33.03114032070299
          ],
          [
            -71.59055751282358,
            -33.03114735325274
          ],
          [
            -71.5906816612539,
            -33.03120878566541
          ],
          [
            -71.59080579329496,
            -33.03127020100804
          ],
          [
            -71.59094923259849,
            -33.031360724975094
          ],
          [
            -71.59098943974921,
            -33.03144367909394
          ],
          [
            -71.59110748064032,
            -33.03149974192339
          ],
          [
            -71.59126513997987,
            -33.03159266975442
          ],
          [
            -71.59124204720703,
            -33.03174645770525
          ],
          [
            -71.59122337996534,
            -33.031813580807295
          ],
          [
            -71.59131817926485,
            -33.03184842799847
          ],
          [
            -71.59146684472901,
            -33.03191504421249
          ],
          [
            -71.59155829880947,
            -33.03199446581713
          ],
          [
            -71.59167521633114,
            -33.03205756353373
          ],
          [
            -71.59171714106073,
            -33.03211535849811
          ],
          [
            -71.59191710125238,
            -33.03214418309259
          ],
          [
            -71.5918955853934,
            -33.032319365013215
          ],
          [
            -71.59192780666231,
            -33.03229264211853
          ],
          [
            -71.59206262416951,
            -33.03233523115229
          ],
          [
            -71.59220025678354,
            -33.03238107579499
          ],
          [
            -71.59234697417794,
            -33.03244595519841
          ],
          [
            -71.59239818822817,
            -33.03258453676222
          ],
          [
            -71.59249229994234,
            -33.032614710507616
          ],
          [
            -71.59253136137856,
            -33.032702650724445
          ],
          [
            -71.59266617437378,
            -33.03274532895128
          ],
          [
            -71.59280098749045,
            -33.03278800702557
          ],
          [
            -71.5929358007286,
            -33.03283068494732
          ],
          [
            -71.59301502107084,
            -33.032846905907704
          ],
          [
            -71.59316006986192,
            -33.03282259049844
          ],
          [
            -71.59329575446758,
            -33.03286562990546
          ],
          [
            -71.59329593975038,
            -33.03297520466879
          ],
          [
            -71.59341944668606,
            -33.03301369186268
          ],
          [
            -71.59355330176959,
            -33.0330573810403
          ],
          [
            -71.59368856733852,
            -33.03309894409122
          ],
          [
            -71.59382386692882,
            -33.033140516581504
          ],
          [
            -71.59395913745603,
            -33.033182235048294
          ],
          [
            -71.59409230749402,
            -33.0332238416357
          ],
          [
            -71.59415642444009,
            -33.03316289794674
          ],
          [
            -71.59416592994553,
            -33.03323512824306
          ],
          [
            -71.5942646074358,
            -33.03328478180883
          ],
          [
            -71.59440064534898,
            -33.03332519359996
          ],
          [
            -71.59453712312069,
            -33.03336393813167
          ]
        ]
      }
    },
    {
      "type": "Feature",
      "properties": {
        "year": 2023,
        "scene_count": 1,
        "processing_level": "L2A_FES2014"
      },
      "geometry": {
        "type": "LineString",
        "coordinates": [
          [
            -71.58884029069526,
            -33.03023541159297
          ],
          [
            -71.58882478337406,
            -33.0303027022262
          ],
          [
            -71.58889695941102,
            -33.03040214313769
          ],
          [
            -71.58899418990586,
            -33.030489140942954
          ],
          [
            -71.58909524997769,
            -33.03057553324012
          ],
          [
            -71.58919630828,
            -33.030661925083145
          ],
          [
            -71.58929736677997,
            -33.030748316833424
          ],
          [
            -71.58939460718116,
            -33.03074275230682
          ],
          [
            -71.58955266707608,
            -33.03073520341975
          ],
          [
            -71.58967698507013,
            -33.030796391344765
          ],
          [
            -71.58980130318716,
            -33.03085757934399
          ],
          [
            -71.58992584141977,
            -33.030918880451004
          ],
          [
            -71.59004910162666,
            -33.03097969190276
          ],
          [
            -71.5901746645227,
            -33.031039035457916
          ],
          [
            -71.5903002275813,
            -33.03109837887773
          ],
          [
            -71.59040840023458,
            -33.03115289014907
          ],
          [
            -71.59054940181075,
            -33.03115857079404
          ],
          [
            -71.59067325205366,
            -33.03122041562407
          ],
          [
            -71.59079709115957,
            -33.031282246077716
          ],
          [
            -71.59093365178336,
            -33.03136708234999
          ],
          [
            -71.59097884973916,
            -33.03145582031481
          ],
          [
            -71.59109835371542,
            -33.03151325714433
          ],
          [
            -71.5912472672273,
            -33.03159818013744
          ],
          [
            -71.59122293027878,
            -33.031743256675696
          ],
          [
            -71.59120690903434,
            -33.031822947502945
          ],
          [
            -71.5913090128488,
            -33.03186364279775
          ],
          [
            -71.59145219250316,
            -33.031927286273984
          ],
          [
            -71.59154569707961,
            -33.032008636773355
          ],
          [
            -71.59166345291572,
            -33.03207262381639
          ],
          [
            -71.59172471581732,
            -33.032131701924946
          ],
          [
            -71.59189955909152,
            -33.03215271335768
          ],
          [
            -71.59187765589037,
            -33.032312525935325
          ],
          [
            -71.59192138237192,
            -33.03230780131206
          ],
          [
            -71.59205639262824,
            -33.0323499355757
          ],
          [
            -71.59219333565353,
            -33.03239489820871
          ],
          [
            -71.59233564861137,
            -33.03245646891274
          ],
          [
            -71.5923824367374,
            -33.032586354723556
          ],
          [
            -71.59248212570995,
            -33.03262392951034
          ],
          [
            -71.5925267895908,
            -33.03271378596899
          ],
          [
            -71.59266191488108,
            -33.032755703595555
          ],
          [
            -71.59279704029069,
            -33.032797621069015
          ],
          [
            -71.59293216581965,
            -33.03283953838937
          ],
          [
            -71.59302225977714,
            -33.03285291831422
          ],
          [
            -71.59315705309236,
            -33.03282992085834
          ],
          [
            -71.59329282348459,
            -33.0328721303714
          ],
          [
            -71.59329080497822,
            -33.03297957497047
          ],
          [
            -71.59341729573232,
            -33.033018719249654
          ],
          [
            -71.59355158160014,
            -33.0330616826614
          ],
          [
            -71.59368715914158,
            -33.03310248498781
          ],
          [
            -71.59382276222652,
            -33.03314329435483
          ],
          [
            -71.59395832968924,
            -33.033184247839216
          ],
          [
            -71.59409230418017,
            -33.03322516151114
          ],
          [
            -71.59415629004606,
            -33.03316340042726
          ],
          [
            -71.59416613582304,
            -33.033235360342275
          ],
          [
            -71.5942650373163,
            -33.03328374890654
          ],
          [
            -71.59440130855367,
            -33.03332337827387
          ],
          [
            -71.5945380673406,
            -33.03336135359877
          ]
        ]
      }
    },
    {
      "type": "Feature",
      "properties": {
        "year": 2024,
        "scene_count": 1,
        "processing_level": "L2A_FES2014"
      },
      "geometry": {
        "type": "LineString",
        "coordinates": [
          [
            -71.58884016046348,
            -33.03023180772864
          ],
          [
            -71.58882010199703,
            -33.03030428557878
          ],
          [
            -71.58889233840947,
            -33.0304051082639
          ],
          [
            -71.58898943518523,
            -33.03049296428096
          ],
          [
            -71.58908994195413,
            -33.03057980077824
          ],
          [
            -71.58919044733759,
            -33.03066663716119
          ],
          [
            -71.58929095291876,
            -33.03075347345227
          ],
          [
            -71.58939754239309,
            -33.03075047879843
          ],
          [
            -71.58954728051613,
            -33.03074269240799
          ],
          [
            -71.58967120244765,
            -33.03080443099925
          ],
          [
            -71.5897951244775,
            -33.03086616965229
          ],
          [
            -71.58991919328507,
            -33.0309279836983
          ],
          [
            -71.59004245580743,
            -33.030989395838084
          ],
          [
            -71.5901677322564,
            -33.03104915767273
          ],
          [
            -71.5902930088688,
            -33.03110891937256
          ],
          [
            -71.59040669193128,
            -33.03116545959514
          ],
          [
            -71.59054129079591,
            -33.03116978833489
          ],
          [
            -71.59066484285125,
            -33.03123204558226
          ],
          [
            -71.59078838902187,
            -33.03129429114686
          ],
          [
            -71.59091807096588,
            -33.03137343972306
          ],
          [
            -71.59096825972627,
            -33.031467961534915
          ],
          [
            -71.59108922678783,
            -33.03152677236471
          ],
          [
            -71.59122939447234,
            -33.031603690518025
          ],
          [
            -71.59120381335173,
            -33.03174005564315
          ],
          [
            -71.59119043809977,
            -33.03183231419657
          ],
          [
            -71.59129984642975,
            -33.03187885759649
          ],
          [
            -71.59143754027325,
            -33.031939528333936
          ],
          [
            -71.59153309534578,
            -33.03202280772851
          ],
          [
            -71.5916516894964,
            -33.032087684098116
          ],
          [
            -71.59173229057691,
            -33.03214804535117
          ],
          [
            -71.59188201692716,
            -33.032161243620436
          ],
          [
            -71.59185972638996,
            -33.0323056868547
          ],
          [
            -71.59191495807947,
            -33.03232296050532
          ],
          [
            -71.59205016108504,
            -33.03236463999889
          ],
          [
            -71.5921864145215,
            -33.03240872062212
          ],
          [
            -71.5923243230421,
            -33.0324669826262
          ],
          [
            -71.59236668524584,
            -33.032588172682935
          ],
          [
            -71.59247195147546,
            -33.0326331485123
          ],
          [
            -71.59252221780199,
            -33.0327249212134
          ],
          [
            -71.59265765538746,
            -33.03276607823972
          ],
          [
            -71.59279309309012,
            -33.032807235112365
          ],
          [
            -71.59292853091,
            -33.03284839183133
          ],
          [
            -71.59302949848444,
            -33.03285893072027
          ],
          [
            -71.59315403632232,
            -33.0328372512182
          ],
          [
            -71.5932898925012,
            -33.03287863083729
          ],
          [
            -71.59328567020555,
            -33.03298394527197
          ],
          [
            -71.59341514477838,
            -33.03302374663661
          ],
          [
            -71.59354986143055,
            -33.03306598428249
          ],
          [
            -71.59368575094456,
            -33.033106025884386
          ],
          [
            -71.59382165752417,
            -33.03314607212816
          ],
          [
            -71.59395752192242,
            -33.03318626063013
          ],
          [
            -71.59409230086631,
            -33.0332264813866
          ],
          [
            -71.59415615565203,
            -33.03316390290776
          ],
          [
            -71.59416634170054,
            -33.03323559244149
          ],
          [
            -71.59426546719679,
            -33.03328271600427
          ],
          [
            -71.59440197175834,
            -33.03332156294778
          ],
          [
            -71.59453901156044,
            -33.03335876906585
          ]
        ]
      }
    },
    {
      "type": "Feature",
      "properties": {
        "year": 2025,
        "scene_count": 1,
        "processing_level": "L2A_FES2014"
      },
      "geometry": {
        "type": "LineString",
        "coordinates": [
          [
            -71.58884003023172,
            -33.030228203864326
          ],
          [
            -71.58881542061984,
            -33.03030586893117
          ],
          [
            -71.58888771740759,
            -33.030408073389935
          ],
          [
            -71.58898468046418,
            -33.030496787618794
          ],
          [
            -71.58908463393004,
            -33.03058406831616
          ],
          [
            -71.58918458639455,
            -33.03067134923899
          ],
          [
            -71.58928453905682,
            -33.030758630070835
          ],
          [
            -71.58940047760555,
            -33.030758205289956
          ],
          [
            -71.5895418939553,
            -33.03075018139605
          ],
          [
            -71.58966541982416,
            -33.030812470653515
          ],
          [
            -71.58978894576667,
            -33.030874759960334
          ],
          [
            -71.58991254514903,
            -33.03093708694532
          ],
          [
            -71.5900358099868,
            -33.03099909977312
          ],
          [
            -71.59016079998857,
            -33.03105927988722
          ],
          [
            -71.59028579015462,
            -33.03111945986705
          ],
          [
            -71.59040498362761,
            -33.03117802904118
          ],
          [
            -71.59053317977909,
            -33.0311810058753
          ],
          [
            -71.59065643364673,
            -33.031243675539955
          ],
          [
            -71.59077968688185,
            -33.03130633621549
          ],
          [
            -71.59090249014608,
            -33.03137979709427
          ],
          [
            -71.5909576697105,
            -33.03148010275425
          ],
          [
            -71.59108009985755,
            -33.03154028758454
          ],
          [
            -71.59121152171501,
            -33.03160920089614
          ],
          [
            -71.59118469642584,
            -33.03173685460758
          ],
          [
            -71.59117396716162,
            -33.031841680888185
          ],
          [
            -71.59129068000766,
            -33.031894072394664
          ],
          [
            -71.59142288803928,
            -33.031951770392354
          ],
          [
            -71.59152049360797,
            -33.032036978682555
          ],
          [
            -71.5916399260732,
            -33.03210274437888
          ],
          [
            -71.59173986533948,
            -33.03216438877675
          ],
          [
            -71.59186447475929,
            -33.03216977388089
          ],
          [
            -71.59184179689218,
            -33.03229884777135
          ],
          [
            -71.59190853378499,
            -33.03233811969834
          ],
          [
            -71.59204392953993,
            -33.03237934442182
          ],
          [
            -71.59217949338742,
            -33.032422543035224
          ],
          [
            -71.59231299747017,
            -33.032477496338714
          ],
          [
            -71.59235093375351,
            -33.03258999064033
          ],
          [
            -71.59246177723885,
            -33.03264236751353
          ],
          [
            -71.59251764601211,
            -33.03273605645768
          ],
          [
            -71.59265339589291,
            -33.03277645288377
          ],
          [
            -71.59278914588877,
            -33.03281684915561
          ],
          [
            -71.5929248959997,
            -33.03285724527321
          ],
          [
            -71.5930367371927,
            -33.03286494312585
          ],
          [
            -71.59315101955183,
            -33.03284458157798
          ],
          [
            -71.59328696151742,
            -33.032885131303125
          ],
          [
            -71.59328053543238,
            -33.03298831557327
          ],
          [
            -71.59341299382419,
            -33.03302877402354
          ],
          [
            -71.59354814126078,
            -33.03307028590354
          ],
          [
            -71.59368434274744,
            -33.03310956678096
          ],
          [
            -71.59382055282174,
            -33.033148849901465
          ],
          [
            -71.59395671415557,
            -33.03318827342105
          ],
          [
            -71.59409229755245,
            -33.03322780126203
          ],
          [
            -71.594156021258,
            -33.033164405388284
          ],
          [
            -71.59416654757806,
            -33.03323582454072
          ],
          [
            -71.59426589707728,
            -33.03328168310199
          ],
          [
            -71.594402634963,
            -33.03331974762168
          ],
          [
            -71.59453995578025,
            -33.03335618453294
          ]
        ]
      }
    },
    {
      "type": "Feature",
      "properties": {
        "year": 2026,
        "scene_count": 1,
        "processing_level": "L2A_FES2014"
      },
      "geometry": {
        "type": "LineString",
        "coordinates": [
          [
            -71.5888399,
            -33.03022459999999
          ],
          [
            -71.58881073924246,
            -33.03030745228342
          ],
          [
            -71.58888309640538,
            -33.03041103851583
          ],
          [
            -71.58897992574273,
            -33.030500610956466
          ],
          [
            -71.58907932590546,
            -33.03058833585388
          ],
          [
            -71.58917872545089,
            -33.03067606131654
          ],
          [
            -71.58927812519413,
            -33.03076378668909
          ],
          [
            -71.5894034128186,
            -33.030765931781374
          ],
          [
            -71.58953650739359,
            -33.03075767038391
          ],
          [
            -71.58965963719966,
            -33.030820510307535
          ],
          [
            -71.5897827670547,
            -33.030883350268134
          ],
          [
            -71.58990589701168,
            -33.030946190192005
          ],
          [
            -71.59002916416473,
            -33.03100880370785
          ],
          [
            -71.5901538677192,
            -33.0310694021014
          ],
          [
            -71.59027857143879,
            -33.03113000036117
          ],
          [
            -71.59040327532357,
            -33.03119059848719
          ],
          [
            -71.59052506876026,
            -33.03119222341527
          ],
          [
            -71.59064802444004,
            -33.03125530549716
          ],
          [
            -71.59077098473955,
            -33.031318381283626
          ],
          [
            -71.59088690932391,
            -33.031386154463625
          ],
          [
            -71.5909470796919,
            -33.03149224397279
          ],
          [
            -71.59107097292456,
            -33.0315538028038
          ],
          [
            -71.5911936489553,
            -33.03161471127179
          ],
          [
            -71.59116557950117,
            -33.03173365356901
          ],
          [
            -71.5911574962199,
            -33.031851047577774
          ],
          [
            -71.59128151358257,
            -33.0319092871923
          ],
          [
            -71.59140823580125,
            -33.03196401244921
          ],
          [
            -71.59150789186619,
            -33.032051149635485
          ],
          [
            -71.59162816264606,
            -33.03211780465871
          ],
          [
            -71.59174744010501,
            -33.032180732201695
          ],
          [
            -71.59184693258793,
            -33.03217830413903
          ],
          [
            -71.59182386739704,
            -33.032292008685275
          ],
          [
            -71.59190210948846,
            -33.03235327889111
          ],
          [
            -71.59203769799288,
            -33.032394048844516
          ],
          [
            -71.5921725722513,
            -33.032436365448035
          ],
          [
            -71.59230167189556,
            -33.03248801005032
          ],
          [
            -71.59233518226038,
            -33.03259180859579
          ],
          [
            -71.59245160300013,
            -33.03265158651404
          ],
          [
            -71.59251307422117,
            -33.03274719170182
          ],
          [
            -71.59264913639744,
            -33.032786827527715
          ],
          [
            -71.59278519868663,
            -33.032826463198774
          ],
          [
            -71.59292126108873,
            -33.03286609871501
          ],
          [
            -71.59304397590196,
            -33.03287095553095
          ],
          [
            -71.59314800278086,
            -33.032851911937726
          ],
          [
            -71.59328403053324,
            -33.03289163176891
          ],
          [
            -71.5932754006587,
            -33.032992685874376
          ],
          [
            -71.59341084286979,
            -33.03303380141045
          ],
          [
            -71.59354642109088,
            -33.033074587524595
          ],
          [
            -71.5936829345502,
            -33.033113107677515
          ],
          [
            -71.59381944811926,
            -33.03315162767477
          ],
          [
            -71.59395590638869,
            -33.03319028621195
          ],
          [
            -71.59409229423859,
            -33.03322912113747
          ],
          [
            -71.59415588686396,
            -33.03316490786879
          ],
          [
            -71.59416675345558,
            -33.03323605663992
          ],
          [
            -71.59426632695775,
            -33.033280650199714
          ],
          [
            -71.59440329816762,
            -33.033317932295574
          ],
          [
            -71.59454090000001,
            -33.03335360000001
          ]
        ]
      }
    }
  ]
}