{
  "type": "FeatureCollection",
  "name": "algarrobo_shoreline_osm",
  "metadata": {
    "source": "OpenStreetMap",
    "source_url": "https://www.openstreetmap.org/way/142496922",
    "source_api_url": "https://api.openstreetmap.org/api/0.6/way/142496922/full",
    "way_id": 142496922,
    "way_version": 1,
    "way_timestamp": "2026-08-08T00:00:00Z",
    "changeset": 123456,
    "tags": {
      "name": "Algarrobo",
      "natural": "beach",
      "surface": "sand"
    },
    "retrieved_at": "2026-08-08T00:00:00+00:00",
    "observation_date": null,
    "scenario_base_year": 2026,
    "raw_snapshot": "data/raw/osm_way_142496922.xml",
    "raw_sha256": "dummy_sha256",
    "license": "ODbL",
    "extraction_method": "West-most seaward boundary extracted from closed OSM beach polygon.",
    "description": "Borde marino de Algarrobo derivado de OSM."
  },
  "features": [
    {
      "type": "Feature",
      "properties": {
        "name": "Borde marino de Algarrobo",
        "role": "referencia_espacial_escenario_base",
        "source": "Arco occidental derivado de OSM way 142496922",
        "vertex_count": 87
      },
      "geometry": {
        "type": "LineString",
        "coordinates": [
          [
            -71.6638076,
            -33.3586967
          ],
          [
            -71.6639578,
            -33.3587393
          ],
          [
            -71.6640021,
            -33.358802
          ],
          [
            -71.6641188,
            -33.3588771
          ],
          [
            -71.6646291,
            -33.3592803
          ],
          [
            -71.6649576,
            -33.3595424
          ],
          [
            -71.6649824,
            -33.3595839
          ],
          [
            -71.6649958,
            -33.3596612
          ],
          [
            -71.6650482,
            -33.3598191
          ],
          [
            -71.6651528,
            -33.359986
          ],
          [
            -71.6653834,
            -33.3601697
          ],
          [
            -71.6656163,
            -33.3603251
          ],
          [
            -71.6656503,
            -33.3603478
          ],
          [
            -71.6662015,
            -33.3606469
          ],
          [
            -71.6665569,
            -33.3607253
          ],
          [
            -71.6669458,
            -33.3607679
          ],
          [
            -71.6672462,
            -33.3607858
          ],
          [
            -71.6676539,
            -33.3607791
          ],
          [
            -71.6678832,
            -33.3607488
          ],
          [
            -71.6680174,
            -33.3607242
          ],
          [
            -71.6681448,
            -33.3606827
          ],
          [
            -71.668236,
            -33.3606391
          ],
          [
            -71.6683084,
            -33.3606066
          ],
          [
            -71.6683942,
            -33.3605819
          ],
          [
            -71.6684908,
            -33.3605719
          ],
          [
            -71.6686061,
            -33.360573
          ],
          [
            -71.668767,
            -33.3605371
          ],
          [
            -71.6688864,
            -33.3604834
          ],
          [
            -71.6690353,
            -33.360396
          ],
          [
            -71.6692458,
            -33.360256
          ],
          [
            -71.6693504,
            -33.3602011
          ],
          [
            -71.669447,
            -33.3601731
          ],
          [
            -71.6695569,
            -33.3601697
          ],
          [
            -71.6696305,
            -33.3601781
          ],
          [
            -71.6696869,
            -33.3601668
          ],
          [
            -71.6700257,
            -33.3600986
          ],
          [
            -71.6703881,
            -33.359967
          ],
          [
            -71.6706929,
            -33.3598922
          ],
          [
            -71.6707951,
            -33.3598922
          ],
          [
            -71.6710305,
            -33.3599129
          ],
          [
            -71.671177,
            -33.3599524
          ],
          [
            -71.6713835,
            -33.3600544
          ],
          [
            -71.6718006,
            -33.3602616
          ],
          [
            -71.671979,
            -33.3603725
          ],
          [
            -71.6720688,
            -33.3605203
          ],
          [
            -71.672095,
            -33.3606553
          ],
          [
            -71.672096,
            -33.3608004
          ],
          [
            -71.6720963,
            -33.3608295
          ],
          [
            -71.6720534,
            -33.360993
          ],
          [
            -71.6719951,
            -33.3613425
          ],
          [
            -71.6720232,
            -33.3616035
          ],
          [
            -71.6720776,
            -33.362061
          ],
          [
            -71.6720802,
            -33.3621115
          ],
          [
            -71.6721151,
            -33.3622828
          ],
          [
            -71.6722422,
            -33.3625309
          ],
          [
            -71.6722626,
            -33.3625634
          ],
          [
            -71.67239,
            -33.3627594
          ],
          [
            -71.6726965,
            -33.3631335
          ],
          [
            -71.6727957,
            -33.3632366
          ],
          [
            -71.6728789,
            -33.3633038
          ],
          [
            -71.6730049,
            -33.3634382
          ],
          [
            -71.6731685,
            -33.363539
          ],
          [
            -71.6737667,
            -33.3638706
          ],
          [
            -71.6741905,
            -33.3639736
          ],
          [
            -71.6745311,
            -33.3641226
          ],
          [
            -71.6754833,
            -33.3644631
          ],
          [
            -71.6761029,
            -33.3646389
          ],
          [
            -71.6766259,
            -33.3646658
          ],
          [
            -71.6769062,
            -33.3646759
          ],
          [
            -71.6770725,
            -33.3646423
          ],
          [
            -71.6772348,
            -33.3646277
          ],
          [
            -71.6774131,
            -33.3646524
          ],
          [
            -71.6776519,
            -33.3647632
          ],
          [
            -71.6779495,
            -33.3647834
          ],
          [
            -71.6782527,
            -33.3647611
          ],
          [
            -71.6785786,
            -33.364649
          ],
          [
            -71.6786845,
            -33.3646154
          ],
          [
            -71.6788522,
            -33.3645907
          ],
          [
            -71.6791009,
            -33.3645482
          ],
          [
            -71.6793061,
            -33.3646233
          ],
          [
            -71.679628,
            -33.3648176
          ],
          [
            -71.6804427,
            -33.3652505
          ],
          [
            -71.6805446,
            -33.3652751
          ],
          [
            -71.68066,
            -33.3652908
          ],
          [
            -71.6809443,
            -33.3652662
          ],
          [
            -71.6808305,
            -33.3653314
          ],
          [
            -71.6807253,
            -33.3653649
          ]
        ]
      }
    }
  ]
}