{
  "type": "FeatureCollection",
  "name": "caleta_portales_shoreline_osm",
  "metadata": {
    "source": "OpenStreetMap",
    "source_url": "https://www.openstreetmap.org/way/27710835",
    "source_api_url": "https://api.openstreetmap.org/api/0.6/way/27710835/full",
    "way_id": 27710835,
    "way_version": 1,
    "way_timestamp": "2026-08-08T00:00:00Z",
    "changeset": 123456,
    "tags": {
      "name": "Caleta Portales",
      "natural": "beach",
      "surface": "sand"
    },
    "retrieved_at": "2026-08-08T00:00:00+00:00",
    "observation_date": null,
    "scenario_base_year": 2026,
    "raw_snapshot": "data/raw/osm_way_27710835.xml",
    "raw_sha256": "dummy_sha256",
    "license": "ODbL",
    "extraction_method": "West-most seaward boundary extracted from closed OSM beach polygon.",
    "description": "Borde marino de Caleta Portales derivado de OSM."
  },
  "features": [
    {
      "type": "Feature",
      "properties": {
        "name": "Borde marino de Caleta Portales",
        "role": "referencia_espacial_escenario_base",
        "source": "Arco occidental derivado de OSM way 27710835",
        "vertex_count": 57
      },
      "geometry": {
        "type": "LineString",
        "coordinates": [
          [
            -71.5888399,
            -33.0302246
          ],
          [
            -71.588797,
            -33.0302257
          ],
          [
            -71.5887916,
            -33.0302673
          ],
          [
            -71.5888345,
            -33.0303573
          ],
          [
            -71.5889016,
            -33.0304315
          ],
          [
            -71.5889866,
            -33.0305065
          ],
          [
            -71.5893093,
            -33.0307913
          ],
          [
            -71.5895011,
            -33.0307396
          ],
          [
            -71.5897039,
            -33.0308431
          ],
          [
            -71.5899067,
            -33.0309466
          ],
          [
            -71.5899384,
            -33.0309633
          ],
          [
            -71.5899738,
            -33.0309819
          ],
          [
            -71.5904076,
            -33.0311927
          ],
          [
            -71.5904646,
            -33.0311612
          ],
          [
            -71.5906792,
            -33.0312713
          ],
          [
            -71.5907164,
            -33.0312904
          ],
          [
            -71.5908828,
            -33.0313757
          ],
          [
            -71.5909225,
            -33.0314767
          ],
          [
            -71.5909614,
            -33.0315013
          ],
          [
            -71.5911941,
            -33.0316128
          ],
          [
            -71.5911444,
            -33.0318234
          ],
          [
            -71.5911606,
            -33.0318576
          ],
          [
            -71.5913295,
            -33.0319298
          ],
          [
            -71.5913915,
            -33.0319498
          ],
          [
            -71.5914366,
            -33.0319881
          ],
          [
            -71.5914986,
            -33.032046
          ],
          [
            -71.5917458,
            -33.032183
          ],
          [
            -71.5917782,
            -33.0321382
          ],
          [
            -71.591846,
            -33.0321747
          ],
          [
            -71.5918593,
            -33.0322261
          ],
          [
            -71.5918064,
            -33.0323245
          ],
          [
            -71.5921403,
            -33.0324249
          ],
          [
            -71.5922892,
            -33.0324778
          ],
          [
            -71.5923482,
            -33.0325261
          ],
          [
            -71.5923335,
            -33.0326003
          ],
          [
            -71.5924421,
            -33.0326431
          ],
          [
            -71.5924823,
            -33.032679
          ],
          [
            -71.5924877,
            -33.0327398
          ],
          [
            -71.5929604,
            -33.0328775
          ],
          [
            -71.5929618,
            -33.0328769
          ],
          [
            -71.5929759,
            -33.0328601
          ],
          [
            -71.5930409,
            -33.0328775
          ],
          [
            -71.5930644,
            -33.0328275
          ],
          [
            -71.5933031,
            -33.0328972
          ],
          [
            -71.5932682,
            -33.0329905
          ],
          [
            -71.5935291,
            -33.0330697
          ],
          [
            -71.5938959,
            -33.0331732
          ],
          [
            -71.594101,
            -33.0332316
          ],
          [
            -71.5941299,
            -33.0331996
          ],
          [
            -71.5941091,
            -33.03319
          ],
          [
            -71.5941413,
            -33.0331603
          ],
          [
            -71.5941929,
            -33.0331766
          ],
          [
            -71.594217,
            -33.0331929
          ],
          [
            -71.5942043,
            -33.0332131
          ],
          [
            -71.59415,
            -33.0332463
          ],
          [
            -71.5943156,
            -33.0332952
          ],
          [
            -71.5945409,
            -33.0333536
          ]
        ]
      }
    }
  ]
}