{
  "type": "FeatureCollection",
  "name": "renaca_shoreline_osm",
  "metadata": {
    "source": "OpenStreetMap",
    "source_url": "https://www.openstreetmap.org/way/23390670",
    "source_api_url": "https://api.openstreetmap.org/api/0.6/way/23390670/full",
    "way_id": 23390670,
    "way_version": 1,
    "way_timestamp": "2026-08-08T00:00:00Z",
    "changeset": 123456,
    "tags": {
      "name": "Reñaca",
      "natural": "beach",
      "surface": "sand"
    },
    "retrieved_at": "2026-08-08T00:00:00+00:00",
    "observation_date": null,
    "scenario_base_year": 2026,
    "raw_snapshot": "data/raw/osm_way_23390670.xml",
    "raw_sha256": "dummy_sha256",
    "license": "ODbL",
    "extraction_method": "West-most seaward boundary extracted from closed OSM beach polygon.",
    "description": "Borde marino de Reñaca derivado de OSM."
  },
  "features": [
    {
      "type": "Feature",
      "properties": {
        "name": "Borde marino de Reñaca",
        "role": "referencia_espacial_escenario_base",
        "source": "Arco occidental derivado de OSM way 23390670",
        "vertex_count": 121
      },
      "geometry": {
        "type": "LineString",
        "coordinates": [
          [
            -71.547102,
            -32.9625302
          ],
          [
            -71.5474081,
            -32.9625889
          ],
          [
            -71.5473723,
            -32.962623
          ],
          [
            -71.547322,
            -32.9626607
          ],
          [
            -71.5472952,
            -32.962699
          ],
          [
            -71.5472522,
            -32.9627755
          ],
          [
            -71.5472361,
            -32.9628182
          ],
          [
            -71.5472281,
            -32.9628632
          ],
          [
            -71.5472281,
            -32.9630658
          ],
          [
            -71.5472147,
            -32.9631085
          ],
          [
            -71.5471852,
            -32.9631535
          ],
          [
            -71.547161,
            -32.9632143
          ],
          [
            -71.5471476,
            -32.9633246
          ],
          [
            -71.547145,
            -32.9634934
          ],
          [
            -71.5471396,
            -32.9635136
          ],
          [
            -71.5471128,
            -32.9635541
          ],
          [
            -71.5470377,
            -32.9637409
          ],
          [
            -71.5470135,
            -32.9638579
          ],
          [
            -71.5470055,
            -32.9639457
          ],
          [
            -71.5470055,
            -32.9640942
          ],
          [
            -71.5469867,
            -32.964218
          ],
          [
            -71.5469438,
            -32.9643733
          ],
          [
            -71.546917,
            -32.9645195
          ],
          [
            -71.5469036,
            -32.9646276
          ],
          [
            -71.5468647,
            -32.9646883
          ],
          [
            -71.5468526,
            -32.9647693
          ],
          [
            -71.5468901,
            -32.9648684
          ],
          [
            -71.5468982,
            -32.9649089
          ],
          [
            -71.5468982,
            -32.9649584
          ],
          [
            -71.5468875,
            -32.9650034
          ],
          [
            -71.5468499,
            -32.9650979
          ],
          [
            -71.5467748,
            -32.9652397
          ],
          [
            -71.5467238,
            -32.9653162
          ],
          [
            -71.5466836,
            -32.9654197
          ],
          [
            -71.5466622,
            -32.9655097
          ],
          [
            -71.5466112,
            -32.9656087
          ],
          [
            -71.546579,
            -32.9656875
          ],
          [
            -71.5465522,
            -32.9658383
          ],
          [
            -71.5465415,
            -32.9658675
          ],
          [
            -71.546512,
            -32.9660318
          ],
          [
            -71.546512,
            -32.9660881
          ],
          [
            -71.5464985,
            -32.9662096
          ],
          [
            -71.5464824,
            -32.9663559
          ],
          [
            -71.5464771,
            -32.9664009
          ],
          [
            -71.5464529,
            -32.9664909
          ],
          [
            -71.5464422,
            -32.9666101
          ],
          [
            -71.5464154,
            -32.9666844
          ],
          [
            -71.5464073,
            -32.9668082
          ],
          [
            -71.5463832,
            -32.9669837
          ],
          [
            -71.5463457,
            -32.9670872
          ],
          [
            -71.5463349,
            -32.9672335
          ],
          [
            -71.5463188,
            -32.9673685
          ],
          [
            -71.5462947,
            -32.9675238
          ],
          [
            -71.5462598,
            -32.9676723
          ],
          [
            -71.5462598,
            -32.9677173
          ],
          [
            -71.5461901,
            -32.9678748
          ],
          [
            -71.5461499,
            -32.9679851
          ],
          [
            -71.5461391,
            -32.9680368
          ],
          [
            -71.5461123,
            -32.9681674
          ],
          [
            -71.5461203,
            -32.9682529
          ],
          [
            -71.5461499,
            -32.9683451
          ],
          [
            -71.5461499,
            -32.9683901
          ],
          [
            -71.5461311,
            -32.9685342
          ],
          [
            -71.5460989,
            -32.9686782
          ],
          [
            -71.5460989,
            -32.9688942
          ],
          [
            -71.5460935,
            -32.9689392
          ],
          [
            -71.5460372,
            -32.9691125
          ],
          [
            -71.5460131,
            -32.9692182
          ],
          [
            -71.5459889,
            -32.9693825
          ],
          [
            -71.5459862,
            -32.9695468
          ],
          [
            -71.5459943,
            -32.9695895
          ],
          [
            -71.545997,
            -32.9697088
          ],
          [
            -71.5459728,
            -32.9698528
          ],
          [
            -71.5459648,
            -32.9699698
          ],
          [
            -71.5459648,
            -32.9701409
          ],
          [
            -71.5459192,
            -32.9703659
          ],
          [
            -71.545895,
            -32.9704919
          ],
          [
            -71.5459111,
            -32.9706022
          ],
          [
            -71.5459004,
            -32.9707169
          ],
          [
            -71.5458816,
            -32.9707844
          ],
          [
            -71.5458146,
            -32.9709037
          ],
          [
            -71.5458119,
            -32.9709262
          ],
          [
            -71.5458146,
            -32.9709869
          ],
          [
            -71.5458226,
            -32.9710072
          ],
          [
            -71.5458468,
            -32.971041
          ],
          [
            -71.5458924,
            -32.9711602
          ],
          [
            -71.545895,
            -32.971302
          ],
          [
            -71.5458655,
            -32.9714212
          ],
          [
            -71.5458709,
            -32.9715382
          ],
          [
            -71.545887,
            -32.9716553
          ],
          [
            -71.5458897,
            -32.9718263
          ],
          [
            -71.5459031,
            -32.971923
          ],
          [
            -71.5459031,
            -32.9720828
          ],
          [
            -71.5459031,
            -32.9721728
          ],
          [
            -71.5459031,
            -32.9722763
          ],
          [
            -71.5459085,
            -32.9723843
          ],
          [
            -71.5459192,
            -32.9725441
          ],
          [
            -71.545938,
            -32.9726408
          ],
          [
            -71.545938,
            -32.9726881
          ],
          [
            -71.5459165,
            -32.9727736
          ],
          [
            -71.5458602,
            -32.9728861
          ],
          [
            -71.5458602,
            -32.9729649
          ],
          [
            -71.5459031,
            -32.9730526
          ],
          [
            -71.5459594,
            -32.9731179
          ],
          [
            -71.5459755,
            -32.9731584
          ],
          [
            -71.5459648,
            -32.9732844
          ],
          [
            -71.5459675,
            -32.9733564
          ],
          [
            -71.5459862,
            -32.9734464
          ],
          [
            -71.5459862,
            -32.9734959
          ],
          [
            -71.5459996,
            -32.9735567
          ],
          [
            -71.5460426,
            -32.9736534
          ],
          [
            -71.5460533,
            -32.9737029
          ],
          [
            -71.5460533,
            -32.9738109
          ],
          [
            -71.5460452,
            -32.9738784
          ],
          [
            -71.5460506,
            -32.9740135
          ],
          [
            -71.5460694,
            -32.9740945
          ],
          [
            -71.5460989,
            -32.9741575
          ],
          [
            -71.5460909,
            -32.974243
          ],
          [
            -71.5460922,
            -32.9743172
          ],
          [
            -71.5461069,
            -32.9743971
          ],
          [
            -71.5460385,
            -32.9744455
          ]
        ]
      }
    }
  ]
}