{
"type": "FeatureCollection",
"name": "buildings_osm_renaca",
"crs": { "type": "name", "properties": { "name": "urn:ogc:def:crs:OGC:1.3:CRS84" } },
"features": [
{ "type": "Feature", "properties": { "osm_id": "way/947178720", "name": null, "source": "OpenStreetMap/Overpass", "building": "yes" }, "geometry": { "type": "Polygon", "coordinates": [ [ [ -71.540686937852229, -32.979030241379419 ], [ -71.540687862830481, -32.979062535634306 ], [ -71.540754835592494, -32.97906116885536 ], [ -71.5407506, -32.979025 ], [ -71.540686937852229, -32.979030241379419 ] ] ] } },
{ "type": "Feature", "properties": { "osm_id": "way/947178721", "name": null, "source": "OpenStreetMap/Overpass", "building": "yes" }, "geometry": { "type": "Polygon", "coordinates": [ [ [ -71.541106, -32.9788157 ], [ -71.5410813, -32.9786569 ], [ -71.5409643, -32.9786697 ], [ -71.5410157, -32.9790001 ], [ -71.5412097, -32.9789789 ], [ -71.541221010676509, -32.979051655162458 ], [ -71.54133057392076, -32.9790494191977 ], [ -71.541291, -32.9787955 ], [ -71.541106, -32.9788157 ] ] ] } },
{ "type": "Feature", "properties": { "osm_id": "way/947178722", "name": null, "source": "OpenStreetMap/Overpass", "building": "yes" }, "geometry": { "type": "Polygon", "coordinates": [ [ [ -71.5415306, -32.9787402 ], [ -71.5415005, -32.9785782 ], [ -71.5413958, -32.9785919 ], [ -71.5414415, -32.9788381 ], [ -71.5413986, -32.9788437 ], [ -71.5414152, -32.9789333 ], [ -71.5416374, -32.9789042 ], [ -71.541663133012563, -32.979042632337617 ], [ -71.541746813065558, -32.979040924596568 ], [ -71.5417785, -32.9790368 ], [ -71.5417188, -32.9787156 ], [ -71.5415306, -32.9787402 ] ] ] } },
{ "type": "Feature", "properties": { "osm_id": "way/947178724", "name": null, "source": "OpenStreetMap/Overpass", "building": "yes" }, "geometry": { "type": "Polygon", "coordinates": [ [ [ -71.5418254, -32.9778051 ], [ -71.5418461, -32.9779668 ], [ -71.5416547, -32.977984 ], [ -71.5416939, -32.9782914 ], [ -71.5418017, -32.9782817 ], [ -71.5417881, -32.9781756 ], [ -71.5418752, -32.9781678 ], [ -71.5418718, -32.9781412 ], [ -71.5419716, -32.9781323 ], [ -71.5419287, -32.9777959 ], [ -71.5418254, -32.9778051 ] ] ] } },
{ "type": "Feature", "properties": { "osm_id": "way/604414873", "name": "Edificio Ventisquero Grey", "source": "OpenStreetMap/Overpass", "building": "apartments" }, "geometry": { "type": "Polygon", "coordinates": [ [ [ -71.5416276, -32.9763871 ], [ -71.5415196, -32.976454 ], [ -71.5416304, -32.9765799 ], [ -71.5417384, -32.9765131 ], [ -71.5416276, -32.9763871 ] ] ] } },
{ "type": "Feature", "properties": { "osm_id": "way/604414869", "name": "Edificio Casaño", "source": "OpenStreetMap/Overpass", "building": "apartments" }, "geometry": { "type": "Polygon", "coordinates": [ [ [ -71.5415037, -32.9758289 ], [ -71.5412609, -32.9758277 ], [ -71.5412603, -32.9759239 ], [ -71.541503, -32.9759251 ], [ -71.5415037, -32.9758289 ] ] ] } },
{ "type": "Feature", "properties": { "osm_id": "way/604414881", "name": null, "source": "OpenStreetMap/Overpass", "building": "apartments" }, "geometry": { "type": "Polygon", "coordinates": [ [ [ -71.5406476, -32.9758519 ], [ -71.5407515, -32.9757808 ], [ -71.540631, -32.9756567 ], [ -71.540591093651472, -32.975683982128665 ], [ -71.540594333232903, -32.975797087348298 ], [ -71.5406476, -32.9758519 ] ] ] } },
{ "type": "Feature", "properties": { "osm_id": "way/947178719", "name": null, "source": "OpenStreetMap/Overpass", "building": "yes" }, "geometry": { "type": "Polygon", "coordinates": [ [ [ -71.5421606, -32.9786039 ], [ -71.5422041, -32.9786346 ], [ -71.5421646, -32.9786741 ], [ -71.5422695, -32.9787481 ], [ -71.5423091, -32.9787087 ], [ -71.5423527, -32.9787395 ], [ -71.5424283, -32.9786641 ], [ -71.5422362, -32.9785285 ], [ -71.5421606, -32.9786039 ] ] ] } },
{ "type": "Feature", "properties": { "osm_id": "way/947178723", "name": null, "source": "OpenStreetMap/Overpass", "building": "yes" }, "geometry": { "type": "Polygon", "coordinates": [ [ [ -71.5418528, -32.9784826 ], [ -71.5418193, -32.9783358 ], [ -71.5417122, -32.978353 ], [ -71.5417819, -32.9786591 ], [ -71.5419647, -32.9786298 ], [ -71.5420028, -32.9787973 ], [ -71.5421057, -32.9787808 ], [ -71.5420313, -32.978454 ], [ -71.5418528, -32.9784826 ] ] ] } },
{ "type": "Feature", "properties": { "osm_id": "way/947178718", "name": null, "source": "OpenStreetMap/Overpass", "building": "yes" }, "geometry": { "type": "Polygon", "coordinates": [ [ [ -71.5423542, -32.9781949 ], [ -71.5423668, -32.9781836 ], [ -71.5422622, -32.9781015 ], [ -71.5422229, -32.9781366 ], [ -71.5421818, -32.9781043 ], [ -71.5421075, -32.9781708 ], [ -71.5421487, -32.9782031 ], [ -71.5421072, -32.9782402 ], [ -71.5421914, -32.9783063 ], [ -71.5422094, -32.9782902 ], [ -71.5422657, -32.9783345 ], [ -71.5423901, -32.9782231 ], [ -71.5423542, -32.9781949 ] ] ] } },
{ "type": "Feature", "properties": { "osm_id": "way/947178717", "name": null, "source": "OpenStreetMap/Overpass", "building": "yes" }, "geometry": { "type": "Polygon", "coordinates": [ [ [ -71.5421721, -32.9773763 ], [ -71.5421177, -32.9774717 ], [ -71.5420785, -32.9776137 ], [ -71.5420889, -32.9778382 ], [ -71.5421812, -32.9778248 ], [ -71.5421651, -32.9776286 ], [ -71.5422033, -32.9775073 ], [ -71.5422583, -32.9774108 ], [ -71.5421721, -32.9773763 ] ] ] } },
{ "type": "Feature", "properties": { "osm_id": "way/604414871", "name": "Edificio Ventisquero San Rafael", "source": "OpenStreetMap/Overpass", "building": "apartments" }, "geometry": { "type": "Polygon", "coordinates": [ [ [ -71.5421324, -32.9767705 ], [ -71.5420654, -32.9767214 ], [ -71.5418809, -32.9768985 ], [ -71.5419479, -32.9769477 ], [ -71.5421324, -32.9767705 ] ] ] } },
{ "type": "Feature", "properties": { "osm_id": "way/604414872", "name": "Edificio Ventisquero Hudson", "source": "OpenStreetMap/Overpass", "building": "apartments" }, "geometry": { "type": "Polygon", "coordinates": [ [ [ -71.542108, -32.9761602 ], [ -71.5419335, -32.9760316 ], [ -71.5418731, -32.9760893 ], [ -71.5420476, -32.9762179 ], [ -71.542108, -32.9761602 ] ] ] } },
{ "type": "Feature", "properties": { "osm_id": "way/604414875", "name": null, "source": "OpenStreetMap/Overpass", "building": "apartments" }, "geometry": { "type": "Polygon", "coordinates": [ [ [ -71.542645, -32.9760182 ], [ -71.5424354, -32.9760259 ], [ -71.542441, -32.9761319 ], [ -71.5426506, -32.9761241 ], [ -71.542645, -32.9760182 ] ] ] } },
{ "type": "Feature", "properties": { "osm_id": "way/604414874", "name": null, "source": "OpenStreetMap/Overpass", "building": "apartments" }, "geometry": { "type": "Polygon", "coordinates": [ [ [ -71.5428768, -32.9757141 ], [ -71.5426672, -32.9757218 ], [ -71.5426728, -32.9758278 ], [ -71.5428823, -32.9758201 ], [ -71.5428768, -32.9757141 ] ] ] } },
{ "type": "Feature", "properties": { "osm_id": "way/604414876", "name": null, "source": "OpenStreetMap/Overpass", "building": "apartments" }, "geometry": { "type": "Polygon", "coordinates": [ [ [ -71.5423367, -32.975703 ], [ -71.5422808, -32.9756786 ], [ -71.5423439, -32.9755768 ], [ -71.5422242, -32.9755246 ], [ -71.5421631, -32.9756233 ], [ -71.5420949, -32.9755936 ], [ -71.5420356, -32.9756892 ], [ -71.5422793, -32.9757955 ], [ -71.5423367, -32.975703 ] ] ] } },
{ "type": "Feature", "properties": { "osm_id": "way/604414879", "name": null, "source": "OpenStreetMap/Overpass", "building": "apartments" }, "geometry": { "type": "Polygon", "coordinates": [ [ [ -71.5430655, -32.9751596 ], [ -71.5429468, -32.9750952 ], [ -71.5428606, -32.9752069 ], [ -71.5429793, -32.9752713 ], [ -71.5430655, -32.9751596 ] ] ] } },
{ "type": "Feature", "properties": { "osm_id": "way/1117468667", "name": null, "source": "OpenStreetMap/Overpass", "building": "apartments" }, "geometry": { "type": "Polygon", "coordinates": [ [ [ -71.5409969, -32.9754426 ], [ -71.540712, -32.9752856 ], [ -71.5406604, -32.9753514 ], [ -71.5409454, -32.9755084 ], [ -71.5409969, -32.9754426 ] ] ] } },
{ "type": "Feature", "properties": { "osm_id": "way/604414877", "name": null, "source": "OpenStreetMap/Overpass", "building": "apartments" }, "geometry": { "type": "Polygon", "coordinates": [ [ [ -71.541906, -32.9752342 ], [ -71.5416847, -32.9752272 ], [ -71.5416796, -32.9753396 ], [ -71.5419009, -32.9753466 ], [ -71.541906, -32.9752342 ] ] ] } },
{ "type": "Feature", "properties": { "osm_id": "way/660635987", "name": "Edificio Bellamar", "source": "OpenStreetMap/Overpass", "building": "apartments" }, "geometry": { "type": "Polygon", "coordinates": [ [ [ -71.5419934, -32.9731971 ], [ -71.5418341, -32.9731857 ], [ -71.5417973, -32.9735452 ], [ -71.5419566, -32.9735567 ], [ -71.5419934, -32.9731971 ] ] ] } },
{ "type": "Feature", "properties": { "osm_id": "way/660635988", "name": "Edificio La Palma", "source": "OpenStreetMap/Overpass", "building": "apartments" }, "geometry": { "type": "Polygon", "coordinates": [ [ [ -71.5415058, -32.9732223 ], [ -71.5416068, -32.9732309 ], [ -71.5416065, -32.9732617 ], [ -71.5415994, -32.973292 ], [ -71.541582, -32.9733267 ], [ -71.5415557, -32.9733572 ], [ -71.5415219, -32.973382 ], [ -71.5414824, -32.9733998 ], [ -71.5414391, -32.9734098 ], [ -71.5413943, -32.9734113 ], [ -71.5413502, -32.9734044 ], [ -71.5413511, -32.973356 ], [ -71.5412803, -32.973355 ], [ -71.5412762, -32.973563 ], [ -71.5413417, -32.9735639 ], [ -71.5413427, -32.9735097 ], [ -71.5413898, -32.9735157 ], [ -71.5414373, -32.9735164 ], [ -71.5414846, -32.9735116 ], [ -71.5415429, -32.9734978 ], [ -71.5415976, -32.9734758 ], [ -71.5416469, -32.9734462 ], [ -71.5416893, -32.97341 ], [ -71.5417237, -32.9733681 ], [ -71.541749, -32.9733219 ], [ -71.5417644, -32.9732727 ], [ -71.5417695, -32.973222 ], [ -71.5417641, -32.9731714 ], [ -71.5415145, -32.9731502 ], [ -71.5415058, -32.9732223 ] ] ] } },
{ "type": "Feature", "properties": { "osm_id": "way/1117255538", "name": "Araucaria", "source": "OpenStreetMap/Overpass", "building": "apartments" }, "geometry": { "type": "Polygon", "coordinates": [ [ [ -71.5406853, -32.9730901 ], [ -71.5406581, -32.9734803 ], [ -71.5410996, -32.973502 ], [ -71.54112, -32.9732088 ], [ -71.5410584, -32.9732058 ], [ -71.5410555, -32.9732475 ], [ -71.5410127, -32.9732454 ], [ -71.5410081, -32.9733111 ], [ -71.5410328, -32.9733123 ], [ -71.5410249, -32.9734269 ], [ -71.5409941, -32.9734254 ], [ -71.5409965, -32.9733921 ], [ -71.5408342, -32.9733842 ], [ -71.5408324, -32.97341 ], [ -71.5407481, -32.9734058 ], [ -71.5407506, -32.9733705 ], [ -71.5408186, -32.9733739 ], [ -71.5408239, -32.9732987 ], [ -71.5408359, -32.9732993 ], [ -71.5408383, -32.9732649 ], [ -71.5408243, -32.9732642 ], [ -71.5408297, -32.9731864 ], [ -71.5408604, -32.9731879 ], [ -71.5408666, -32.973099 ], [ -71.5406853, -32.9730901 ] ] ] } },
{ "type": "Feature", "properties": { "osm_id": "way/1007368558", "name": null, "source": "OpenStreetMap/Overpass", "building": "apartments" }, "geometry": { "type": "Polygon", "coordinates": [ [ [ -71.5411024, -32.9720605 ], [ -71.5410733, -32.9723818 ], [ -71.5410009, -32.9723772 ], [ -71.5409927, -32.9724671 ], [ -71.5412032, -32.9724805 ], [ -71.5412405, -32.9720693 ], [ -71.5411024, -32.9720605 ] ] ] } },
{ "type": "Feature", "properties": { "osm_id": "way/541880653", "name": null, "source": "OpenStreetMap/Overpass", "building": "apartments" }, "geometry": { "type": "MultiPolygon", "coordinates": [ [ [ [ -71.540474256396095, -32.971604781264013 ], [ -71.540479767854478, -32.971797205724158 ], [ -71.540699, -32.9718157 ], [ -71.5407217, -32.9716256 ], [ -71.540474256396095, -32.971604781264013 ] ] ], [ [ [ -71.5409069, -32.9724573 ], [ -71.5409498, -32.972099 ], [ -71.5408342, -32.9720893 ], [ -71.5408158, -32.9722433 ], [ -71.540491762515472, -32.972215981664732 ], [ -71.540497688292049, -32.972422871435171 ], [ -71.5409069, -32.9724573 ] ] ] ] } },
{ "type": "Feature", "properties": { "osm_id": "way/604414878", "name": null, "source": "OpenStreetMap/Overpass", "building": "apartments" }, "geometry": { "type": "Polygon", "coordinates": [ [ [ -71.5434702, -32.975099 ], [ -71.5433515, -32.9750346 ], [ -71.5432654, -32.9751462 ], [ -71.5433841, -32.9752107 ], [ -71.5434702, -32.975099 ] ] ] } },
{ "type": "Feature", "properties": { "osm_id": "way/660635986", "name": null, "source": "OpenStreetMap/Overpass", "building": "apartments" }, "geometry": { "type": "Polygon", "coordinates": [ [ [ -71.5425541, -32.9739689 ], [ -71.5425151, -32.9739431 ], [ -71.5425753, -32.9738791 ], [ -71.5424504, -32.9737964 ], [ -71.5423927, -32.9738577 ], [ -71.54235, -32.9738294 ], [ -71.5423038, -32.9738784 ], [ -71.5425105, -32.9740153 ], [ -71.5425541, -32.9739689 ] ] ] } },
{ "type": "Feature", "properties": { "osm_id": "way/1117255539", "name": null, "source": "OpenStreetMap/Overpass", "building": "apartments" }, "geometry": { "type": "Polygon", "coordinates": [ [ [ -71.5420743, -32.9731775 ], [ -71.5420682, -32.9732781 ], [ -71.5420801, -32.9732786 ], [ -71.5420785, -32.9733052 ], [ -71.5420859, -32.9733055 ], [ -71.5420776, -32.9734446 ], [ -71.5420695, -32.9734443 ], [ -71.5420679, -32.9734707 ], [ -71.5420552, -32.9734702 ], [ -71.5420498, -32.9735599 ], [ -71.5421594, -32.9735646 ], [ -71.5421824, -32.9731821 ], [ -71.5420743, -32.9731775 ] ] ] } },
{ "type": "Feature", "properties": { "osm_id": "way/1007650314", "name": "Edificio Don Guillermo", "source": "OpenStreetMap/Overpass", "building": "apartments" }, "geometry": { "type": "Polygon", "coordinates": [ [ [ -71.5425087, -32.9732066 ], [ -71.5424933, -32.9734287 ], [ -71.5426355, -32.9734357 ], [ -71.5426424, -32.9733366 ], [ -71.5426957, -32.9733392 ], [ -71.5426907, -32.9734101 ], [ -71.5427683, -32.9734139 ], [ -71.5427735, -32.9733392 ], [ -71.5428357, -32.9733423 ], [ -71.5428321, -32.9733951 ], [ -71.5429516, -32.973401 ], [ -71.5429565, -32.9733301 ], [ -71.542926, -32.9733287 ], [ -71.5429303, -32.9732728 ], [ -71.542933, -32.9732274 ], [ -71.5425087, -32.9732066 ] ] ] } },
{ "type": "Feature", "properties": { "osm_id": "way/1117255541", "name": null, "source": "OpenStreetMap/Overpass", "building": "apartments" }, "geometry": { "type": "Polygon", "coordinates": [ [ [ -71.542282, -32.9731821 ], [ -71.5422753, -32.9732776 ], [ -71.5423881, -32.9732832 ], [ -71.5423949, -32.9731877 ], [ -71.542282, -32.9731821 ] ] ] } },
{ "type": "Feature", "properties": { "osm_id": "way/1113723049", "name": null, "source": "OpenStreetMap/Overpass", "building": "apartments" }, "geometry": { "type": "Polygon", "coordinates": [ [ [ -71.5427929, -32.9724809 ], [ -71.5426911, -32.9724754 ], [ -71.5426812, -32.9726052 ], [ -71.542783, -32.9726107 ], [ -71.5427929, -32.9724809 ] ] ] } },
{ "type": "Feature", "properties": { "osm_id": "way/1113723050", "name": null, "source": "OpenStreetMap/Overpass", "building": "apartments" }, "geometry": { "type": "Polygon", "coordinates": [ [ [ -71.5423245, -32.9724452 ], [ -71.5423193, -32.9725076 ], [ -71.5421703, -32.972499 ], [ -71.5421637, -32.9725789 ], [ -71.5424064, -32.972593 ], [ -71.5424182, -32.9724506 ], [ -71.5423245, -32.9724452 ] ] ] } },
{ "type": "Feature", "properties": { "osm_id": "way/1006752891", "name": null, "source": "OpenStreetMap/Overpass", "building": "yes" }, "geometry": { "type": "Polygon", "coordinates": [ [ [ -71.5430657, -32.9724098 ], [ -71.543057, -32.9724945 ], [ -71.5429024, -32.9724834 ], [ -71.5428903, -32.9726011 ], [ -71.5431341, -32.9726187 ], [ -71.5431548, -32.9724162 ], [ -71.5430657, -32.9724098 ] ] ] } },
{ "type": "Feature", "properties": { "osm_id": "way/370634201", "name": null, "source": "OpenStreetMap/Overpass", "building": "yes" }, "geometry": { "type": "Polygon", "coordinates": [ [ [ -71.5433241, -32.9721302 ], [ -71.5433509, -32.9722494 ], [ -71.5436044, -32.9721988 ], [ -71.5435735, -32.9720863 ], [ -71.5433241, -32.9721302 ] ] ] } },
{ "type": "Feature", "properties": { "osm_id": "way/1113723048", "name": null, "source": "OpenStreetMap/Overpass", "building": "apartments" }, "geometry": { "type": "Polygon", "coordinates": [ [ [ -71.5423672, -32.9720548 ], [ -71.5423699, -32.9720285 ], [ -71.5422665, -32.9720211 ], [ -71.542255, -32.9721339 ], [ -71.5423479, -32.9721406 ], [ -71.5423504, -32.9721164 ], [ -71.5424073, -32.9721204 ], [ -71.5424056, -32.9721368 ], [ -71.5424357, -32.972139 ], [ -71.5424437, -32.9720603 ], [ -71.5423672, -32.9720548 ] ] ] } },
{ "type": "Feature", "properties": { "osm_id": "way/370634199", "name": null, "source": "OpenStreetMap/Overpass", "building": "yes" }, "geometry": { "type": "Polygon", "coordinates": [ [ [ -71.5433039, -32.9719343 ], [ -71.543488, -32.9719432 ], [ -71.5435304, -32.9719536 ], [ -71.5435623, -32.9719759 ], [ -71.5435888, -32.97201 ], [ -71.5436048, -32.972059 ], [ -71.5436796, -32.9723055 ], [ -71.5438401, -32.9722668 ], [ -71.5437357, -32.9719447 ], [ -71.5437129, -32.971906 ], [ -71.5436874, -32.9718795 ], [ -71.5436552, -32.9718581 ], [ -71.543619, -32.9718368 ], [ -71.5435794, -32.9718216 ], [ -71.5435318, -32.9718137 ], [ -71.5433216, -32.9718037 ], [ -71.5433039, -32.9719343 ] ] ] } },
{ "type": "Feature", "properties": { "osm_id": "way/1006752895", "name": "Strip Center Palmares", "source": "OpenStreetMap/Overpass", "building": "retail" }, "geometry": { "type": "Polygon", "coordinates": [ [ [ -71.5420101, -32.9718503 ], [ -71.5420179, -32.9717702 ], [ -71.5418977, -32.9717619 ], [ -71.5418867, -32.971875 ], [ -71.5420223, -32.9718843 ], [ -71.5420196, -32.9719121 ], [ -71.5424958, -32.9719447 ], [ -71.5425017, -32.971884 ], [ -71.5420101, -32.9718503 ] ] ] } },
{ "type": "Feature", "properties": { "osm_id": "way/1039676763", "name": "McDonald's", "source": "OpenStreetMap/Overpass", "building": "retail" }, "geometry": { "type": "Polygon", "coordinates": [ [ [ -71.543575, -32.9716342 ], [ -71.5435196, -32.9716316 ], [ -71.543526, -32.9715332 ], [ -71.5434725, -32.9715308 ], [ -71.5434743, -32.9715025 ], [ -71.5434758, -32.9714791 ], [ -71.5433449, -32.9714731 ], [ -71.5433436, -32.9714923 ], [ -71.5433399, -32.9715508 ], [ -71.5432677, -32.9715474 ], [ -71.543262, -32.9716347 ], [ -71.5433178, -32.9716372 ], [ -71.5433188, -32.9716208 ], [ -71.5434019, -32.9716246 ], [ -71.5434009, -32.9716395 ], [ -71.5434752, -32.9716428 ], [ -71.5434732, -32.9716733 ], [ -71.5435722, -32.9716778 ], [ -71.543575, -32.9716342 ] ] ] } },
{ "type": "Feature", "properties": { "osm_id": "way/1007368559", "name": null, "source": "OpenStreetMap/Overpass", "building": "office" }, "geometry": { "type": "Polygon", "coordinates": [ [ [ -71.5430269, -32.9714964 ], [ -71.5429666, -32.9714915 ], [ -71.5429688, -32.9714725 ], [ -71.5428914, -32.9714662 ], [ -71.5428984, -32.9714058 ], [ -71.5427901, -32.9713983 ], [ -71.5427807, -32.971479 ], [ -71.5427461, -32.9714761 ], [ -71.5427352, -32.9715696 ], [ -71.5427842, -32.9715726 ], [ -71.5428138, -32.9715867 ], [ -71.5428458, -32.9715964 ], [ -71.5428794, -32.9716012 ], [ -71.5429263, -32.9715998 ], [ -71.5429715, -32.971589 ], [ -71.5430157, -32.9715926 ], [ -71.5430269, -32.9714964 ] ] ] } },
{ "type": "Feature", "properties": { "osm_id": "way/1007368562", "name": null, "source": "OpenStreetMap/Overpass", "building": "apartments" }, "geometry": { "type": "Polygon", "coordinates": [ [ [ -71.5434351, -32.9713197 ], [ -71.5434146, -32.9712994 ], [ -71.5434422, -32.9712797 ], [ -71.5434122, -32.9712501 ], [ -71.543379, -32.9712739 ], [ -71.5433562, -32.9712513 ], [ -71.5433334, -32.9712676 ], [ -71.5432975, -32.9712321 ], [ -71.5432692, -32.9712523 ], [ -71.5432455, -32.9712289 ], [ -71.5431701, -32.9712827 ], [ -71.5431054, -32.9712189 ], [ -71.5430775, -32.9712388 ], [ -71.5430567, -32.9712182 ], [ -71.5429823, -32.9712712 ], [ -71.5429157, -32.9712055 ], [ -71.5428861, -32.9712266 ], [ -71.5428635, -32.9712042 ], [ -71.5428038, -32.9712468 ], [ -71.5428225, -32.9712653 ], [ -71.5427979, -32.9712828 ], [ -71.5428183, -32.971303 ], [ -71.5427874, -32.971325 ], [ -71.5428161, -32.9713533 ], [ -71.5428707, -32.9713144 ], [ -71.5429363, -32.9713791 ], [ -71.54299, -32.9713409 ], [ -71.5430117, -32.9713623 ], [ -71.5430609, -32.9713272 ], [ -71.5431258, -32.9713913 ], [ -71.5431783, -32.9713538 ], [ -71.5432013, -32.9713765 ], [ -71.5432522, -32.9713403 ], [ -71.5433169, -32.971404 ], [ -71.5434033, -32.9713424 ], [ -71.5434351, -32.9713197 ] ] ] } },
{ "type": "Feature", "properties": { "osm_id": "way/378583889", "name": "Mall Plaza Reñaca", "source": "OpenStreetMap/Overpass", "building": "yes" }, "geometry": { "type": "Polygon", "coordinates": [ [ [ -71.5428793, -32.9707328 ], [ -71.5428373, -32.9711044 ], [ -71.5431048, -32.9711196 ], [ -71.5431663, -32.9711231 ], [ -71.5434297, -32.9711381 ], [ -71.543288, -32.9707674 ], [ -71.5428793, -32.9707328 ] ] ] } },
{ "type": "Feature", "properties": { "osm_id": "way/414284918", "name": "Santa Isabel", "source": "OpenStreetMap/Overpass", "building": "retail" }, "geometry": { "type": "Polygon", "coordinates": [ [ [ -71.5426507, -32.9707599 ], [ -71.5426078, -32.9707102 ], [ -71.5421805, -32.9706762 ], [ -71.5421334, -32.9710003 ], [ -71.542622, -32.9710408 ], [ -71.5426507, -32.9707599 ] ] ] } },
{ "type": "Feature", "properties": { "osm_id": "way/1007368534", "name": null, "source": "OpenStreetMap/Overpass", "building": "retail" }, "geometry": { "type": "Polygon", "coordinates": [ [ [ -71.5430801, -32.9706035 ], [ -71.5431023, -32.9703288 ], [ -71.5432897, -32.9703395 ], [ -71.5432917, -32.9703152 ], [ -71.5432968, -32.9702515 ], [ -71.5432986, -32.9702295 ], [ -71.5432476, -32.9702266 ], [ -71.5432485, -32.9702153 ], [ -71.5431705, -32.9702108 ], [ -71.5431725, -32.9701853 ], [ -71.5430969, -32.970181 ], [ -71.5430973, -32.9701759 ], [ -71.543025, -32.9701718 ], [ -71.5430228, -32.9701981 ], [ -71.5429614, -32.9701937 ], [ -71.5429277, -32.9702541 ], [ -71.5429012, -32.9703169 ], [ -71.5428822, -32.9703816 ], [ -71.5428727, -32.9704338 ], [ -71.542868, -32.9704864 ], [ -71.5428682, -32.9705391 ], [ -71.542897, -32.9705397 ], [ -71.5428957, -32.9705527 ], [ -71.5428916, -32.9705943 ], [ -71.5429674, -32.9705988 ], [ -71.5430801, -32.9706035 ] ] ] } },
{ "type": "Feature", "properties": { "osm_id": "way/1007368557", "name": null, "source": "OpenStreetMap/Overpass", "building": "yes" }, "geometry": { "type": "Polygon", "coordinates": [ [ [ -71.5426724, -32.9704818 ], [ -71.5426821, -32.9703709 ], [ -71.5426539, -32.9703889 ], [ -71.5426375, -32.9703777 ], [ -71.5426268, -32.9704024 ], [ -71.5425939, -32.9704036 ], [ -71.5425939, -32.9703918 ], [ -71.5425657, -32.9703912 ], [ -71.5425443, -32.9704131 ], [ -71.5425342, -32.9704126 ], [ -71.5425282, -32.9704024 ], [ -71.5425027, -32.9704002 ], [ -71.5425007, -32.9704103 ], [ -71.5424873, -32.9704092 ], [ -71.5424853, -32.9704171 ], [ -71.5424316, -32.9704159 ], [ -71.5423914, -32.970403 ], [ -71.5423901, -32.9704311 ], [ -71.5422606, -32.9704272 ], [ -71.5422633, -32.9703873 ], [ -71.5422546, -32.9703867 ], [ -71.54226, -32.9703276 ], [ -71.5422895, -32.9703265 ], [ -71.5423029, -32.9703198 ], [ -71.5423009, -32.9702995 ], [ -71.5423123, -32.9702995 ], [ -71.5423156, -32.9703276 ], [ -71.5423016, -32.9703501 ], [ -71.5423418, -32.9703456 ], [ -71.5423478, -32.9703625 ], [ -71.5423666, -32.9703355 ], [ -71.5424088, -32.9703321 ], [ -71.5424109, -32.9703513 ], [ -71.542431, -32.9703265 ], [ -71.5424719, -32.9703214 ], [ -71.5424752, -32.9703389 ], [ -71.5424994, -32.9703153 ], [ -71.5425302, -32.9703136 ], [ -71.5425342, -32.970331 ], [ -71.5425557, -32.9703102 ], [ -71.5425966, -32.9703046 ], [ -71.5425993, -32.9703231 ], [ -71.5426442, -32.9702866 ], [ -71.5426496, -32.9701994 ], [ -71.5422124, -32.9702674 ], [ -71.5422124, -32.970286 ], [ -71.5421963, -32.970286 ], [ -71.5421976, -32.9702635 ], [ -71.5421554, -32.9702635 ], [ -71.5421292, -32.9704835 ], [ -71.5421534, -32.9704846 ], [ -71.542156, -32.970515 ], [ -71.5421916, -32.9705172 ], [ -71.542199, -32.9705358 ], [ -71.542215, -32.9705228 ], [ -71.5422526, -32.970524 ], [ -71.5422667, -32.9705397 ], [ -71.5422808, -32.9705268 ], [ -71.5423203, -32.9705285 ], [ -71.5423311, -32.9705437 ], [ -71.5423451, -32.9705279 ], [ -71.5423827, -32.970529 ], [ -71.5423914, -32.9705465 ], [ -71.5424122, -32.9705346 ], [ -71.5424524, -32.9705346 ], [ -71.5424551, -32.9705493 ], [ -71.5424739, -32.9705358 ], [ -71.5425208, -32.970538 ], [ -71.5425262, -32.970556 ], [ -71.5425423, -32.9705425 ], [ -71.5425785, -32.9705448 ], [ -71.5425919, -32.9705617 ], [ -71.5426187, -32.9705436 ], [ -71.5426254, -32.9704604 ], [ -71.5426724, -32.9704818 ] ] ] } },
{ "type": "Feature", "properties": { "osm_id": "way/1007650321", "name": null, "source": "OpenStreetMap/Overpass", "building": "apartments" }, "geometry": { "type": "Polygon", "coordinates": [ [ [ -71.5421965, -32.9699076 ], [ -71.5421914, -32.9699856 ], [ -71.5423975, -32.969995 ], [ -71.5424026, -32.9699171 ], [ -71.5421965, -32.9699076 ] ] ] } },
{ "type": "Feature", "properties": { "osm_id": "way/1117255531", "name": null, "source": "OpenStreetMap/Overpass", "building": "apartments" }, "geometry": { "type": "Polygon", "coordinates": [ [ [ -71.5417682, -32.9719243 ], [ -71.5417515, -32.9720651 ], [ -71.5419471, -32.9720815 ], [ -71.5419638, -32.9719407 ], [ -71.5417682, -32.9719243 ] ] ] } },
{ "type": "Feature", "properties": { "osm_id": "way/1082398948", "name": "Edificio Praia", "source": "OpenStreetMap/Overpass", "building": "apartments" }, "geometry": { "type": "Polygon", "coordinates": [ [ [ -71.5407895, -32.9719412 ], [ -71.5407821, -32.9720014 ], [ -71.541235, -32.9720405 ], [ -71.5412424, -32.9719803 ], [ -71.5407895, -32.9719412 ] ] ] } },
{ "type": "Feature", "properties": { "osm_id": "way/1117255530", "name": null, "source": "OpenStreetMap/Overpass", "building": "apartments" }, "geometry": { "type": "Polygon", "coordinates": [ [ [ -71.5415181, -32.9719086 ], [ -71.5415013, -32.9720494 ], [ -71.5416969, -32.9720657 ], [ -71.5417137, -32.9719249 ], [ -71.5415181, -32.9719086 ] ] ] } },
{ "type": "Feature", "properties": { "osm_id": "way/1117255532", "name": null, "source": "OpenStreetMap/Overpass", "building": "apartments" }, "geometry": { "type": "Polygon", "coordinates": [ [ [ -71.5412361, -32.9718669 ], [ -71.5412531, -32.9718679 ], [ -71.5412561, -32.9718326 ], [ -71.5408477, -32.9718076 ], [ -71.5408451, -32.9718376 ], [ -71.5408644, -32.9718387 ], [ -71.5408612, -32.971875 ], [ -71.5412334, -32.9718978 ], [ -71.5412361, -32.9718669 ] ] ] } },
{ "type": "Feature", "properties": { "osm_id": "way/1117255533", "name": "Edificio Puerto Rosales", "source": "OpenStreetMap/Overpass", "building": "apartments" }, "geometry": { "type": "Polygon", "coordinates": [ [ [ -71.5415106, -32.9716342 ], [ -71.5414995, -32.9717902 ], [ -71.541618, -32.9717961 ], [ -71.541629, -32.9716401 ], [ -71.5415106, -32.9716342 ] ] ] } },
{ "type": "Feature", "properties": { "osm_id": "way/1007368556", "name": null, "source": "OpenStreetMap/Overpass", "building": "apartments" }, "geometry": { "type": "Polygon", "coordinates": [ [ [ -71.5412752, -32.9712871 ], [ -71.5412937, -32.9712881 ], [ -71.541298, -32.9712294 ], [ -71.5412822, -32.9712286 ], [ -71.5412861, -32.9711745 ], [ -71.5413083, -32.9711757 ], [ -71.5413144, -32.9710919 ], [ -71.5411043, -32.9710811 ], [ -71.5411029, -32.9710998 ], [ -71.5410663, -32.971098 ], [ -71.5410604, -32.9711786 ], [ -71.541089, -32.9711801 ], [ -71.541088, -32.9711949 ], [ -71.5411606, -32.9711987 ], [ -71.541158, -32.9712352 ], [ -71.5411407, -32.9712343 ], [ -71.541139, -32.9712566 ], [ -71.5411526, -32.9712573 ], [ -71.5411491, -32.9713056 ], [ -71.5410729, -32.9713017 ], [ -71.5410713, -32.9713243 ], [ -71.5410372, -32.9713225 ], [ -71.541032, -32.9713939 ], [ -71.5410665, -32.9713957 ], [ -71.5410646, -32.9714218 ], [ -71.5412734, -32.9714325 ], [ -71.54128, -32.971342 ], [ -71.5412712, -32.9713416 ], [ -71.5412715, -32.9713379 ], [ -71.5412752, -32.9712871 ] ] ] } },
{ "type": "Feature", "properties": { "osm_id": "way/660635990", "name": null, "source": "OpenStreetMap/Overpass", "building": "apartments" }, "geometry": { "type": "Polygon", "coordinates": [ [ [ -71.5405157, -32.9713605 ], [ -71.5405547, -32.970954 ], [ -71.540455425421371, -32.970947325488346 ], [ -71.540467166043825, -32.971357232046955 ], [ -71.5405157, -32.9713605 ] ] ] } },
{ "type": "Feature", "properties": { "osm_id": "way/1007650320", "name": null, "source": "OpenStreetMap/Overpass", "building": "apartments" }, "geometry": { "type": "Polygon", "coordinates": [ [ [ -71.5424078, -32.9698948 ], [ -71.5424013, -32.9699905 ], [ -71.5425836, -32.9699992 ], [ -71.5425869, -32.9699508 ], [ -71.5425782, -32.9699503 ], [ -71.5425814, -32.9699031 ], [ -71.5424078, -32.9698948 ] ] ] } },
{ "type": "Feature", "properties": { "osm_id": "way/1007650324", "name": null, "source": "OpenStreetMap/Overpass", "building": "apartments" }, "geometry": { "type": "Polygon", "coordinates": [ [ [ -71.5420102, -32.9698986 ], [ -71.5420041, -32.9699852 ], [ -71.542065, -32.9699882 ], [ -71.5420662, -32.9699703 ], [ -71.5421221, -32.969973 ], [ -71.5421209, -32.9699905 ], [ -71.5421888, -32.9699939 ], [ -71.5421948, -32.9699078 ], [ -71.5420102, -32.9698986 ] ] ] } },
{ "type": "Feature", "properties": { "osm_id": "way/1007650323", "name": null, "source": "OpenStreetMap/Overpass", "building": "apartments" }, "geometry": { "type": "Polygon", "coordinates": [ [ [ -71.5418067, -32.9698925 ], [ -71.5418063, -32.9698995 ], [ -71.5418021, -32.9699744 ], [ -71.5418254, -32.9699753 ], [ -71.5418259, -32.9699659 ], [ -71.5419287, -32.96997 ], [ -71.5419282, -32.9699787 ], [ -71.541998, -32.9699814 ], [ -71.5420026, -32.9699003 ], [ -71.5418067, -32.9698925 ] ] ] } },
{ "type": "Feature", "properties": { "osm_id": "way/1018824867", "name": null, "source": "OpenStreetMap/Overpass", "building": "yes" }, "geometry": { "type": "Polygon", "coordinates": [ [ [ -71.5436542, -32.9699458 ], [ -71.5436626, -32.9699403 ], [ -71.54353, -32.9697971 ], [ -71.5434854, -32.9698261 ], [ -71.5434748, -32.9698148 ], [ -71.5434088, -32.9698578 ], [ -71.5436082, -32.9700733 ], [ -71.5437105, -32.9700066 ], [ -71.5436542, -32.9699458 ] ] ] } },
{ "type": "Feature", "properties": { "osm_id": "way/414284917", "name": null, "source": "OpenStreetMap/Overpass", "building": "yes" }, "geometry": { "type": "Polygon", "coordinates": [ [ [ -71.5430459, -32.9697205 ], [ -71.5431914, -32.969909 ], [ -71.5435086, -32.9700917 ], [ -71.5435562, -32.970062 ], [ -71.5431628, -32.9696512 ], [ -71.5430459, -32.9697205 ] ] ] } },
{ "type": "Feature", "properties": { "osm_id": "way/1018824871", "name": null, "source": "OpenStreetMap/Overpass", "building": "yes" }, "geometry": { "type": "Polygon", "coordinates": [ [ [ -71.5433525, -32.9695441 ], [ -71.5433995, -32.9695865 ], [ -71.5434135, -32.9695755 ], [ -71.5434595, -32.9696169 ], [ -71.5435164, -32.9695725 ], [ -71.5435456, -32.9695988 ], [ -71.5436053, -32.9695523 ], [ -71.5435367, -32.9694904 ], [ -71.5434832, -32.9694421 ], [ -71.5433525, -32.9695441 ] ] ] } },
{ "type": "Feature", "properties": { "osm_id": "way/1007650318", "name": null, "source": "OpenStreetMap/Overpass", "building": "apartments" }, "geometry": { "type": "Polygon", "coordinates": [ [ [ -71.5418231, -32.9691392 ], [ -71.5417758, -32.9692144 ], [ -71.5421278, -32.96937 ], [ -71.5422198, -32.9692236 ], [ -71.5419148, -32.9690887 ], [ -71.54187, -32.96916 ], [ -71.5418231, -32.9691392 ] ] ] } },
{ "type": "Feature", "properties": { "osm_id": "way/956332994", "name": null, "source": "OpenStreetMap/Overpass", "building": "yes" }, "geometry": { "type": "Polygon", "coordinates": [ [ [ -71.5417004, -32.9610295 ], [ -71.5421119, -32.9609994 ], [ -71.5421103, -32.9609838 ], [ -71.5422526, -32.9609734 ], [ -71.5422446, -32.9608971 ], [ -71.5416909, -32.9609377 ], [ -71.5417004, -32.9610295 ] ] ] } },
{ "type": "Feature", "properties": { "osm_id": "way/316974360", "name": null, "source": "OpenStreetMap/Overpass", "building": "apartments" }, "geometry": { "type": "Polygon", "coordinates": [ [ [ -71.5430223, -32.9586293 ], [ -71.5431743, -32.9586282 ], [ -71.543169156642094, -32.958106779961753 ], [ -71.543017079716677, -32.958109881809612 ], [ -71.5430223, -32.9586293 ] ] ] } },
{ "type": "Feature", "properties": { "osm_id": "way/1007650325", "name": null, "source": "OpenStreetMap/Overpass", "building": "apartments" }, "geometry": { "type": "Polygon", "coordinates": [ [ [ -71.5418063, -32.9698995 ], [ -71.5417233, -32.9698965 ], [ -71.5417224, -32.9699142 ], [ -71.5415824, -32.9699092 ], [ -71.541583, -32.9698968 ], [ -71.5415212, -32.9698945 ], [ -71.5415167, -32.9699747 ], [ -71.5415165, -32.9699778 ], [ -71.5415495, -32.969979 ], [ -71.5415491, -32.9699875 ], [ -71.5415863, -32.9699888 ], [ -71.5415866, -32.9699812 ], [ -71.5416192, -32.9699824 ], [ -71.5416184, -32.9699983 ], [ -71.5416881, -32.9700008 ], [ -71.5416888, -32.9699858 ], [ -71.5417183, -32.9699869 ], [ -71.5417178, -32.969997 ], [ -71.5417586, -32.9699984 ], [ -71.5417592, -32.9699866 ], [ -71.5418016, -32.9699881 ], [ -71.5418021, -32.9699744 ], [ -71.5418063, -32.9698995 ] ] ] } },
{ "type": "Feature", "properties": { "osm_id": "way/1007650326", "name": null, "source": "OpenStreetMap/Overpass", "building": "apartments" }, "geometry": { "type": "Polygon", "coordinates": [ [ [ -71.5415212, -32.9698945 ], [ -71.5415216, -32.9698862 ], [ -71.5414388, -32.9698832 ], [ -71.5414379, -32.9699009 ], [ -71.5412979, -32.9698959 ], [ -71.5412985, -32.9698835 ], [ -71.5412363, -32.9698812 ], [ -71.541232, -32.9699645 ], [ -71.541265, -32.9699657 ], [ -71.5412646, -32.9699742 ], [ -71.5413018, -32.9699755 ], [ -71.5413022, -32.9699679 ], [ -71.5413347, -32.9699691 ], [ -71.5413339, -32.969985 ], [ -71.5414036, -32.9699875 ], [ -71.5414043, -32.9699725 ], [ -71.5414338, -32.9699736 ], [ -71.5414333, -32.9699837 ], [ -71.5414741, -32.9699852 ], [ -71.5414747, -32.9699733 ], [ -71.5415167, -32.9699747 ], [ -71.5415212, -32.9698945 ] ] ] } },
{ "type": "Feature", "properties": { "osm_id": "way/1007650327", "name": null, "source": "OpenStreetMap/Overpass", "building": "apartments" }, "geometry": { "type": "Polygon", "coordinates": [ [ [ -71.5419606, -32.9689509 ], [ -71.5420096, -32.9688689 ], [ -71.5417482, -32.968759 ], [ -71.5417091, -32.9688243 ], [ -71.5416626, -32.9688048 ], [ -71.5416209, -32.9688745 ], [ -71.5415818, -32.9688581 ], [ -71.5415347, -32.9689369 ], [ -71.5417999, -32.9690485 ], [ -71.5418386, -32.9689836 ], [ -71.5418785, -32.9690003 ], [ -71.5419186, -32.9689332 ], [ -71.5419606, -32.9689509 ] ] ] } },
{ "type": "Feature", "properties": { "osm_id": "way/1159396551", "name": "Edificio Torre Albamar 2", "source": "OpenStreetMap/Overpass", "building": "apartments" }, "geometry": { "type": "Polygon", "coordinates": [ [ [ -71.5401715, -32.9606794 ], [ -71.5402336, -32.9606742 ], [ -71.5403405, -32.9605593 ], [ -71.5403927, -32.9604997 ], [ -71.5404399, -32.9604281 ], [ -71.5403892, -32.9603463 ], [ -71.5403315, -32.9603278 ], [ -71.5402481, -32.960377 ], [ -71.5401972, -32.9604673 ], [ -71.540156493193265, -32.960510546572834 ], [ -71.540161148511046, -32.960673080143586 ], [ -71.5401715, -32.9606794 ] ] ] } },
{ "type": "Feature", "properties": { "osm_id": "way/184070034", "name": "Edificio Torre Albamar 1", "source": "OpenStreetMap/Overpass", "building": "apartments" }, "geometry": { "type": "Polygon", "coordinates": [ [ [ -71.5411105, -32.9603051 ], [ -71.5410271, -32.9603543 ], [ -71.5409762, -32.9604446 ], [ -71.5409185, -32.9605059 ], [ -71.5408692, -32.9605669 ], [ -71.5408935, -32.9606219 ], [ -71.5409505, -32.9606567 ], [ -71.5410126, -32.9606515 ], [ -71.5411195, -32.9605366 ], [ -71.5411717, -32.960477 ], [ -71.5412189, -32.9604054 ], [ -71.5411682, -32.9603236 ], [ -71.5411105, -32.9603051 ] ] ] } },
{ "type": "Feature", "properties": { "osm_id": "way/690539175", "name": null, "source": "OpenStreetMap/Overpass", "building": "yes" }, "geometry": { "type": "Polygon", "coordinates": [ [ [ -71.540303, -32.9582714 ], [ -71.5403152, -32.9584822 ], [ -71.5402465, -32.958485 ], [ -71.540254, -32.9586135 ], [ -71.5406677, -32.9585966 ], [ -71.540648, -32.9582573 ], [ -71.540303, -32.9582714 ] ] ] } },
{ "type": "Feature", "properties": { "osm_id": "way/1375959933", "name": null, "source": "OpenStreetMap/Overpass", "building": "church" }, "geometry": { "type": "Polygon", "coordinates": [ [ [ -71.5447362, -32.9740612 ], [ -71.5447077, -32.973991 ], [ -71.544656, -32.9739402 ], [ -71.5445901, -32.9739088 ], [ -71.5445206, -32.9738953 ], [ -71.5444315, -32.9739028 ], [ -71.5443459, -32.9739387 ], [ -71.5444475, -32.9740777 ], [ -71.54464, -32.9741509 ], [ -71.5447415, -32.9741375 ], [ -71.5447362, -32.9740612 ] ] ] } },
{ "type": "Feature", "properties": { "osm_id": "way/335370489", "name": "San Expedito", "source": "OpenStreetMap/Overpass", "building": "no" }, "geometry": { "type": "Polygon", "coordinates": [ [ [ -71.5449617, -32.974028 ], [ -71.5446192, -32.9738387 ], [ -71.5443863, -32.9736235 ], [ -71.5442276, -32.9737203 ], [ -71.5441276, -32.9737813 ], [ -71.5442949, -32.9740705 ], [ -71.544157, -32.9742786 ], [ -71.5446895, -32.9744092 ], [ -71.5447497, -32.9743645 ], [ -71.5448047, -32.9743825 ], [ -71.5450488, -32.9740675 ], [ -71.5449617, -32.974028 ] ] ] } },
{ "type": "Feature", "properties": { "osm_id": "way/1006752890", "name": null, "source": "OpenStreetMap/Overpass", "building": "retail" }, "geometry": { "type": "Polygon", "coordinates": [ [ [ -71.5443883, -32.9732449 ], [ -71.5444324, -32.9733274 ], [ -71.5444849, -32.9734065 ], [ -71.5445346, -32.9734693 ], [ -71.5445896, -32.973529 ], [ -71.5446496, -32.9735852 ], [ -71.5447142, -32.9736377 ], [ -71.544788, -32.9735769 ], [ -71.5447699, -32.9735606 ], [ -71.5447886, -32.9735437 ], [ -71.5446512, -32.9734149 ], [ -71.544629, -32.9734273 ], [ -71.544617, -32.9734127 ], [ -71.5446545, -32.9733823 ], [ -71.5444547, -32.973128 ], [ -71.5443528, -32.9731595 ], [ -71.5443883, -32.9732449 ] ] ] } },
{ "type": "Feature", "properties": { "osm_id": "way/1039677296", "name": null, "source": "OpenStreetMap/Overpass", "building": "retail" }, "geometry": { "type": "Polygon", "coordinates": [ [ [ -71.5437144, -32.9726814 ], [ -71.5438955, -32.9726836 ], [ -71.5438968, -32.9726442 ], [ -71.5439478, -32.9726408 ], [ -71.5438995, -32.9724878 ], [ -71.5437345, -32.9724833 ], [ -71.5437144, -32.9726814 ] ] ] } },
{ "type": "Feature", "properties": { "osm_id": "way/1039677297", "name": null, "source": "OpenStreetMap/Overpass", "building": "commercial" }, "geometry": { "type": "Polygon", "coordinates": [ [ [ -71.54414, -32.9726544 ], [ -71.544266, -32.9726263 ], [ -71.5442424, -32.972552 ], [ -71.5442154, -32.972558 ], [ -71.5442004, -32.9725108 ], [ -71.5441015, -32.9725329 ], [ -71.54414, -32.9726544 ] ] ] } },
{ "type": "Feature", "properties": { "osm_id": "way/1038762589", "name": "Edificio Las Olas", "source": "OpenStreetMap/Overpass", "building": "apartments" }, "geometry": { "type": "Polygon", "coordinates": [ [ [ -71.5442449, -32.9722277 ], [ -71.5442722, -32.9723403 ], [ -71.5444445, -32.9723109 ], [ -71.5444172, -32.9721983 ], [ -71.5442449, -32.9722277 ] ] ] } },
{ "type": "Feature", "properties": { "osm_id": "way/1114703587", "name": null, "source": "OpenStreetMap/Overpass", "building": "apartments" }, "geometry": { "type": "Polygon", "coordinates": [ [ [ -71.5445418, -32.9721956 ], [ -71.5445596, -32.9722532 ], [ -71.5446881, -32.9722254 ], [ -71.5446703, -32.9721678 ], [ -71.5445418, -32.9721956 ] ] ] } },
{ "type": "Feature", "properties": { "osm_id": "way/1039677298", "name": "Edificio Centromar", "source": "OpenStreetMap/Overpass", "building": "office" }, "geometry": { "type": "Polygon", "coordinates": [ [ [ -71.5441937, -32.9724001 ], [ -71.5441151, -32.9721556 ], [ -71.5440844, -32.9721626 ], [ -71.5440388, -32.9720209 ], [ -71.5440574, -32.9720167 ], [ -71.5440421, -32.9719692 ], [ -71.5439695, -32.9719856 ], [ -71.5439844, -32.9720317 ], [ -71.5439541, -32.9720385 ], [ -71.5440788, -32.9724261 ], [ -71.5441937, -32.9724001 ] ] ] } },
{ "type": "Feature", "properties": { "osm_id": "way/1038762593", "name": null, "source": "OpenStreetMap/Overpass", "building": "apartments" }, "geometry": { "type": "Polygon", "coordinates": [ [ [ -71.5447415, -32.9712031 ], [ -71.5447459, -32.9714636 ], [ -71.5448693, -32.9714621 ], [ -71.5448649, -32.9712017 ], [ -71.5447415, -32.9712031 ] ] ] } },
{ "type": "Feature", "properties": { "osm_id": "way/1038762592", "name": null, "source": "OpenStreetMap/Overpass", "building": "apartments" }, "geometry": { "type": "Polygon", "coordinates": [ [ [ -71.5443803, -32.9712079 ], [ -71.5443854, -32.9712782 ], [ -71.5446092, -32.9712669 ], [ -71.5446141, -32.9713354 ], [ -71.544689, -32.9713316 ], [ -71.544679, -32.9711927 ], [ -71.5443803, -32.9712079 ] ] ] } },
{ "type": "Feature", "properties": { "osm_id": "way/1038762591", "name": null, "source": "OpenStreetMap/Overpass", "building": "apartments" }, "geometry": { "type": "Polygon", "coordinates": [ [ [ -71.5444761, -32.970884 ], [ -71.5443556, -32.9708912 ], [ -71.5443669, -32.9710235 ], [ -71.5444874, -32.9710163 ], [ -71.5444761, -32.970884 ] ] ] } },
{ "type": "Feature", "properties": { "osm_id": "way/1038762594", "name": "Delirio", "source": "OpenStreetMap/Overpass", "building": "retail" }, "geometry": { "type": "Polygon", "coordinates": [ [ [ -71.5444275, -32.9705044 ], [ -71.5444114, -32.9705195 ], [ -71.5443671, -32.9704861 ], [ -71.5443131, -32.9705365 ], [ -71.5443551, -32.9705681 ], [ -71.5443142, -32.9706063 ], [ -71.5443629, -32.970643 ], [ -71.5444059, -32.9706028 ], [ -71.5444242, -32.9706166 ], [ -71.5444627, -32.9705806 ], [ -71.544441, -32.9705644 ], [ -71.5444705, -32.9705368 ], [ -71.5444275, -32.9705044 ] ] ] } },
{ "type": "Feature", "properties": { "osm_id": "way/1038762590", "name": null, "source": "OpenStreetMap/Overpass", "building": "apartments" }, "geometry": { "type": "Polygon", "coordinates": [ [ [ -71.5439618, -32.9702787 ], [ -71.5439652, -32.9702972 ], [ -71.5439035, -32.9703226 ], [ -71.5439343, -32.9704092 ], [ -71.5439571, -32.9704036 ], [ -71.5439746, -32.9704283 ], [ -71.5440497, -32.9704047 ], [ -71.5440477, -32.9703833 ], [ -71.5441275, -32.9703771 ], [ -71.5441107, -32.9702551 ], [ -71.5439618, -32.9702787 ] ] ] } },
{ "type": "Feature", "properties": { "osm_id": "way/1018824859", "name": null, "source": "OpenStreetMap/Overpass", "building": "commercial" }, "geometry": { "type": "Polygon", "coordinates": [ [ [ -71.5437687, -32.9703248 ], [ -71.5437573, -32.9703169 ], [ -71.5438083, -32.9702787 ], [ -71.5437239, -32.9702077 ], [ -71.543638, -32.9702567 ], [ -71.5437064, -32.9702882 ], [ -71.5436909, -32.9703062 ], [ -71.5437526, -32.9703434 ], [ -71.5437687, -32.9703248 ] ] ] } },
{ "type": "Feature", "properties": { "osm_id": "way/1018824860", "name": null, "source": "OpenStreetMap/Overpass", "building": "commercial" }, "geometry": { "type": "Polygon", "coordinates": [ [ [ -71.5437811, -32.9701194 ], [ -71.5436729, -32.970166 ], [ -71.5437239, -32.9702077 ], [ -71.5438083, -32.9702787 ], [ -71.5438884, -32.9702293 ], [ -71.5437811, -32.9701194 ] ] ] } },
{ "type": "Feature", "properties": { "osm_id": "way/1018824865", "name": null, "source": "OpenStreetMap/Overpass", "building": "yes" }, "geometry": { "type": "Polygon", "coordinates": [ [ [ -71.544627, -32.9702842 ], [ -71.5446261, -32.9700485 ], [ -71.544542, -32.9700488 ], [ -71.544543, -32.9702844 ], [ -71.544627, -32.9702842 ] ] ] } },
{ "type": "Feature", "properties": { "osm_id": "way/1018824861", "name": null, "source": "OpenStreetMap/Overpass", "building": "yes" }, "geometry": { "type": "Polygon", "coordinates": [ [ [ -71.5440161, -32.9700648 ], [ -71.5438589, -32.9701258 ], [ -71.5439159, -32.9702293 ], [ -71.5440732, -32.9701683 ], [ -71.5440161, -32.9700648 ] ] ] } },
{ "type": "Feature", "properties": { "osm_id": "way/1018824866", "name": null, "source": "OpenStreetMap/Overpass", "building": "apartments" }, "geometry": { "type": "Polygon", "coordinates": [ [ [ -71.5448458, -32.9702593 ], [ -71.544856, -32.9698879 ], [ -71.5447167, -32.9698852 ], [ -71.5447065, -32.9702566 ], [ -71.5448458, -32.9702593 ] ] ] } },
{ "type": "Feature", "properties": { "osm_id": "way/1018824862", "name": null, "source": "OpenStreetMap/Overpass", "building": "commercial" }, "geometry": { "type": "Polygon", "coordinates": [ [ [ -71.5444265, -32.9699035 ], [ -71.5443729, -32.9698742 ], [ -71.5441945, -32.9699485 ], [ -71.5441751, -32.9699935 ], [ -71.5442337, -32.970106 ], [ -71.5443103, -32.9700757 ], [ -71.5443247, -32.9701 ], [ -71.5444873, -32.9700319 ], [ -71.5444265, -32.9699035 ] ] ] } },
{ "type": "Feature", "properties": { "osm_id": "way/1018824863", "name": null, "source": "OpenStreetMap/Overpass", "building": "commercial" }, "geometry": { "type": "Polygon", "coordinates": [ [ [ -71.5445153, -32.9700108 ], [ -71.5445871, -32.969982 ], [ -71.5445023, -32.9698332 ], [ -71.5444306, -32.969862 ], [ -71.5445153, -32.9700108 ] ] ] } },
{ "type": "Feature", "properties": { "osm_id": "way/1018824868", "name": null, "source": "OpenStreetMap/Overpass", "building": "commercial" }, "geometry": { "type": "Polygon", "coordinates": [ [ [ -71.5437904, -32.9698611 ], [ -71.543771, -32.9698701 ], [ -71.5437649, -32.9698628 ], [ -71.5437394, -32.9698341 ], [ -71.5437542, -32.9698273 ], [ -71.543712, -32.9697891 ], [ -71.5437026, -32.9697958 ], [ -71.5436302, -32.9697151 ], [ -71.5435382, -32.9697719 ], [ -71.5436744, -32.9699235 ], [ -71.5436677, -32.9699308 ], [ -71.5436892, -32.9699511 ], [ -71.5436744, -32.969959 ], [ -71.5437126, -32.9699809 ], [ -71.5438548, -32.9699252 ], [ -71.5437904, -32.9698611 ] ] ] } },
{ "type": "Feature", "properties": { "osm_id": "way/738667633", "name": null, "source": "OpenStreetMap/Overpass", "building": "yes" }, "geometry": { "type": "Polygon", "coordinates": [ [ [ -71.5438341, -32.9697361 ], [ -71.5437428, -32.969793 ], [ -71.5438183, -32.9698784 ], [ -71.5439098, -32.9698216 ], [ -71.5438341, -32.9697361 ] ] ] } },
{ "type": "Feature", "properties": { "osm_id": "way/1018824864", "name": null, "source": "OpenStreetMap/Overpass", "building": "yes" }, "geometry": { "type": "Polygon", "coordinates": [ [ [ -71.5448456, -32.9696255 ], [ -71.5445962, -32.9697881 ], [ -71.544615, -32.9698427 ], [ -71.5448792, -32.9698202 ], [ -71.5448892, -32.9696345 ], [ -71.5448456, -32.9696255 ] ] ] } },
{ "type": "Feature", "properties": { "osm_id": "way/1018824880", "name": null, "source": "OpenStreetMap/Overpass", "building": "commercial" }, "geometry": { "type": "Polygon", "coordinates": [ [ [ -71.5441778, -32.9698159 ], [ -71.543919, -32.9695492 ], [ -71.5437795, -32.969628 ], [ -71.5440236, -32.9698766 ], [ -71.5441778, -32.9698159 ] ] ] } },
{ "type": "Feature", "properties": { "osm_id": "way/1018824881", "name": null, "source": "OpenStreetMap/Overpass", "building": "retail" }, "geometry": { "type": "Polygon", "coordinates": [ [ [ -71.5445117, -32.9695985 ], [ -71.5443937, -32.9694804 ], [ -71.5442381, -32.9695963 ], [ -71.5441662, -32.9695268 ], [ -71.5441266, -32.9694852 ], [ -71.5439954, -32.9695631 ], [ -71.5441871, -32.9697476 ], [ -71.5445117, -32.9695985 ] ] ] } },
{ "type": "Feature", "properties": { "osm_id": "way/1018824879", "name": null, "source": "OpenStreetMap/Overpass", "building": "yes" }, "geometry": { "type": "Polygon", "coordinates": [ [ [ -71.5442283, -32.9693322 ], [ -71.5440773, -32.9694334 ], [ -71.5441266, -32.9694852 ], [ -71.5441662, -32.9695268 ], [ -71.5442164, -32.9694932 ], [ -71.5442352, -32.9695129 ], [ -71.544336, -32.9694454 ], [ -71.5442283, -32.9693322 ] ] ] } },
{ "type": "Feature", "properties": { "osm_id": "way/1018824872", "name": null, "source": "OpenStreetMap/Overpass", "building": "yes" }, "geometry": { "type": "Polygon", "coordinates": [ [ [ -71.5435274, -32.9694005 ], [ -71.5435714, -32.9694376 ], [ -71.5435612, -32.969446 ], [ -71.5435933, -32.9694731 ], [ -71.5436847, -32.969397 ], [ -71.5437056, -32.9694146 ], [ -71.5437396, -32.9693863 ], [ -71.543705, -32.969357 ], [ -71.5436427, -32.9693044 ], [ -71.5435274, -32.9694005 ] ] ] } },
{ "type": "Feature", "properties": { "osm_id": "way/1018824878", "name": null, "source": "OpenStreetMap/Overpass", "building": "apartments" }, "geometry": { "type": "Polygon", "coordinates": [ [ [ -71.544637, -32.969548 ], [ -71.544639, -32.9695138 ], [ -71.5446553, -32.9695145 ], [ -71.5446596, -32.9694405 ], [ -71.5446036, -32.9694382 ], [ -71.5446054, -32.9694067 ], [ -71.5445915, -32.9694061 ], [ -71.5445927, -32.9693855 ], [ -71.5445841, -32.9693851 ], [ -71.5445846, -32.9693756 ], [ -71.5445389, -32.9693737 ], [ -71.5445393, -32.9693666 ], [ -71.5445175, -32.9693657 ], [ -71.5445205, -32.9693132 ], [ -71.544513, -32.9693129 ], [ -71.5445136, -32.9693035 ], [ -71.5444713, -32.9693017 ], [ -71.5444735, -32.9692639 ], [ -71.5444579, -32.9692632 ], [ -71.5444587, -32.9692502 ], [ -71.5444516, -32.9692499 ], [ -71.5444523, -32.9692385 ], [ -71.5444269, -32.9692374 ], [ -71.544428, -32.9692179 ], [ -71.544391, -32.9692163 ], [ -71.5443899, -32.9692349 ], [ -71.5443673, -32.9692339 ], [ -71.5443667, -32.9692434 ], [ -71.5443519, -32.9692428 ], [ -71.5443486, -32.9692999 ], [ -71.5444091, -32.9693024 ], [ -71.544405, -32.9693724 ], [ -71.5444835, -32.9693757 ], [ -71.5444799, -32.9694382 ], [ -71.5445095, -32.9694394 ], [ -71.5445066, -32.9694895 ], [ -71.5445382, -32.9694908 ], [ -71.5445372, -32.9695075 ], [ -71.5445643, -32.9695086 ], [ -71.5445622, -32.9695449 ], [ -71.544637, -32.969548 ] ] ] } },
{ "type": "Feature", "properties": { "osm_id": "way/1018824877", "name": null, "source": "OpenStreetMap/Overpass", "building": "commercial" }, "geometry": { "type": "Polygon", "coordinates": [ [ [ -71.5448584, -32.9693755 ], [ -71.5447933, -32.9693203 ], [ -71.5448129, -32.969304 ], [ -71.5447763, -32.969273 ], [ -71.5447823, -32.969268 ], [ -71.5447429, -32.9692346 ], [ -71.5446308, -32.9693277 ], [ -71.5447719, -32.9694473 ], [ -71.5448584, -32.9693755 ] ] ] } },
{ "type": "Feature", "properties": { "osm_id": "way/1018824876", "name": null, "source": "OpenStreetMap/Overpass", "building": "yes" }, "geometry": { "type": "Polygon", "coordinates": [ [ [ -71.5447171, -32.9692139 ], [ -71.544652, -32.9691518 ], [ -71.5446824, -32.9691294 ], [ -71.5446, -32.9690507 ], [ -71.5444923, -32.9691301 ], [ -71.5445051, -32.9691424 ], [ -71.5444924, -32.9691518 ], [ -71.5445161, -32.9691744 ], [ -71.5444687, -32.9692093 ], [ -71.5445432, -32.9692803 ], [ -71.5446019, -32.9693364 ], [ -71.5446432, -32.9693059 ], [ -71.544621, -32.9692847 ], [ -71.5447171, -32.9692139 ] ] ] } },
{ "type": "Feature", "properties": { "osm_id": "way/135680581", "name": "Terraza Sector 1", "source": "OpenStreetMap/Overpass", "building": "yes" }, "geometry": { "type": "Polygon", "coordinates": [ [ [ -71.5451712, -32.9717799 ], [ -71.5451711, -32.9718606 ], [ -71.5452589, -32.9718608 ], [ -71.5452591, -32.97178 ], [ -71.5451712, -32.9717799 ] ] ] } },
{ "type": "Feature", "properties": { "osm_id": "way/135680575", "name": "Terraza de Mar", "source": "OpenStreetMap/Overpass", "building": "yes" }, "geometry": { "type": "Polygon", "coordinates": [ [ [ -71.5453282, -32.9694 ], [ -71.5453054, -32.9695307 ], [ -71.5453826, -32.9695401 ], [ -71.5454054, -32.9694095 ], [ -71.5453282, -32.9694 ] ] ] } },
{ "type": "Feature", "properties": { "osm_id": "way/135680579", "name": "Terraza Sector 3", "source": "OpenStreetMap/Overpass", "building": "yes" }, "geometry": { "type": "Polygon", "coordinates": [ [ [ -71.5457593, -32.967647 ], [ -71.545737, -32.9677582 ], [ -71.545823, -32.9677703 ], [ -71.5458452, -32.9676591 ], [ -71.5457593, -32.967647 ] ] ] } },
{ "type": "Feature", "properties": { "osm_id": "way/1410380577", "name": null, "source": "OpenStreetMap/Overpass", "building": "apartments" }, "geometry": { "type": "Polygon", "coordinates": [ [ [ -71.5450342, -32.9675313 ], [ -71.5450091, -32.9676668 ], [ -71.5454416, -32.9677233 ], [ -71.5454667, -32.9675878 ], [ -71.5450342, -32.9675313 ] ] ] } },
{ "type": "Feature", "properties": { "osm_id": "way/1410380578", "name": null, "source": "OpenStreetMap/Overpass", "building": "apartments" }, "geometry": { "type": "Polygon", "coordinates": [ [ [ -71.5450624, -32.9673355 ], [ -71.5450372, -32.967471 ], [ -71.5454697, -32.9675275 ], [ -71.5454949, -32.967392 ], [ -71.5450624, -32.9673355 ] ] ] } },
{ "type": "Feature", "properties": { "osm_id": "way/1410380579", "name": null, "source": "OpenStreetMap/Overpass", "building": "apartments" }, "geometry": { "type": "Polygon", "coordinates": [ [ [ -71.5450932, -32.9671645 ], [ -71.5450681, -32.9673 ], [ -71.5455006, -32.9673565 ], [ -71.5455257, -32.967221 ], [ -71.5450932, -32.9671645 ] ] ] } },
{ "type": "Feature", "properties": { "osm_id": "way/135680583", "name": null, "source": "OpenStreetMap/Overpass", "building": "apartments" }, "geometry": { "type": "Polygon", "coordinates": [ [ [ -71.5451411, -32.9670018 ], [ -71.5451159, -32.9671373 ], [ -71.5455484, -32.9671938 ], [ -71.5455736, -32.9670583 ], [ -71.5451411, -32.9670018 ] ] ] } },
{ "type": "Feature", "properties": { "osm_id": "way/135680582", "name": null, "source": "OpenStreetMap/Overpass", "building": "yes" }, "geometry": { "type": "Polygon", "coordinates": [ [ [ -71.5454265, -32.9668172 ], [ -71.5454004, -32.9670004 ], [ -71.5455293, -32.9670133 ], [ -71.5455555, -32.9668302 ], [ -71.5454265, -32.9668172 ] ] ] } },
{ "type": "Feature", "properties": { "osm_id": "way/1410380576", "name": null, "source": "OpenStreetMap/Overpass", "building": "apartments" }, "geometry": { "type": "Polygon", "coordinates": [ [ [ -71.5451994, -32.9665237 ], [ -71.5456102, -32.9665978 ], [ -71.5456593, -32.9664063 ], [ -71.5452485, -32.9663322 ], [ -71.5451994, -32.9665237 ] ] ] } },
{ "type": "Feature", "properties": { "osm_id": "way/135680576", "name": "Terraza Sector 4", "source": "OpenStreetMap/Overpass", "building": "yes" }, "geometry": { "type": "Polygon", "coordinates": [ [ [ -71.5460616, -32.9661247 ], [ -71.5460347, -32.9662412 ], [ -71.5461159, -32.9662544 ], [ -71.5461428, -32.9661379 ], [ -71.5460616, -32.9661247 ] ] ] } },
{ "type": "Feature", "properties": { "osm_id": "way/1410380575", "name": null, "source": "OpenStreetMap/Overpass", "building": "apartments" }, "geometry": { "type": "Polygon", "coordinates": [ [ [ -71.5456919, -32.9663369 ], [ -71.5457409, -32.9661052 ], [ -71.545311, -32.9660412 ], [ -71.5452619, -32.9662729 ], [ -71.5456919, -32.9663369 ] ] ] } },
{ "type": "Feature", "properties": { "osm_id": "way/1410380574", "name": null, "source": "OpenStreetMap/Overpass", "building": "apartments" }, "geometry": { "type": "Polygon", "coordinates": [ [ [ -71.5452892, -32.9660068 ], [ -71.5457452, -32.9660822 ], [ -71.5457841, -32.9659168 ], [ -71.5453281, -32.9658414 ], [ -71.5452892, -32.9660068 ] ] ] } },
{ "type": "Feature", "properties": { "osm_id": "way/1410380573", "name": null, "source": "OpenStreetMap/Overpass", "building": "apartments" }, "geometry": { "type": "Polygon", "coordinates": [ [ [ -71.5457642, -32.9658769 ], [ -71.5457963, -32.9657276 ], [ -71.545354, -32.9656606 ], [ -71.5453219, -32.9658099 ], [ -71.5457642, -32.9658769 ] ] ] } },
{ "type": "Feature", "properties": { "osm_id": "way/1410380572", "name": null, "source": "OpenStreetMap/Overpass", "building": "apartments" }, "geometry": { "type": "Polygon", "coordinates": [ [ [ -71.5453831, -32.9656383 ], [ -71.545801, -32.965699 ], [ -71.5458287, -32.965565 ], [ -71.5454107, -32.9655043 ], [ -71.5453873, -32.9656178 ], [ -71.5453831, -32.9656383 ] ] ] } },
{ "type": "Feature", "properties": { "osm_id": "way/1410380571", "name": null, "source": "OpenStreetMap/Overpass", "building": "apartments" }, "geometry": { "type": "Polygon", "coordinates": [ [ [ -71.5451285, -32.9654603 ], [ -71.5453477, -32.965486 ], [ -71.5453895, -32.9652356 ], [ -71.5451703, -32.9652099 ], [ -71.5451285, -32.9654603 ] ] ] } },
{ "type": "Feature", "properties": { "osm_id": "way/135680577", "name": null, "source": "OpenStreetMap/Overpass", "building": "apartments" }, "geometry": { "type": "Polygon", "coordinates": [ [ [ -71.5454601, -32.9650732 ], [ -71.5454332, -32.9651964 ], [ -71.5459005, -32.9652683 ], [ -71.5459274, -32.965145 ], [ -71.5454601, -32.9650732 ] ] ] } },
{ "type": "Feature", "properties": { "osm_id": "way/1410380570", "name": null, "source": "OpenStreetMap/Overpass", "building": "apartments" }, "geometry": { "type": "Polygon", "coordinates": [ [ [ -71.5459373, -32.9650349 ], [ -71.5454746, -32.9649775 ], [ -71.5454612, -32.965054 ], [ -71.5459239, -32.9651114 ], [ -71.5459373, -32.9650349 ] ] ] } },
{ "type": "Feature", "properties": { "osm_id": "way/660635993", "name": null, "source": "OpenStreetMap/Overpass", "building": "yes" }, "geometry": { "type": "Polygon", "coordinates": [ [ [ -71.5461315, -32.9639699 ], [ -71.5457917, -32.9639374 ], [ -71.5457871, -32.9639712 ], [ -71.5453881, -32.9639331 ], [ -71.5453753, -32.9640276 ], [ -71.5461141, -32.9640982 ], [ -71.5461315, -32.9639699 ] ] ] } },
{ "type": "Feature", "properties": { "osm_id": "way/135680580", "name": "Terraza Sector 5", "source": "OpenStreetMap/Overpass", "building": "yes" }, "geometry": { "type": "Polygon", "coordinates": [ [ [ -71.5465944, -32.9639314 ], [ -71.5465656, -32.964053 ], [ -71.546651, -32.9640672 ], [ -71.5466798, -32.9639456 ], [ -71.5465944, -32.9639314 ] ] ] } },
{ "type": "Feature", "properties": { "osm_id": "way/135680584", "name": null, "source": "OpenStreetMap/Overpass", "building": "yes" }, "geometry": { "type": "Polygon", "coordinates": [ [ [ -71.5453966, -32.9634572 ], [ -71.5453503, -32.9637243 ], [ -71.546165, -32.9638238 ], [ -71.5462113, -32.9635567 ], [ -71.5453966, -32.9634572 ] ] ] } },
{ "type": "Feature", "properties": { "osm_id": "way/1018824875", "name": null, "source": "OpenStreetMap/Overpass", "building": "residential" }, "geometry": { "type": "Polygon", "coordinates": [ [ [ -71.5439884, -32.9691646 ], [ -71.5439528, -32.9691363 ], [ -71.5439843, -32.9691084 ], [ -71.5439338, -32.9690682 ], [ -71.543732, -32.9692471 ], [ -71.5437721, -32.9692789 ], [ -71.5438026, -32.9692519 ], [ -71.5438207, -32.9692662 ], [ -71.543859, -32.9692322 ], [ -71.5438871, -32.9692545 ], [ -71.5439884, -32.9691646 ] ] ] } },
{ "type": "Feature", "properties": { "osm_id": "way/1018824870", "name": "Edificio Don Esteban", "source": "OpenStreetMap/Overpass", "building": "apartments" }, "geometry": { "type": "Polygon", "coordinates": [ [ [ -71.5450119, -32.9691749 ], [ -71.5451353, -32.9689696 ], [ -71.5450441, -32.9689401 ], [ -71.5450535, -32.9689251 ], [ -71.5448537, -32.968874 ], [ -71.544849, -32.9688813 ], [ -71.5447987, -32.9688683 ], [ -71.5447209, -32.9689713 ], [ -71.5450119, -32.9691749 ] ] ] } },
{ "type": "Feature", "properties": { "osm_id": "way/1018824873", "name": null, "source": "OpenStreetMap/Overpass", "building": "house" }, "geometry": { "type": "Polygon", "coordinates": [ [ [ -71.5441177, -32.968909 ], [ -71.5441031, -32.9689192 ], [ -71.5440962, -32.9689122 ], [ -71.5440443, -32.9689485 ], [ -71.5440545, -32.9689587 ], [ -71.5440361, -32.9689716 ], [ -71.5440296, -32.9689651 ], [ -71.5439881, -32.9689941 ], [ -71.5439915, -32.9689976 ], [ -71.5439708, -32.9690121 ], [ -71.5440392, -32.9690809 ], [ -71.5440605, -32.969066 ], [ -71.5440669, -32.9690724 ], [ -71.5441027, -32.9690474 ], [ -71.5440965, -32.969041 ], [ -71.544123, -32.9690225 ], [ -71.5441303, -32.9690299 ], [ -71.5441621, -32.9690077 ], [ -71.5441569, -32.9690025 ], [ -71.5441885, -32.9689804 ], [ -71.5441177, -32.968909 ] ] ] } },
{ "type": "Feature", "properties": { "osm_id": "way/1018824874", "name": null, "source": "OpenStreetMap/Overpass", "building": "apartments" }, "geometry": { "type": "Polygon", "coordinates": [ [ [ -71.5441506, -32.9688698 ], [ -71.5443554, -32.9690872 ], [ -71.5444603, -32.9690177 ], [ -71.5442556, -32.9688002 ], [ -71.5441506, -32.9688698 ] ] ] } },
{ "type": "Feature", "properties": { "osm_id": "way/660635996", "name": "Edificio Cumbre", "source": "OpenStreetMap/Overpass", "building": "apartments" }, "geometry": { "type": "Polygon", "coordinates": [ [ [ -71.5449102, -32.9596952 ], [ -71.5447334, -32.9597053 ], [ -71.5447719, -32.9601783 ], [ -71.5449488, -32.9601682 ], [ -71.5449102, -32.9596952 ] ] ] } },
{ "type": "Feature", "properties": { "osm_id": "way/184070055", "name": null, "source": "OpenStreetMap/Overpass", "building": "yes" }, "geometry": { "type": "Polygon", "coordinates": [ [ [ -71.5435207, -32.9581906 ], [ -71.543534, -32.9585945 ], [ -71.5436947, -32.9585908 ], [ -71.5436876, -32.9583755 ], [ -71.543649, -32.9583764 ], [ -71.5436428, -32.9581878 ], [ -71.5435207, -32.9581906 ] ] ] } },
{ "type": "Feature", "properties": { "osm_id": "way/184070048", "name": null, "source": "OpenStreetMap/Overpass", "building": "roof" }, "geometry": { "type": "Polygon", "coordinates": [ [ [ -71.5438326, -32.9582555 ], [ -71.5438319, -32.9583389 ], [ -71.5441297, -32.9583407 ], [ -71.5441305, -32.9582573 ], [ -71.5438326, -32.9582555 ] ] ] } },
{ "type": "Feature", "properties": { "osm_id": "way/897761042", "name": "Edificio Florencia", "source": "OpenStreetMap/Overpass", "building": "apartments" }, "geometry": { "type": "Polygon", "coordinates": [ [ [ -71.5449555, -32.963392 ], [ -71.5449388, -32.9635301 ], [ -71.5451929, -32.9635518 ], [ -71.5452096, -32.9634137 ], [ -71.5449555, -32.963392 ] ] ] } },
{ "type": "Feature", "properties": { "osm_id": "way/660635994", "name": "Edificio Pinamar II", "source": "OpenStreetMap/Overpass", "building": "apartments" }, "geometry": { "type": "Polygon", "coordinates": [ [ [ -71.5451926, -32.9628459 ], [ -71.5450403, -32.9628403 ], [ -71.5450276, -32.9630842 ], [ -71.5451798, -32.9630898 ], [ -71.5451926, -32.9628459 ] ] ] } },
{ "type": "Feature", "properties": { "osm_id": "way/897761041", "name": "Edificio Santiaguillo", "source": "OpenStreetMap/Overpass", "building": "apartments" }, "geometry": { "type": "Polygon", "coordinates": [ [ [ -71.5450225, -32.9626605 ], [ -71.5450043, -32.9627869 ], [ -71.5452257, -32.9628094 ], [ -71.5452439, -32.962683 ], [ -71.5450225, -32.9626605 ] ] ] } },
{ "type": "Feature", "properties": { "osm_id": "way/1312564713", "name": "Edificio Eurosol", "source": "OpenStreetMap/Overpass", "building": "apartments" }, "geometry": { "type": "Polygon", "coordinates": [ [ [ -71.5474725, -32.9621383 ], [ -71.5473366, -32.9621826 ], [ -71.5473781, -32.9622745 ], [ -71.5473482, -32.9622866 ], [ -71.5473248, -32.9623021 ], [ -71.5472999, -32.9623254 ], [ -71.5472881, -32.9623508 ], [ -71.5472833, -32.9623779 ], [ -71.5471912, -32.9623602 ], [ -71.54715, -32.9624787 ], [ -71.5473916, -32.9625339 ], [ -71.5474458, -32.9624681 ], [ -71.5473529, -32.9623913 ], [ -71.5474058, -32.962336 ], [ -71.5475033, -32.9624108 ], [ -71.5475719, -32.9623479 ], [ -71.5474725, -32.9621383 ] ] ] } },
{ "type": "Feature", "properties": { "osm_id": "way/897761040", "name": "Edificio Reñaca Blue", "source": "OpenStreetMap/Overpass", "building": "apartments" }, "geometry": { "type": "Polygon", "coordinates": [ [ [ -71.5453256, -32.962078 ], [ -71.5452772, -32.9622275 ], [ -71.5452171, -32.9622138 ], [ -71.5452019, -32.9622608 ], [ -71.5452907, -32.962281 ], [ -71.5452463, -32.9624181 ], [ -71.5453333, -32.9624379 ], [ -71.5454413, -32.9621043 ], [ -71.5453256, -32.962078 ] ] ] } },
{ "type": "Feature", "properties": { "osm_id": "way/319554640", "name": null, "source": "OpenStreetMap/Overpass", "building": "yes" }, "geometry": { "type": "Polygon", "coordinates": [ [ [ -71.546883, -32.9616674 ], [ -71.5467811, -32.9616809 ], [ -71.5467301, -32.9616719 ], [ -71.5466657, -32.9616179 ], [ -71.5466228, -32.9616651 ], [ -71.5466711, -32.9617034 ], [ -71.5466309, -32.9618317 ], [ -71.5465531, -32.9618114 ], [ -71.5465423, -32.9618812 ], [ -71.5466738, -32.9619217 ], [ -71.5467569, -32.9620702 ], [ -71.5468052, -32.9620477 ], [ -71.5467516, -32.9618767 ], [ -71.5467837, -32.9617416 ], [ -71.546891, -32.9617214 ], [ -71.546883, -32.9616674 ] ] ] } },
{ "type": "Feature", "properties": { "osm_id": "way/1353507076", "name": "Edificio El Encanto", "source": "OpenStreetMap/Overpass", "building": "apartments" }, "geometry": { "type": "Polygon", "coordinates": [ [ [ -71.5463235, -32.9608861 ], [ -71.5462195, -32.9611495 ], [ -71.5464434, -32.9611709 ], [ -71.5464695, -32.9610206 ], [ -71.5465046, -32.9610249 ], [ -71.5465246, -32.9609095 ], [ -71.5463235, -32.9608861 ] ] ] } },
{ "type": "Feature", "properties": { "osm_id": "way/1353507074", "name": "Edificio Eurobrisa", "source": "OpenStreetMap/Overpass", "building": "apartments" }, "geometry": { "type": "Polygon", "coordinates": [ [ [ -71.5467502, -32.9608261 ], [ -71.5471817, -32.9609523 ], [ -71.5471965, -32.9609518 ], [ -71.5472081, -32.9609441 ], [ -71.5472201, -32.9609335 ], [ -71.5472214, -32.9609193 ], [ -71.547216, -32.9608938 ], [ -71.5472197, -32.9608682 ], [ -71.5472303, -32.9608426 ], [ -71.5472433, -32.9608293 ], [ -71.5472611, -32.9608167 ], [ -71.547274, -32.9608017 ], [ -71.5472783, -32.9607849 ], [ -71.5472779, -32.9607689 ], [ -71.5472657, -32.9607548 ], [ -71.5468305, -32.9606239 ], [ -71.5467502, -32.9608261 ] ] ] } },
{ "type": "Feature", "properties": { "osm_id": "way/1353507075", "name": "Edificio Puerto Calais", "source": "OpenStreetMap/Overpass", "building": "apartments" }, "geometry": { "type": "Polygon", "coordinates": [ [ [ -71.5464251, -32.9605301 ], [ -71.5463934, -32.9607267 ], [ -71.546311, -32.9608646 ], [ -71.5464974, -32.9608858 ], [ -71.5465525, -32.9605446 ], [ -71.5464251, -32.9605301 ] ] ] } },
{ "type": "Feature", "properties": { "osm_id": "way/660635995", "name": "Edificio Marvento", "source": "OpenStreetMap/Overpass", "building": "yes" }, "geometry": { "type": "Polygon", "coordinates": [ [ [ -71.5461898, -32.9604825 ], [ -71.5460553, -32.9604351 ], [ -71.5458808, -32.9607837 ], [ -71.5460153, -32.9608311 ], [ -71.5461898, -32.9604825 ] ] ] } },
{ "type": "Feature", "properties": { "osm_id": "way/660635998", "name": "Edificio Belorizzonte", "source": "OpenStreetMap/Overpass", "building": "apartments" }, "geometry": { "type": "Polygon", "coordinates": [ [ [ -71.5451512, -32.9594524 ], [ -71.5452162, -32.9594588 ], [ -71.5452414, -32.9592758 ], [ -71.5450723, -32.9592594 ], [ -71.5450615, -32.9593378 ], [ -71.5448811, -32.9593802 ], [ -71.544923, -32.959506 ], [ -71.5451512, -32.9594524 ] ] ] } },
{ "type": "Feature", "properties": { "osm_id": "way/1353507072", "name": "Edificio Jabeque", "source": "OpenStreetMap/Overpass", "building": "apartments" }, "geometry": { "type": "Polygon", "coordinates": [ [ [ -71.5483979, -32.9590993 ], [ -71.5482323, -32.9593595 ], [ -71.5483476, -32.9594112 ], [ -71.5485132, -32.959151 ], [ -71.5483979, -32.9590993 ] ] ] } },
{ "type": "Feature", "properties": { "osm_id": "way/660635999", "name": "Edificio Reñacamar II", "source": "OpenStreetMap/Overpass", "building": "apartments" }, "geometry": { "type": "Polygon", "coordinates": [ [ [ -71.5450496, -32.9586682 ], [ -71.5448942, -32.9586761 ], [ -71.5449217, -32.9590575 ], [ -71.5450771, -32.9590496 ], [ -71.5450496, -32.9586682 ] ] ] } },
{ "type": "Feature", "properties": { "osm_id": "way/660636000", "name": null, "source": "OpenStreetMap/Overpass", "building": "yes" }, "geometry": { "type": "Polygon", "coordinates": [ [ [ -71.545413, -32.9589657 ], [ -71.5454017, -32.9589396 ], [ -71.5455055, -32.9589079 ], [ -71.5455532, -32.958915 ], [ -71.5455943, -32.9587191 ], [ -71.5454492, -32.9586977 ], [ -71.545422, -32.9588275 ], [ -71.5452878, -32.9588684 ], [ -71.5453396, -32.9589881 ], [ -71.545413, -32.9589657 ] ] ] } },
{ "type": "Feature", "properties": { "osm_id": "way/1353507071", "name": "Edificio Puerto Vallarta", "source": "OpenStreetMap/Overpass", "building": "apartments" }, "geometry": { "type": "Polygon", "coordinates": [ [ [ -71.5483715, -32.9587855 ], [ -71.5487331, -32.9589268 ], [ -71.5488359, -32.9587416 ], [ -71.5484744, -32.9586003 ], [ -71.5483715, -32.9587855 ] ] ] } },
{ "type": "Feature", "properties": { "osm_id": "way/1353507073", "name": "Edificio Carabela", "source": "OpenStreetMap/Overpass", "building": "apartments" }, "geometry": { "type": "Polygon", "coordinates": [ [ [ -71.5480117, -32.9584641 ], [ -71.5477603, -32.958888 ], [ -71.5478761, -32.9589364 ], [ -71.547905, -32.9588876 ], [ -71.5479233, -32.9588953 ], [ -71.5480503, -32.9586813 ], [ -71.5480295, -32.9586726 ], [ -71.5481251, -32.9585115 ], [ -71.5480117, -32.9584641 ] ] ] } },
{ "type": "Feature", "properties": { "osm_id": "way/1353507070", "name": "Edificio Cancún", "source": "OpenStreetMap/Overpass", "building": "apartments" }, "geometry": { "type": "Polygon", "coordinates": [ [ [ -71.5486089, -32.9583279 ], [ -71.5484879, -32.9585295 ], [ -71.5488706, -32.9586913 ], [ -71.5489916, -32.9584897 ], [ -71.5486089, -32.9583279 ] ] ] } },
{ "type": "Feature", "properties": { "osm_id": "way/660636002", "name": null, "source": "OpenStreetMap/Overpass", "building": "apartments" }, "geometry": { "type": "Polygon", "coordinates": [ [ [ -71.5459989, -32.9583591 ], [ -71.545832, -32.9583275 ], [ -71.5457944, -32.9584672 ], [ -71.5458539, -32.9584785 ], [ -71.545836, -32.9585449 ], [ -71.5457841, -32.9585351 ], [ -71.5457527, -32.9586521 ], [ -71.545912, -32.9586822 ], [ -71.5459989, -32.9583591 ] ] ] } },
{ "type": "Feature", "properties": { "osm_id": "way/660636001", "name": "Edificio Buenavista", "source": "OpenStreetMap/Overpass", "building": "apartments" }, "geometry": { "type": "Polygon", "coordinates": [ [ [ -71.5451646, -32.9581425 ], [ -71.5451028, -32.9581524 ], [ -71.5451232, -32.9582421 ], [ -71.5451866, -32.9582319 ], [ -71.5452218, -32.9583866 ], [ -71.5452023, -32.9584396 ], [ -71.5451794, -32.9584337 ], [ -71.5451418, -32.9585357 ], [ -71.5452691, -32.9585687 ], [ -71.545338, -32.9583815 ], [ -71.545253679263666, -32.95806426284733 ], [ -71.545147260459601, -32.958066433426062 ], [ -71.5451646, -32.9581425 ] ] ] } }
]
}
