{
  "type": "FeatureCollection",
  "name": "shorelines_2016_2026_fes2014",
  "features": [
    {
      "type": "Feature",
      "properties": {
        "year": 2016,
        "scene_count": 1,
        "processing_level": "L2A_FES2014"
      },
      "geometry": {
        "type": "LineString",
        "coordinates": [
          [
            -71.63529496373846,
            -33.63193399762462
          ],
          [
            -71.63530184089666,
            -33.63294061428982
          ],
          [
            -71.63532334977558,
            -33.63396371506654
          ],
          [
            -71.63532492896194,
            -33.6349703276422
          ],
          [
            -71.63533553801902,
            -33.63598706708724
          ],
          [
            -71.63537706010757,
            -33.637001629712884
          ],
          [
            -71.63541622089897,
            -33.63801482064874
          ],
          [
            -71.63548352579254,
            -33.639028450028846
          ],
          [
            -71.63556333005673,
            -33.640040694331596
          ],
          [
            -71.63564514327798,
            -33.64105373667374
          ],
          [
            -71.63567818411902,
            -33.64205638954839
          ],
          [
            -71.63572320390442,
            -33.643070851200186
          ],
          [
            -71.63573188638914,
            -33.644089961093954
          ],
          [
            -71.63564519612011,
            -33.645081602268206
          ]
        ]
      }
    },
    {
      "type": "Feature",
      "properties": {
        "year": 2017,
        "scene_count": 1,
        "processing_level": "L2A_FES2014"
      },
      "geometry": {
        "type": "LineString",
        "coordinates": [
          [
            -71.63531435736574,
            -33.63193390787586
          ],
          [
            -71.63531790197526,
            -33.63294124755612
          ],
          [
            -71.63533610707437,
            -33.63396337375767
          ],
          [
            -71.63533436915897,
            -33.63497066196016
          ],
          [
            -71.63534133965993,
            -33.63598711052101
          ],
          [
            -71.63537623156154,
            -33.63700161097701
          ],
          [
            -71.6354100877227,
            -33.6380148774789
          ],
          [
            -71.63547200523222,
            -33.63902855678994
          ],
          [
            -71.6355460098479,
            -33.64004097876034
          ],
          [
            -71.63562202177276,
            -33.641054116393526
          ],
          [
            -71.63565752933549,
            -33.64205778885634
          ],
          [
            -71.63570783656684,
            -33.64307189229977
          ],
          [
            -71.63572310941713,
            -33.6440903035288
          ],
          [
            -71.63564508650806,
            -33.645079802041394
          ]
        ]
      }
    },
    {
      "type": "Feature",
      "properties": {
        "year": 2018,
        "scene_count": 1,
        "processing_level": "L2A_FES2014"
      },
      "geometry": {
        "type": "LineString",
        "coordinates": [
          [
            -71.63533375099277,
            -33.63193381812405
          ],
          [
            -71.63533396305395,
            -33.632941880820326
          ],
          [
            -71.63534886437297,
            -33.633963032447475
          ],
          [
            -71.63534380935602,
            -33.634970996277396
          ],
          [
            -71.63534714130081,
            -33.63598715395453
          ],
          [
            -71.6353754030155,
            -33.63700159224111
          ],
          [
            -71.63540395454639,
            -33.63801493430877
          ],
          [
            -71.6354604846718,
            -33.63902866354994
          ],
          [
            -71.63552868963876,
            -33.64004126318668
          ],
          [
            -71.63559890026703,
            -33.641054496108985
          ],
          [
            -71.63563687455104,
            -33.642059188160886
          ],
          [
            -71.63569246922876,
            -33.64307293339748
          ],
          [
            -71.635714332445,
            -33.64409064596303
          ],
          [
            -71.63564497689602,
            -33.645078001814575
          ]
        ]
      }
    },
    {
      "type": "Feature",
      "properties": {
        "year": 2019,
        "scene_count": 1,
        "processing_level": "L2A_FES2014"
      },
      "geometry": {
        "type": "LineString",
        "coordinates": [
          [
            -71.63535314461956,
            -33.6319337283692
          ],
          [
            -71.63535002413273,
            -33.632942514082444
          ],
          [
            -71.63536162167138,
            -33.633962691135984
          ],
          [
            -71.6353532495531,
            -33.6349713305939
          ],
          [
            -71.6353529429417,
            -33.63598719738778
          ],
          [
            -71.63537457446947,
            -33.63700157350523
          ],
          [
            -71.63539782137005,
            -33.63801499113831
          ],
          [
            -71.63544896411129,
            -33.63902877030887
          ],
          [
            -71.63551136942937,
            -33.64004154761058
          ],
          [
            -71.6355757787608,
            -33.6410548758201
          ],
          [
            -71.6356162197657,
            -33.64206058746201
          ],
          [
            -71.63567710189017,
            -33.64307397449328
          ],
          [
            -71.63570555547277,
            -33.64409098839663
          ],
          [
            -71.63564486728399,
            -33.645076201587756
          ]
        ]
      }
    },
    {
      "type": "Feature",
      "properties": {
        "year": 2020,
        "scene_count": 1,
        "processing_level": "L2A_FES2014"
      },
      "geometry": {
        "type": "LineString",
        "coordinates": [
          [
            -71.63537253824609,
            -33.631933638611294
          ],
          [
            -71.63536608521161,
            -33.63294314734246
          ],
          [
            -71.6353743789696,
            -33.63396234982318
          ],
          [
            -71.63536268975021,
            -33.634971664909685
          ],
          [
            -71.63535874458256,
            -33.63598724082074
          ],
          [
            -71.63537374592343,
            -33.637001554769334
          ],
          [
            -71.63539168819369,
            -33.63801504796756
          ],
          [
            -71.63543744355067,
            -33.639028877066735
          ],
          [
            -71.63549404921969,
            -33.640041832032054
          ],
          [
            -71.63555265725405,
            -33.64105525552691
          ],
          [
            -71.63559556497944,
            -33.64206198675972
          ],
          [
            -71.63566173455108,
            -33.643075015587186
          ],
          [
            -71.63569677850042,
            -33.64409133082961
          ],
          [
            -71.63564475767198,
            -33.64507440136094
          ]
        ]
      }
    },
    {
      "type": "Feature",
      "properties": {
        "year": 2021,
        "scene_count": 1,
        "processing_level": "L2A_FES2014"
      },
      "geometry": {
        "type": "LineString",
        "coordinates": [
          [
            -71.63539193187236,
            -33.63193354885036
          ],
          [
            -71.63538214629057,
            -33.632943780600364
          ],
          [
            -71.63538713626764,
            -33.63396200850905
          ],
          [
            -71.63537212994733,
            -33.634971999224746
          ],
          [
            -71.63536454622343,
            -33.63598728425343
          ],
          [
            -71.6353729173774,
            -33.63700153603343
          ],
          [
            -71.6353855550173,
            -33.6380151047965
          ],
          [
            -71.63542592298994,
            -33.63902898382351
          ],
          [
            -71.63547672900972,
            -33.64004211645111
          ],
          [
            -71.63552953574681,
            -33.641055635229414
          ],
          [
            -71.63557491019229,
            -33.642063386053984
          ],
          [
            -71.63564636721149,
            -33.6430760566792
          ],
          [
            -71.63568800152795,
            -33.64409167326199
          ],
          [
            -71.63564464805997,
            -33.64507260113412
          ]
        ]
      }
    },
    {
      "type": "Feature",
      "properties": {
        "year": 2022,
        "scene_count": 1,
        "processing_level": "L2A_FES2014"
      },
      "geometry": {
        "type": "LineString",
        "coordinates": [
          [
            -71.6354113254984,
            -33.631933459086376
          ],
          [
            -71.63539820736963,
            -33.63294441385617
          ],
          [
            -71.63539989356548,
            -33.63396166719361
          ],
          [
            -71.63538157014446,
            -33.634972333539075
          ],
          [
            -71.63537034786425,
            -33.63598732768585
          ],
          [
            -71.63537208883136,
            -33.63700151729753
          ],
          [
            -71.63537942184088,
            -33.63801516162515
          ],
          [
            -71.63541440242912,
            -33.639029090579236
          ],
          [
            -71.63545940879946,
            -33.640042400867735
          ],
          [
            -71.63550641423907,
            -33.64105601492758
          ],
          [
            -71.63555425540422,
            -33.64206478534483
          ],
          [
            -71.6356309998714,
            -33.64307709776933
          ],
          [
            -71.63567922455537,
            -33.64409201569372
          ],
          [
            -71.63564453844796,
            -33.64507080090729
          ]
        ]
      }
    },
    {
      "type": "Feature",
      "properties": {
        "year": 2023,
        "scene_count": 1,
        "processing_level": "L2A_FES2014"
      },
      "geometry": {
        "type": "LineString",
        "coordinates": [
          [
            -71.63543071912417,
            -33.63193336931934
          ],
          [
            -71.63541426844878,
            -33.63294504710989
          ],
          [
            -71.63541265086312,
            -33.633961325876875
          ],
          [
            -71.63539101034164,
            -33.634972667852686
          ],
          [
            -71.63537614950509,
            -33.635987371118
          ],
          [
            -71.63537126028532,
            -33.63700149856162
          ],
          [
            -71.63537328866443,
            -33.63801521845348
          ],
          [
            -71.63540288186819,
            -33.639029197333876
          ],
          [
            -71.63544208858893,
            -33.640042685281955
          ],
          [
            -71.63548329273084,
            -33.64105639462144
          ],
          [
            -71.63553360061523,
            -33.64206618463226
          ],
          [
            -71.63561563253081,
            -33.64307813885754
          ],
          [
            -71.63567044758268,
            -33.64409235812485
          ],
          [
            -71.63564442883596,
            -33.64506900068047
          ]
        ]
      }
    },
    {
      "type": "Feature",
      "properties": {
        "year": 2024,
        "scene_count": 1,
        "processing_level": "L2A_FES2014"
      },
      "geometry": {
        "type": "LineString",
        "coordinates": [
          [
            -71.6354501127497,
            -33.631933279549266
          ],
          [
            -71.63543032952802,
            -33.632945680361495
          ],
          [
            -71.63542540816059,
            -33.6339609845588
          ],
          [
            -71.63540045053882,
            -33.634973002165566
          ],
          [
            -71.6353819511459,
            -33.63598741454987
          ],
          [
            -71.63537043173929,
            -33.6370014798257
          ],
          [
            -71.63536715548794,
            -33.6380152752815
          ],
          [
            -71.63539136130717,
            -33.63902930408744
          ],
          [
            -71.63542476837813,
            -33.64004296969373
          ],
          [
            -71.63546017122209,
            -33.64105677431097
          ],
          [
            -71.63551294582535,
            -33.64206758391627
          ],
          [
            -71.63560026518972,
            -33.643079179943875
          ],
          [
            -71.63566167060988,
            -33.644092700555355
          ],
          [
            -71.63564431922397,
            -33.645067200453646
          ]
        ]
      }
    },
    {
      "type": "Feature",
      "properties": {
        "year": 2025,
        "scene_count": 1,
        "processing_level": "L2A_FES2014"
      },
      "geometry": {
        "type": "LineString",
        "coordinates": [
          [
            -71.63546950637497,
            -33.631933189776156
          ],
          [
            -71.63544639060734,
            -33.63294631361101
          ],
          [
            -71.63543816545783,
            -33.63396064323942
          ],
          [
            -71.63540989073604,
            -33.634973336477735
          ],
          [
            -71.6353877527867,
            -33.63598745798147
          ],
          [
            -71.63536960319324,
            -33.63700146108978
          ],
          [
            -71.63536102231144,
            -33.63801533210923
          ],
          [
            -71.63537984074604,
            -33.63902941083993
          ],
          [
            -71.63540744816703,
            -33.640043254103084
          ],
          [
            -71.63543704971285,
            -33.641057153996165
          ],
          [
            -71.63549229103458,
            -33.64206898319686
          ],
          [
            -71.6355848978481,
            -33.6430802210283
          ],
          [
            -71.63565289363697,
            -33.64409304298524
          ],
          [
            -71.63564420961197,
            -33.64506540022683
          ]
        ]
      }
    },
    {
      "type": "Feature",
      "properties": {
        "year": 2026,
        "scene_count": 1,
        "processing_level": "L2A_FES2014"
      },
      "geometry": {
        "type": "LineString",
        "coordinates": [
          [
            -71.6354889,
            -33.6319331
          ],
          [
            -71.63546245168676,
            -33.63294694685842
          ],
          [
            -71.63545092275491,
            -33.63396030191873
          ],
          [
            -71.63541933093327,
            -33.63497367078916
          ],
          [
            -71.63539355442748,
            -33.6359875014128
          ],
          [
            -71.6353687746472,
            -33.63700144235385
          ],
          [
            -71.6353548891349,
            -33.63801538893666
          ],
          [
            -71.6353683201848,
            -33.63902951759135
          ],
          [
            -71.63539012795565,
            -33.640043538510035
          ],
          [
            -71.6354139282031,
            -33.641057533677056
          ],
          [
            -71.63547163624288,
            -33.64207038247401
          ],
          [
            -71.63556953050602,
            -33.64308126211085
          ],
          [
            -71.63564411666394,
            -33.64409338541451
          ],
          [
            -71.6356441,
            -33.64506359999999
          ]
        ]
      }
    }
  ]
}